{"type": "FeatureCollection", "crs": {"type": "name", "properties": {"name": "EPSG:4326"}}, "features": [{"type": "Feature", "id": 1, "geometry": {"type": "Point", "coordinates": [72.8312169260001, 19.1281315680001]}, "properties": {"OBJECTID": 1, "Name": "D.N. Nagar -2A", "FolderPath": "Metro_Lines.kmz/Metro_Lines", "SymbolID": 0, "AltMode": -1, "Base": 0, "Snippet": "", "PopupInfo": "", "HasLabel": -1, "LabelID": 0, "_source": "MCGM ArcGIS FeatureServer (official)"}}, {"type": "Feature", "id": 2, "geometry": {"type": "Point", "coordinates": [72.8668654670001, 19.2508389720001]}, "properties": {"OBJECTID": 2, "Name": "Dahisar -2A", "FolderPath": "Metro_Lines.kmz/Metro_Lines", "SymbolID": 0, "AltMode": -1, "Base": 0, "Snippet": "", "PopupInfo": "", "HasLabel": -1, "LabelID": 0, "_source": "MCGM ArcGIS FeatureServer (official)"}}, {"type": "Feature", "id": 3, "geometry": {"type": "Point", "coordinates": [72.8652462800001, 19.257411227]}, "properties": {"OBJECTID": 3, "Name": "Anand Nagar-2A", "FolderPath": "Metro_Lines.kmz/Metro_Lines", "SymbolID": 0, "AltMode": -1, "Base": 0, "Snippet": "", "PopupInfo": "", "HasLabel": -1, "LabelID": 0, "_source": "MCGM ArcGIS FeatureServer (official)"}}, {"type": "Feature", "id": 4, "geometry": {"type": "Point", "coordinates": [72.8506801, 19.2566506]}, "properties": {"OBJECTID": 4, "Name": "Kandarpada-2A", "FolderPath": "Metro_Lines.kmz/Metro_Lines", "SymbolID": 0, "AltMode": -1, "Base": 0, "Snippet": "", "PopupInfo": "", "HasLabel": -1, "LabelID": 0, "_source": "MCGM ArcGIS FeatureServer (official)"}}, {"type": "Feature", "id": 5, "geometry": {"type": "Point", "coordinates": [72.8457245000001, 19.249577]}, "properties": {"OBJECTID": 5, "Name": "Mandapeshwar-2A", "FolderPath": "Metro_Lines.kmz/Metro_Lines", "SymbolID": 0, "AltMode": -1, "Base": 0, "Snippet": "", "PopupInfo": "", "HasLabel": -1, "LabelID": 0, "_source": "MCGM ArcGIS FeatureServer (official)"}}, {"type": "Feature", "id": 6, "geometry": {"type": "Point", "coordinates": [72.8434859000001, 19.240398]}, "properties": {"OBJECTID": 6, "Name": "Eksar-2A", "FolderPath": "Metro_Lines.kmz/Metro_Lines", "SymbolID": 0, "AltMode": -1, "Base": 0, "Snippet": "", "PopupInfo": "", "HasLabel": -1, "LabelID": 0, "_source": "MCGM ArcGIS FeatureServer (official)"}}, {"type": "Feature", "id": 7, "geometry": {"type": "Point", "coordinates": [72.8408448000001, 19.2314636]}, "properties": {"OBJECTID": 7, "Name": "Borivali(West)- 2A", "FolderPath": "Metro_Lines.kmz/Metro_Lines", "SymbolID": 0, "AltMode": -1, "Base": 0, "Snippet": "", "PopupInfo": "", "HasLabel": -1, "LabelID": 0, "_source": "MCGM ArcGIS FeatureServer (official)"}}, {"type": "Feature", "id": 8, "geometry": {"type": "Point", "coordinates": [72.8409065000001, 19.2230653]}, "properties": {"OBJECTID": 8, "Name": "Pahadi Eksar-2A", "FolderPath": "Metro_Lines.kmz/Metro_Lines", "SymbolID": 0, "AltMode": -1, "Base": 0, "Snippet": "", "PopupInfo": "", "HasLabel": -1, "LabelID": 0, "_source": "MCGM ArcGIS FeatureServer (official)"}}, {"type": "Feature", "id": 9, "geometry": {"type": "Point", "coordinates": [72.8374089000001, 19.2140914]}, "properties": {"OBJECTID": 9, "Name": "Kandivali (West)-2A", "FolderPath": "Metro_Lines.kmz/Metro_Lines", "SymbolID": 0, "AltMode": -1, "Base": 0, "Snippet": "", "PopupInfo": "", "HasLabel": -1, "LabelID": 0, "_source": "MCGM ArcGIS FeatureServer (official)"}}, {"type": "Feature", "id": 10, "geometry": {"type": "Point", "coordinates": [72.8347945, 19.2062981]}, "properties": {"OBJECTID": 10, "Name": "Dahanukarwadi", "FolderPath": "Metro_Lines.kmz/Metro_Lines", "SymbolID": 0, "AltMode": -1, "Base": 0, "Snippet": "", "PopupInfo": "", "HasLabel": -1, "LabelID": 0, "_source": "MCGM ArcGIS FeatureServer (official)"}}, {"type": "Feature", "id": 11, "geometry": {"type": "Point", "coordinates": [72.8338828000001, 19.1971463]}, "properties": {"OBJECTID": 11, "Name": "Valnai", "FolderPath": "Metro_Lines.kmz/Metro_Lines", "SymbolID": 0, "AltMode": -1, "Base": 0, "Snippet": "", "PopupInfo": "", "HasLabel": -1, "LabelID": 0, "_source": "MCGM ArcGIS FeatureServer (official)"}}, {"type": "Feature", "id": 12, "geometry": {"type": "Point", "coordinates": [72.8358797000001, 19.1854419]}, "properties": {"OBJECTID": 12, "Name": "Malad West", "FolderPath": "Metro_Lines.kmz/Metro_Lines", "SymbolID": 0, "AltMode": -1, "Base": 0, "Snippet": "", "PopupInfo": "", "HasLabel": -1, "LabelID": 0, "_source": "MCGM ArcGIS FeatureServer (official)"}}, {"type": "Feature", "id": 13, "geometry": {"type": "Point", "coordinates": [72.8364349, 19.1729819]}, "properties": {"OBJECTID": 13, "Name": "Lower Malad", "FolderPath": "Metro_Lines.kmz/Metro_Lines", "SymbolID": 0, "AltMode": -1, "Base": 0, "Snippet": "", "PopupInfo": "", "HasLabel": -1, "LabelID": 0, "_source": "MCGM ArcGIS FeatureServer (official)"}}, {"type": "Feature", "id": 14, "geometry": {"type": "Point", "coordinates": [72.8348751, 19.162381]}, "properties": {"OBJECTID": 14, "Name": "Pahadi Goregaon", "FolderPath": "Metro_Lines.kmz/Metro_Lines", "SymbolID": 0, "AltMode": -1, "Base": 0, "Snippet": "", "PopupInfo": "", "HasLabel": -1, "LabelID": 0, "_source": "MCGM ArcGIS FeatureServer (official)"}}, {"type": "Feature", "id": 15, "geometry": {"type": "Point", "coordinates": [72.8356803, 19.1533809]}, "properties": {"OBJECTID": 15, "Name": "Goregaon West", "FolderPath": "Metro_Lines.kmz/Metro_Lines", "SymbolID": 0, "AltMode": -1, "Base": 0, "Snippet": "", "PopupInfo": "", "HasLabel": -1, "LabelID": 0, "_source": "MCGM ArcGIS FeatureServer (official)"}}, {"type": "Feature", "id": 16, "geometry": {"type": "Point", "coordinates": [72.8341798000001, 19.1460568]}, "properties": {"OBJECTID": 16, "Name": "Oshiwara", "FolderPath": "Metro_Lines.kmz/Metro_Lines", "SymbolID": 0, "AltMode": -1, "Base": 0, "Snippet": "", "PopupInfo": "", "HasLabel": -1, "LabelID": 0, "_source": "MCGM ArcGIS FeatureServer (official)"}}, {"type": "Feature", "id": 17, "geometry": {"type": "Point", "coordinates": [72.8316688, 19.1409163000001]}, "properties": {"OBJECTID": 17, "Name": "Lower Oshiwara", "FolderPath": "Metro_Lines.kmz/Metro_Lines", "SymbolID": 0, "AltMode": -1, "Base": 0, "Snippet": "", "PopupInfo": "", "HasLabel": -1, "LabelID": 0, "_source": "MCGM ArcGIS FeatureServer (official)"}}, {"type": "Feature", "id": 18, "geometry": {"type": "Point", "coordinates": [72.8314562, 19.1292741]}, "properties": {"OBJECTID": 18, "Name": "Andheri West", "FolderPath": "Metro_Lines.kmz/Metro_Lines", "SymbolID": 0, "AltMode": -1, "Base": 0, "Snippet": "", "PopupInfo": "", "HasLabel": -1, "LabelID": 0, "_source": "MCGM ArcGIS FeatureServer (official)"}}, {"type": "Feature", "id": 19, "geometry": {"type": "Point", "coordinates": [72.8643636030001, 19.242675922]}, "properties": {"OBJECTID": 19, "Name": "Ovaripada", "FolderPath": "Metro_Lines.kmz/Metro_Lines", "SymbolID": 0, "AltMode": -1, "Base": 0, "Snippet": "", "PopupInfo": "", "HasLabel": -1, "LabelID": 0, "_source": "MCGM ArcGIS FeatureServer (official)"}}, {"type": "Feature", "id": 20, "geometry": {"type": "Point", "coordinates": [72.8633457000001, 19.234275982]}, "properties": {"OBJECTID": 20, "Name": "Rashtriya Udyan", "FolderPath": "Metro_Lines.kmz/Metro_Lines", "SymbolID": 0, "AltMode": -1, "Base": 0, "Snippet": "", "PopupInfo": "", "HasLabel": -1, "LabelID": 0, "_source": "MCGM ArcGIS FeatureServer (official)"}}, {"type": "Feature", "id": 21, "geometry": {"type": "Point", "coordinates": [72.864539816, 19.223818651]}, "properties": {"OBJECTID": 21, "Name": "Devipada", "FolderPath": "Metro_Lines.kmz/Metro_Lines", "SymbolID": 0, "AltMode": -1, "Base": 0, "Snippet": "", "PopupInfo": "", "HasLabel": -1, "LabelID": 0, "_source": "MCGM ArcGIS FeatureServer (official)"}}, {"type": "Feature", "id": 22, "geometry": {"type": "Point", "coordinates": [72.8685355280001, 19.2119751270001]}, "properties": {"OBJECTID": 22, "Name": "Magathane", "FolderPath": "Metro_Lines.kmz/Metro_Lines", "SymbolID": 0, "AltMode": -1, "Base": 0, "Snippet": "", "PopupInfo": "", "HasLabel": -1, "LabelID": 0, "_source": "MCGM ArcGIS FeatureServer (official)"}}, {"type": "Feature", "id": 23, "geometry": {"type": "Point", "coordinates": [72.8636146210001, 19.2038063600001]}, "properties": {"OBJECTID": 23, "Name": "Poisar", "FolderPath": "Metro_Lines.kmz/Metro_Lines", "SymbolID": 0, "AltMode": -1, "Base": 0, "Snippet": "", "PopupInfo": "", "HasLabel": -1, "LabelID": 0, "_source": "MCGM ArcGIS FeatureServer (official)"}}, {"type": "Feature", "id": 24, "geometry": {"type": "Point", "coordinates": [72.8605044120001, 19.197255817]}, "properties": {"OBJECTID": 24, "Name": "Akurli", "FolderPath": "Metro_Lines.kmz/Metro_Lines", "SymbolID": 0, "AltMode": -1, "Base": 0, "Snippet": "", "PopupInfo": "", "HasLabel": -1, "LabelID": 0, "_source": "MCGM ArcGIS FeatureServer (official)"}}, {"type": "Feature", "id": 25, "geometry": {"type": "Point", "coordinates": [72.858491444, 19.187342739]}, "properties": {"OBJECTID": 25, "Name": "Kurar", "FolderPath": "Metro_Lines.kmz/Metro_Lines", "SymbolID": 0, "AltMode": -1, "Base": 0, "Snippet": "", "PopupInfo": "", "HasLabel": -1, "LabelID": 0, "_source": "MCGM ArcGIS FeatureServer (official)"}}, {"type": "Feature", "id": 26, "geometry": {"type": "Point", "coordinates": [72.8584482970001, 19.1804227120001]}, "properties": {"OBJECTID": 26, "Name": "Dindoshi", "FolderPath": "Metro_Lines.kmz/Metro_Lines", "SymbolID": 0, "AltMode": -1, "Base": 0, "Snippet": "", "PopupInfo": "", "HasLabel": -1, "LabelID": 0, "_source": "MCGM ArcGIS FeatureServer (official)"}}, {"type": "Feature", "id": 27, "geometry": {"type": "Point", "coordinates": [72.8589930790001, 19.169211573]}, "properties": {"OBJECTID": 27, "Name": "Aarey", "FolderPath": "Metro_Lines.kmz/Metro_Lines", "SymbolID": 0, "AltMode": -1, "Base": 0, "Snippet": "", "PopupInfo": "", "HasLabel": -1, "LabelID": 0, "_source": "MCGM ArcGIS FeatureServer (official)"}}, {"type": "Feature", "id": 28, "geometry": {"type": "Point", "coordinates": [72.8560987980001, 19.147504822]}, "properties": {"OBJECTID": 28, "Name": "Goregaon East", "FolderPath": "Metro_Lines.kmz/Metro_Lines", "SymbolID": 0, "AltMode": -1, "Base": 0, "Snippet": "", "PopupInfo": "", "HasLabel": -1, "LabelID": 0, "_source": "MCGM ArcGIS FeatureServer (official)"}}, {"type": "Feature", "id": 29, "geometry": {"type": "Point", "coordinates": [72.8553155370001, 19.142922388]}, "properties": {"OBJECTID": 29, "Name": "Jogeshwari East", "FolderPath": "Metro_Lines.kmz/Metro_Lines", "SymbolID": 0, "AltMode": -1, "Base": 0, "Snippet": "", "PopupInfo": "", "HasLabel": -1, "LabelID": 0, "_source": "MCGM ArcGIS FeatureServer (official)"}}, {"type": "Feature", "id": 30, "geometry": {"type": "Point", "coordinates": [72.8554329790001, 19.128558786]}, "properties": {"OBJECTID": 30, "Name": "Mogra", "FolderPath": "Metro_Lines.kmz/Metro_Lines", "SymbolID": 0, "AltMode": -1, "Base": 0, "Snippet": "", "PopupInfo": "", "HasLabel": -1, "LabelID": 0, "_source": "MCGM ArcGIS FeatureServer (official)"}}, {"type": "Feature", "id": 31, "geometry": {"type": "Point", "coordinates": [72.8199288690001, 19.130588423]}, "properties": {"OBJECTID": 31, "Name": "Versova", "FolderPath": "Metro_Lines.kmz/Metro_Lines", "SymbolID": 0, "AltMode": -1, "Base": 0, "Snippet": "", "PopupInfo": "", "HasLabel": -1, "LabelID": 0, "_source": "MCGM ArcGIS FeatureServer (official)"}}, {"type": "Feature", "id": 32, "geometry": {"type": "Point", "coordinates": [72.8257095430001, 19.1293517780001]}, "properties": {"OBJECTID": 32, "Name": "DN Nagar", "FolderPath": "Metro_Lines.kmz/Metro_Lines", "SymbolID": 0, "AltMode": -1, "Base": 0, "Snippet": "", "PopupInfo": "", "HasLabel": -1, "LabelID": 0, "_source": "MCGM ArcGIS FeatureServer (official)"}}, {"type": "Feature", "id": 33, "geometry": {"type": "Point", "coordinates": [72.837278757, 19.127040134]}, "properties": {"OBJECTID": 33, "Name": "Azad Nagar", "FolderPath": "Metro_Lines.kmz/Metro_Lines", "SymbolID": 0, "AltMode": -1, "Base": 0, "Snippet": "", "PopupInfo": "", "HasLabel": -1, "LabelID": 0, "_source": "MCGM ArcGIS FeatureServer (official)"}}, {"type": "Feature", "id": 34, "geometry": {"type": "Point", "coordinates": [72.8517033310001, 19.1186527450001]}, "properties": {"OBJECTID": 34, "Name": "LIC of India Andheri", "FolderPath": "Metro_Lines.kmz/Metro_Lines", "SymbolID": 0, "AltMode": -1, "Base": 0, "Snippet": "", "PopupInfo": "", "HasLabel": -1, "LabelID": 0, "_source": "MCGM ArcGIS FeatureServer (official)"}}, {"type": "Feature", "id": 35, "geometry": {"type": "Point", "coordinates": [72.855207573, 19.116587392]}, "properties": {"OBJECTID": 35, "Name": "WEH", "FolderPath": "Metro_Lines.kmz/Metro_Lines", "SymbolID": 0, "AltMode": -1, "Base": 0, "Snippet": "", "PopupInfo": "", "HasLabel": -1, "LabelID": 0, "_source": "MCGM ArcGIS FeatureServer (official)"}}, {"type": "Feature", "id": 36, "geometry": {"type": "Point", "coordinates": [72.8670474240001, 19.1122209210001]}, "properties": {"OBJECTID": 36, "Name": "IndusInd Bank Chakala", "FolderPath": "Metro_Lines.kmz/Metro_Lines", "SymbolID": 0, "AltMode": -1, "Base": 0, "Snippet": "", "PopupInfo": "", "HasLabel": -1, "LabelID": 0, "_source": "MCGM ArcGIS FeatureServer (official)"}}, {"type": "Feature", "id": 37, "geometry": {"type": "Point", "coordinates": [72.8742603650001, 19.1101492070001]}, "properties": {"OBJECTID": 37, "Name": "Airport Road", "FolderPath": "Metro_Lines.kmz/Metro_Lines", "SymbolID": 0, "AltMode": -1, "Base": 0, "Snippet": "", "PopupInfo": "", "HasLabel": -1, "LabelID": 0, "_source": "MCGM ArcGIS FeatureServer (official)"}}, {"type": "Feature", "id": 38, "geometry": {"type": "Point", "coordinates": [72.8805922870001, 19.1077495430001]}, "properties": {"OBJECTID": 38, "Name": "Marol Naka", "FolderPath": "Metro_Lines.kmz/Metro_Lines", "SymbolID": 0, "AltMode": -1, "Base": 0, "Snippet": "", "PopupInfo": "", "HasLabel": -1, "LabelID": 0, "_source": "MCGM ArcGIS FeatureServer (official)"}}, {"type": "Feature", "id": 39, "geometry": {"type": "Point", "coordinates": [72.8892511920001, 19.1026122110001]}, "properties": {"OBJECTID": 39, "Name": "Saki Naka", "FolderPath": "Metro_Lines.kmz/Metro_Lines", "SymbolID": 0, "AltMode": -1, "Base": 0, "Snippet": "", "PopupInfo": "", "HasLabel": -1, "LabelID": 0, "_source": "MCGM ArcGIS FeatureServer (official)"}}, {"type": "Feature", "id": 40, "geometry": {"type": "Point", "coordinates": [72.8937359650001, 19.0971306430001]}, "properties": {"OBJECTID": 40, "Name": "Asalpha", "FolderPath": "Metro_Lines.kmz/Metro_Lines", "SymbolID": 0, "AltMode": -1, "Base": 0, "Snippet": "", "PopupInfo": "", "HasLabel": -1, "LabelID": 0, "_source": "MCGM ArcGIS FeatureServer (official)"}}, {"type": "Feature", "id": 41, "geometry": {"type": "Point", "coordinates": [72.9008436170001, 19.093132449]}, "properties": {"OBJECTID": 41, "Name": "Jagruti Nagar", "FolderPath": "Metro_Lines.kmz/Metro_Lines", "SymbolID": 0, "AltMode": -1, "Base": 0, "Snippet": "", "PopupInfo": "", "HasLabel": -1, "LabelID": 0, "_source": "MCGM ArcGIS FeatureServer (official)"}}, {"type": "Feature", "id": 42, "geometry": {"type": "Point", "coordinates": [72.908120076, 19.0860247900001]}, "properties": {"OBJECTID": 42, "Name": "Ghatkopar", "FolderPath": "Metro_Lines.kmz/Metro_Lines", "SymbolID": 0, "AltMode": -1, "Base": 0, "Snippet": "", "PopupInfo": "", "HasLabel": -1, "LabelID": 0, "_source": "MCGM ArcGIS FeatureServer (official)"}}]}