{"type": "FeatureCollection", "crs": {"type": "name", "properties": {"name": "urn:ogc:def:crs:OGC:1.3:CRS84"}}, "metadata": {"source": "BMC_GIS", "layer_id": 214, "layer_name": "Hospitals", "retrieved_at": "2026-09-12T13:52:13.631189+00:00", "attribution": "Brihanmumbai Municipal Corporation (BMC/MCGM) GIS Portal", "feature_count": 50}, "features": [{"type": "Feature", "id": 8041, "geometry": {"type": "Point", "coordinates": [72.85817379695914, 19.077235259363786]}, "properties": {"OBJECTID": 8041, "NAME": "Niron Hospital", "TYPE": 4, "SUBTYPE": "General", "LOCATION": "Mathuradas Colony,near Vishwakarma Hall, Kolivery Village, Kadamwadi, Vakola, Santacruz East, Mumbai, Maharashtra 400029", "ELEVATOR_CONTACT_LIST": null, "ELEVATOR_INTERCOM": null, "WORKING_HRS": null, "EMPLOYEE_QTY": null, "EMPLOYEE_MALE": null, "EMPLOYEE_FEMALE": null, "EMPLOYEE_DIF_ABLE": null, "WORKING_HRS_STR": null, "WORKING_HRS_STP": null, "VISITORS_QTY": null, "VISITING_HRS_STR": null, "VISITING_HRS_STP": null, "VISITORS_QTY_2": null, "VISITING_HRS_STR_2": null, "VISITING_HRS_STP_2": null}}, {"type": "Feature", "id": 232, "geometry": {"type": "Point", "coordinates": [72.85033095326821, 19.111952924920004]}, "properties": {"OBJECTID": 232, "NAME": "Tripura Nursing Home", "TYPE": 4, "SUBTYPE": "Nursing Home", "LOCATION": "1, Shree Shweta, Santaji Dhanaji Marg, Andheri (east), Lane No 1, Koldongri, Mumbai - 400069.", "ELEVATOR_CONTACT_LIST": null, "ELEVATOR_INTERCOM": null, "WORKING_HRS": null, "EMPLOYEE_QTY": null, "EMPLOYEE_MALE": null, "EMPLOYEE_FEMALE": null, "EMPLOYEE_DIF_ABLE": null, "WORKING_HRS_STR": null, "WORKING_HRS_STP": null, "VISITORS_QTY": null, "VISITING_HRS_STR": null, "VISITING_HRS_STP": null, "VISITORS_QTY_2": null, "VISITING_HRS_STR_2": null, "VISITING_HRS_STP_2": null}}, {"type": "Feature", "id": 3600, "geometry": {"type": "Point", "coordinates": [72.86869000035475, 19.112838000446487]}, "properties": {"OBJECTID": 3600, "NAME": "Kaifak Medicare", "TYPE": 4, "SUBTYPE": "Clinic", "LOCATION": "404/405 Midas Sahar Plaza, Next to Kohinoor Intercontinental Hotel, JB Nagar, Andheri East, Mumbai, Maharashtra 40005", "ELEVATOR_CONTACT_LIST": null, "ELEVATOR_INTERCOM": null, "WORKING_HRS": null, "EMPLOYEE_QTY": null, "EMPLOYEE_MALE": null, "EMPLOYEE_FEMALE": null, "EMPLOYEE_DIF_ABLE": null, "WORKING_HRS_STR": null, "WORKING_HRS_STP": null, "VISITORS_QTY": null, "VISITING_HRS_STR": null, "VISITING_HRS_STP": null, "VISITORS_QTY_2": null, "VISITING_HRS_STR_2": null, "VISITING_HRS_STP_2": null}}, {"type": "Feature", "id": 1716, "geometry": {"type": "Point", "coordinates": [72.85046149079413, 19.061555717790338]}, "properties": {"OBJECTID": 1716, "NAME": "Bandra Narshing Home", "TYPE": 4, "SUBTYPE": "General", "LOCATION": "Kalamandir Chowk, Government Colony, Bandra East, Mumbai, Maharashtra 400051", "ELEVATOR_CONTACT_LIST": null, "ELEVATOR_INTERCOM": null, "WORKING_HRS": null, "EMPLOYEE_QTY": null, "EMPLOYEE_MALE": null, "EMPLOYEE_FEMALE": null, "EMPLOYEE_DIF_ABLE": null, "WORKING_HRS_STR": null, "WORKING_HRS_STP": null, "VISITORS_QTY": null, "VISITING_HRS_STR": null, "VISITING_HRS_STP": null, "VISITORS_QTY_2": null, "VISITING_HRS_STR_2": null, "VISITING_HRS_STP_2": null}}, {"type": "Feature", "id": 423, "geometry": {"type": "Point", "coordinates": [72.8493920003567, 19.110432000229242]}, "properties": {"OBJECTID": 423, "NAME": "Municipal Aurvedik Dispensary", "TYPE": 1, "SUBTYPE": "Dispensary", "LOCATION": "Shahaji Raje Marg, Opp Aggarwal Eye Hospital, Vile Parle East Mumbai 57", "ELEVATOR_CONTACT_LIST": null, "ELEVATOR_INTERCOM": null, "WORKING_HRS": null, "EMPLOYEE_QTY": 1, "EMPLOYEE_MALE": null, "EMPLOYEE_FEMALE": null, "EMPLOYEE_DIF_ABLE": null, "WORKING_HRS_STR": null, "WORKING_HRS_STP": null, "VISITORS_QTY": null, "VISITING_HRS_STR": null, "VISITING_HRS_STP": null, "VISITORS_QTY_2": null, "VISITING_HRS_STR_2": null, "VISITING_HRS_STP_2": null}}, {"type": "Feature", "id": 3602, "geometry": {"type": "Point", "coordinates": [72.87131299974324, 19.11403499960397]}, "properties": {"OBJECTID": 3602, "NAME": "Dr Verlekars Clinic", "TYPE": 4, "SUBTYPE": "Clinic", "LOCATION": "Gurukrupa Clinic, RK Mandir Rd, Kondivita, Andheri(E, Mumbai, Maharashtra 400059", "ELEVATOR_CONTACT_LIST": null, "ELEVATOR_INTERCOM": null, "WORKING_HRS": null, "EMPLOYEE_QTY": null, "EMPLOYEE_MALE": null, "EMPLOYEE_FEMALE": null, "EMPLOYEE_DIF_ABLE": null, "WORKING_HRS_STR": null, "WORKING_HRS_STP": null, "VISITORS_QTY": null, "VISITING_HRS_STR": null, "VISITING_HRS_STP": null, "VISITORS_QTY_2": null, "VISITING_HRS_STR_2": null, "VISITING_HRS_STP_2": null}}, {"type": "Feature", "id": 435, "geometry": {"type": "Point", "coordinates": [72.89486216518267, 19.056082038504762]}, "properties": {"OBJECTID": 435, "NAME": "Chembur  Naka Dispensary", "TYPE": 1, "SUBTYPE": "Dispensary", "LOCATION": "R.C.Marg, Chembur Naka, Chembur, Mumbai 400071", "ELEVATOR_CONTACT_LIST": "No", "ELEVATOR_INTERCOM": "No", "WORKING_HRS": "No", "EMPLOYEE_QTY": null, "EMPLOYEE_MALE": null, "EMPLOYEE_FEMALE": null, "EMPLOYEE_DIF_ABLE": null, "WORKING_HRS_STR": null, "WORKING_HRS_STP": null, "VISITORS_QTY": null, "VISITING_HRS_STR": null, "VISITING_HRS_STP": null, "VISITORS_QTY_2": null, "VISITING_HRS_STR_2": null, "VISITING_HRS_STP_2": null}}, {"type": "Feature", "id": 433, "geometry": {"type": "Point", "coordinates": [72.8918150001886, 19.05530199993703]}, "properties": {"OBJECTID": 433, "NAME": "Dr. Juvekars Nursing Home", "TYPE": 4, "SUBTYPE": "Nursing Home", "LOCATION": "17/18, Shivsagar CHS, Shivpuri, Opposite Akbarallys, Off Sion Trombay Road, Chembur E, Mumbai - 400071.", "ELEVATOR_CONTACT_LIST": null, "ELEVATOR_INTERCOM": null, "WORKING_HRS": null, "EMPLOYEE_QTY": 20, "EMPLOYEE_MALE": null, "EMPLOYEE_FEMALE": null, "EMPLOYEE_DIF_ABLE": null, "WORKING_HRS_STR": null, "WORKING_HRS_STP": null, "VISITORS_QTY": null, "VISITING_HRS_STR": null, "VISITING_HRS_STP": null, "VISITORS_QTY_2": null, "VISITING_HRS_STR_2": null, "VISITING_HRS_STP_2": null}}, {"type": "Feature", "id": 8039, "geometry": {"type": "Point", "coordinates": [72.85071984508983, 19.082190554523713]}, "properties": {"OBJECTID": 8039, "NAME": "Dattatraya Nursing Home", "TYPE": 4, "SUBTYPE": "Nursing Home", "LOCATION": "Anand Nagar (Santacruz East)", "ELEVATOR_CONTACT_LIST": null, "ELEVATOR_INTERCOM": null, "WORKING_HRS": null, "EMPLOYEE_QTY": null, "EMPLOYEE_MALE": null, "EMPLOYEE_FEMALE": null, "EMPLOYEE_DIF_ABLE": null, "WORKING_HRS_STR": null, "WORKING_HRS_STP": null, "VISITORS_QTY": null, "VISITING_HRS_STR": null, "VISITING_HRS_STP": null, "VISITORS_QTY_2": null, "VISITING_HRS_STR_2": null, "VISITING_HRS_STP_2": null}}, {"type": "Feature", "id": 3601, "geometry": {"type": "Point", "coordinates": [72.86938899995442, 19.1132629996451]}, "properties": {"OBJECTID": 3601, "NAME": "Dr. Belani'S Blue Shield Medical Clinic", "TYPE": 4, "SUBTYPE": "Clinic", "LOCATION": "Plot No. 2, Windfall, Sahar Plaza, Andheri Kurla Rd, J B, J B Nagar, Andheri East, Mumbai, Maharashtra 400059", "ELEVATOR_CONTACT_LIST": null, "ELEVATOR_INTERCOM": null, "WORKING_HRS": null, "EMPLOYEE_QTY": null, "EMPLOYEE_MALE": null, "EMPLOYEE_FEMALE": null, "EMPLOYEE_DIF_ABLE": null, "WORKING_HRS_STR": null, "WORKING_HRS_STP": null, "VISITORS_QTY": null, "VISITING_HRS_STR": null, "VISITING_HRS_STP": null, "VISITORS_QTY_2": null, "VISITING_HRS_STR_2": null, "VISITING_HRS_STP_2": null}}, {"type": "Feature", "id": 370, "geometry": {"type": "Point", "coordinates": [72.88192700030616, 19.081008999879707]}, "properties": {"OBJECTID": 370, "NAME": "City Hospital & Research Centre", "TYPE": 4, "SUBTYPE": "General", "LOCATION": "Peter Pereira Road, LBS Marg, City Sagar Society, Opposite Sagar Palace, Kurla W, Mumbai - 400070.", "ELEVATOR_CONTACT_LIST": null, "ELEVATOR_INTERCOM": null, "WORKING_HRS": null, "EMPLOYEE_QTY": null, "EMPLOYEE_MALE": null, "EMPLOYEE_FEMALE": null, "EMPLOYEE_DIF_ABLE": null, "WORKING_HRS_STR": null, "WORKING_HRS_STP": null, "VISITORS_QTY": null, "VISITING_HRS_STR": null, "VISITING_HRS_STP": null, "VISITORS_QTY_2": null, "VISITING_HRS_STR_2": null, "VISITING_HRS_STP_2": null}}, {"type": "Feature", "id": 417, "geometry": {"type": "Point", "coordinates": [72.87765840035699, 19.06532833132557]}, "properties": {"OBJECTID": 417, "NAME": "Kurla Bhabha Hospital", "TYPE": 1, "SUBTYPE": "General", "LOCATION": "Belgrami Road, New Mills Road, Brahmanwadi, Kurla West, Mumbai - 400070.", "ELEVATOR_CONTACT_LIST": null, "ELEVATOR_INTERCOM": null, "WORKING_HRS": null, "EMPLOYEE_QTY": null, "EMPLOYEE_MALE": null, "EMPLOYEE_FEMALE": null, "EMPLOYEE_DIF_ABLE": null, "WORKING_HRS_STR": null, "WORKING_HRS_STP": null, "VISITORS_QTY": null, "VISITING_HRS_STR": null, "VISITING_HRS_STP": null, "VISITORS_QTY_2": null, "VISITING_HRS_STR_2": null, "VISITING_HRS_STP_2": null}}, {"type": "Feature", "id": 42, "geometry": {"type": "Point", "coordinates": [72.85205182015211, 19.105455973342863]}, "properties": {"OBJECTID": 42, "NAME": "Shirodkar Hospital", "TYPE": 1, "SUBTYPE": "General", "LOCATION": "Hanuman Cross Rd 2, Vile Parle East, Mumbai.", "ELEVATOR_CONTACT_LIST": null, "ELEVATOR_INTERCOM": null, "WORKING_HRS": null, "EMPLOYEE_QTY": null, "EMPLOYEE_MALE": null, "EMPLOYEE_FEMALE": null, "EMPLOYEE_DIF_ABLE": null, "WORKING_HRS_STR": null, "WORKING_HRS_STP": null, "VISITORS_QTY": null, "VISITING_HRS_STR": null, "VISITING_HRS_STP": null, "VISITORS_QTY_2": null, "VISITING_HRS_STR_2": null, "VISITING_HRS_STP_2": null}}, {"type": "Feature", "id": 413, "geometry": {"type": "Point", "coordinates": [72.89038100025402, 19.056661999626872]}, "properties": {"OBJECTID": 413, "NAME": "Mangal Anand Hospital", "TYPE": 4, "SUBTYPE": "General", "LOCATION": "48, Swastik Park, Sion Trombay Road, Chembur, Mumbai - 400071.", "ELEVATOR_CONTACT_LIST": "Yes", "ELEVATOR_INTERCOM": "No", "WORKING_HRS": "Yes", "EMPLOYEE_QTY": 81, "EMPLOYEE_MALE": null, "EMPLOYEE_FEMALE": null, "EMPLOYEE_DIF_ABLE": null, "WORKING_HRS_STR": null, "WORKING_HRS_STP": null, "VISITORS_QTY": null, "VISITING_HRS_STR": null, "VISITING_HRS_STP": null, "VISITORS_QTY_2": null, "VISITING_HRS_STR_2": null, "VISITING_HRS_STP_2": null}}, {"type": "Feature", "id": 261, "geometry": {"type": "Point", "coordinates": [72.88619200003205, 19.076117000216207]}, "properties": {"OBJECTID": 261, "NAME": "Kohinoor Hospital", "TYPE": 4, "SUBTYPE": "Speciality", "LOCATION": "Kirol Road, Off LBS Road, Kurla West, Mumbai - 400070.", "ELEVATOR_CONTACT_LIST": null, "ELEVATOR_INTERCOM": null, "WORKING_HRS": null, "EMPLOYEE_QTY": null, "EMPLOYEE_MALE": null, "EMPLOYEE_FEMALE": null, "EMPLOYEE_DIF_ABLE": null, "WORKING_HRS_STR": null, "WORKING_HRS_STP": null, "VISITORS_QTY": null, "VISITING_HRS_STR": null, "VISITING_HRS_STP": null, "VISITORS_QTY_2": null, "VISITING_HRS_STR_2": null, "VISITING_HRS_STP_2": null}}, {"type": "Feature", "id": 260, "geometry": {"type": "Point", "coordinates": [72.8790836827516, 19.07612723406853]}, "properties": {"OBJECTID": 260, "NAME": "Guru Darshan Hospital", "TYPE": 4, "SUBTYPE": "General", "LOCATION": "Hallow Pul, Kurla West Mumbai - 400070.", "ELEVATOR_CONTACT_LIST": null, "ELEVATOR_INTERCOM": null, "WORKING_HRS": null, "EMPLOYEE_QTY": null, "EMPLOYEE_MALE": null, "EMPLOYEE_FEMALE": null, "EMPLOYEE_DIF_ABLE": null, "WORKING_HRS_STR": null, "WORKING_HRS_STP": null, "VISITORS_QTY": null, "VISITING_HRS_STR": null, "VISITING_HRS_STP": null, "VISITORS_QTY_2": null, "VISITING_HRS_STR_2": null, "VISITING_HRS_STP_2": null}}, {"type": "Feature", "id": 418, "geometry": {"type": "Point", "coordinates": [72.88113699237972, 19.08578083747921]}, "properties": {"OBJECTID": 418, "NAME": "Dr. Anandibai Joshi Maternity Home", "TYPE": 1, "SUBTYPE": "Maternity Home", "LOCATION": "No. 3, Bailbazar Health Post, Kurla Andheri Rd, Kurla(W), Mumbai 70", "ELEVATOR_CONTACT_LIST": "Yes", "ELEVATOR_INTERCOM": "No", "WORKING_HRS": null, "EMPLOYEE_QTY": 62, "EMPLOYEE_MALE": null, "EMPLOYEE_FEMALE": null, "EMPLOYEE_DIF_ABLE": null, "WORKING_HRS_STR": null, "WORKING_HRS_STP": null, "VISITORS_QTY": null, "VISITING_HRS_STR": null, "VISITING_HRS_STP": null, "VISITORS_QTY_2": null, "VISITING_HRS_STR_2": null, "VISITING_HRS_STP_2": null}}, {"type": "Feature", "id": 562, "geometry": {"type": "Point", "coordinates": [72.87790348495902, 19.07599939497685]}, "properties": {"OBJECTID": 562, "NAME": "Kajupada dispensary ", "TYPE": 1, "SUBTYPE": "Dispensary", "LOCATION": "Kajupada dispensary, Near Marathi School, Mumbai 400072", "ELEVATOR_CONTACT_LIST": null, "ELEVATOR_INTERCOM": null, "WORKING_HRS": null, "EMPLOYEE_QTY": null, "EMPLOYEE_MALE": null, "EMPLOYEE_FEMALE": null, "EMPLOYEE_DIF_ABLE": null, "WORKING_HRS_STR": null, "WORKING_HRS_STP": null, "VISITORS_QTY": null, "VISITING_HRS_STR": null, "VISITING_HRS_STP": null, "VISITORS_QTY_2": null, "VISITING_HRS_STR_2": null, "VISITING_HRS_STP_2": null}}, {"type": "Feature", "id": 231, "geometry": {"type": "Point", "coordinates": [72.85007455986886, 19.105720199434757]}, "properties": {"OBJECTID": 231, "NAME": "Kirit Nursing Home", "TYPE": 4, "SUBTYPE": "Nursing Home", "LOCATION": "Plot No. 26, Ground Floor, Puspha Apartmnets, Subhash Road, Vile Parle East, Mumbai - 400057", "ELEVATOR_CONTACT_LIST": null, "ELEVATOR_INTERCOM": null, "WORKING_HRS": null, "EMPLOYEE_QTY": null, "EMPLOYEE_MALE": null, "EMPLOYEE_FEMALE": null, "EMPLOYEE_DIF_ABLE": null, "WORKING_HRS_STR": null, "WORKING_HRS_STP": null, "VISITORS_QTY": null, "VISITING_HRS_STR": null, "VISITING_HRS_STP": null, "VISITORS_QTY_2": null, "VISITING_HRS_STR_2": null, "VISITING_HRS_STP_2": null}}, {"type": "Feature", "id": 8363, "geometry": {"type": "Point", "coordinates": [72.88240110268578, 19.063002066776345]}, "properties": {"OBJECTID": 8363, "NAME": "Aryan Hospital & Medical Centre", "TYPE": 4, "SUBTYPE": "General", "LOCATION": "D-28, 29, Nehru Nagar, Station Road, Kurla (East), Mumbai, Maharashtra 400024", "ELEVATOR_CONTACT_LIST": null, "ELEVATOR_INTERCOM": null, "WORKING_HRS": null, "EMPLOYEE_QTY": null, "EMPLOYEE_MALE": null, "EMPLOYEE_FEMALE": null, "EMPLOYEE_DIF_ABLE": null, "WORKING_HRS_STR": null, "WORKING_HRS_STP": null, "VISITORS_QTY": null, "VISITING_HRS_STR": null, "VISITING_HRS_STP": null, "VISITORS_QTY_2": null, "VISITING_HRS_STR_2": null, "VISITING_HRS_STP_2": null}}, {"type": "Feature", "id": 564, "geometry": {"type": "Point", "coordinates": [72.87688399384791, 19.060024888030156]}, "properties": {"OBJECTID": 564, "NAME": "Kureshi Nagar Health Post", "TYPE": 1, "SUBTYPE": "Maternity Home", "LOCATION": "Near BMC School, Kureshi nagar, Kurla west ", "ELEVATOR_CONTACT_LIST": null, "ELEVATOR_INTERCOM": null, "WORKING_HRS": null, "EMPLOYEE_QTY": null, "EMPLOYEE_MALE": null, "EMPLOYEE_FEMALE": null, "EMPLOYEE_DIF_ABLE": null, "WORKING_HRS_STR": null, "WORKING_HRS_STP": null, "VISITORS_QTY": null, "VISITING_HRS_STR": null, "VISITING_HRS_STP": null, "VISITORS_QTY_2": null, "VISITING_HRS_STR_2": null, "VISITING_HRS_STP_2": null}}, {"type": "Feature", "id": 371, "geometry": {"type": "Point", "coordinates": [72.88060629507892, 19.082723121117027]}, "properties": {"OBJECTID": 371, "NAME": "Sharda Nursing Home", "TYPE": 4, "SUBTYPE": "Nursing Home", "LOCATION": "Door No. 110, 114 - 116, M N Rd, Opp Sonapur Police Chowky, Sonapur Lane, Kurla W, Mumbai - 400070.", "ELEVATOR_CONTACT_LIST": null, "ELEVATOR_INTERCOM": null, "WORKING_HRS": null, "EMPLOYEE_QTY": null, "EMPLOYEE_MALE": null, "EMPLOYEE_FEMALE": null, "EMPLOYEE_DIF_ABLE": null, "WORKING_HRS_STR": null, "WORKING_HRS_STP": null, "VISITORS_QTY": null, "VISITING_HRS_STR": null, "VISITING_HRS_STP": null, "VISITORS_QTY_2": null, "VISITING_HRS_STR_2": null, "VISITING_HRS_STP_2": null}}, {"type": "Feature", "id": 3604, "geometry": {"type": "Point", "coordinates": [72.87066299975689, 19.11503099994173]}, "properties": {"OBJECTID": 3604, "NAME": "Holistic Care Clinic", "TYPE": 4, "SUBTYPE": "Clinic", "LOCATION": "Raylon Arcade, Gala No.11 Nandalal Ramroop Estate Ram Krishna Mandir road Opp, Kondivita, Andheri East, Mumbai, Maharashtra 400059", "ELEVATOR_CONTACT_LIST": null, "ELEVATOR_INTERCOM": null, "WORKING_HRS": null, "EMPLOYEE_QTY": null, "EMPLOYEE_MALE": null, "EMPLOYEE_FEMALE": null, "EMPLOYEE_DIF_ABLE": null, "WORKING_HRS_STR": null, "WORKING_HRS_STP": null, "VISITORS_QTY": null, "VISITING_HRS_STR": null, "VISITING_HRS_STP": null, "VISITORS_QTY_2": null, "VISITING_HRS_STR_2": null, "VISITING_HRS_STP_2": null}}, {"type": "Feature", "id": 124, "geometry": {"type": "Point", "coordinates": [72.88075299986937, 19.070695999549397]}, "properties": {"OBJECTID": 124, "NAME": "Kurla Maternity & Surgical Nursing Home", "TYPE": 4, "SUBTYPE": "Nursing Home", "LOCATION": "Pipe Road, Swastik Chambers, Opp Masjid Kurla W, Mumbai - 400070. ", "ELEVATOR_CONTACT_LIST": null, "ELEVATOR_INTERCOM": null, "WORKING_HRS": null, "EMPLOYEE_QTY": null, "EMPLOYEE_MALE": null, "EMPLOYEE_FEMALE": null, "EMPLOYEE_DIF_ABLE": null, "WORKING_HRS_STR": null, "WORKING_HRS_STP": null, "VISITORS_QTY": null, "VISITING_HRS_STR": null, "VISITING_HRS_STP": null, "VISITORS_QTY_2": null, "VISITING_HRS_STR_2": null, "VISITING_HRS_STP_2": null}}, {"type": "Feature", "id": 3580, "geometry": {"type": "Point", "coordinates": [72.84963000040332, 19.09430500040171]}, "properties": {"OBJECTID": 3580, "NAME": "Dr. Rane Hospital", "TYPE": 4, "SUBTYPE": "General", "LOCATION": "Rane Hospital Nanda Patkar Road, Vile Parle East, Navpada, Vile Parle East, Vile Parle, Mumbai, Maharashtra 400057", "ELEVATOR_CONTACT_LIST": null, "ELEVATOR_INTERCOM": null, "WORKING_HRS": null, "EMPLOYEE_QTY": null, "EMPLOYEE_MALE": null, "EMPLOYEE_FEMALE": null, "EMPLOYEE_DIF_ABLE": null, "WORKING_HRS_STR": null, "WORKING_HRS_STP": null, "VISITORS_QTY": null, "VISITING_HRS_STR": null, "VISITING_HRS_STP": null, "VISITORS_QTY_2": null, "VISITING_HRS_STR_2": null, "VISITING_HRS_STP_2": null}}, {"type": "Feature", "id": 3559, "geometry": {"type": "Point", "coordinates": [72.85315900006522, 19.103848000333354]}, "properties": {"OBJECTID": 3559, "NAME": "Dr. Reni V. Shah", "TYPE": 4, "SUBTYPE": "Clinic", "LOCATION": "B,7, Krishna Cottage, Hanuman Road, Vile parle(E), Navpada, Vile Parle East, Vile Parle, Mumbai, Maharashtra 400057", "ELEVATOR_CONTACT_LIST": null, "ELEVATOR_INTERCOM": null, "WORKING_HRS": null, "EMPLOYEE_QTY": null, "EMPLOYEE_MALE": null, "EMPLOYEE_FEMALE": null, "EMPLOYEE_DIF_ABLE": null, "WORKING_HRS_STR": null, "WORKING_HRS_STP": null, "VISITORS_QTY": null, "VISITING_HRS_STR": null, "VISITING_HRS_STP": null, "VISITORS_QTY_2": null, "VISITING_HRS_STR_2": null, "VISITING_HRS_STP_2": null}}, {"type": "Feature", "id": 563, "geometry": {"type": "Point", "coordinates": [72.88377801489268, 19.09544166688912]}, "properties": {"OBJECTID": 563, "NAME": "Safed Pool Dispensary", "TYPE": 1, "SUBTYPE": "Dispensary", "LOCATION": "Safed Pool, A.K.Road, Jarimari, Mumbai 74", "ELEVATOR_CONTACT_LIST": null, "ELEVATOR_INTERCOM": null, "WORKING_HRS": null, "EMPLOYEE_QTY": null, "EMPLOYEE_MALE": null, "EMPLOYEE_FEMALE": null, "EMPLOYEE_DIF_ABLE": null, "WORKING_HRS_STR": null, "WORKING_HRS_STP": null, "VISITORS_QTY": null, "VISITING_HRS_STR": null, "VISITING_HRS_STP": null, "VISITORS_QTY_2": null, "VISITING_HRS_STR_2": null, "VISITING_HRS_STP_2": null}}, {"type": "Feature", "id": 61, "geometry": {"type": "Point", "coordinates": [72.86086300023136, 19.06531900019019]}, "properties": {"OBJECTID": 61, "NAME": "Asian Heart Institute Hospital", "TYPE": 4, "SUBTYPE": "Speciality", "LOCATION": "G/N, G Block,  Bandra Kurla Complex, Bandra East, Mumbai 400051", "ELEVATOR_CONTACT_LIST": "NO", "ELEVATOR_INTERCOM": "NO", "WORKING_HRS": "Yes", "EMPLOYEE_QTY": 376, "EMPLOYEE_MALE": null, "EMPLOYEE_FEMALE": null, "EMPLOYEE_DIF_ABLE": null, "WORKING_HRS_STR": null, "WORKING_HRS_STP": null, "VISITORS_QTY": null, "VISITING_HRS_STR": null, "VISITING_HRS_STP": null, "VISITORS_QTY_2": null, "VISITING_HRS_STR_2": null, "VISITING_HRS_STP_2": null}}, {"type": "Feature", "id": 60, "geometry": {"type": "Point", "coordinates": [72.85257000044754, 19.05968099996373]}, "properties": {"OBJECTID": 60, "NAME": "Guru Nanak Hospital & Research Centre", "TYPE": 4, "SUBTYPE": "General", "LOCATION": "S 341 Near Collector Office, Gandhi Nagar, Bandra East, Mumbai 400051", "ELEVATOR_CONTACT_LIST": "YES", "ELEVATOR_INTERCOM": "YES", "WORKING_HRS": "Yes", "EMPLOYEE_QTY": null, "EMPLOYEE_MALE": null, "EMPLOYEE_FEMALE": null, "EMPLOYEE_DIF_ABLE": null, "WORKING_HRS_STR": null, "WORKING_HRS_STP": null, "VISITORS_QTY": null, "VISITING_HRS_STR": null, "VISITING_HRS_STP": null, "VISITORS_QTY_2": null, "VISITING_HRS_STR_2": null, "VISITING_HRS_STP_2": null}}, {"type": "Feature", "id": 123, "geometry": {"type": "Point", "coordinates": [72.8750690003939, 19.070437999664065]}, "properties": {"OBJECTID": 123, "NAME": "Deshpande Hospital", "TYPE": 4, "SUBTYPE": "Nursing Home", "LOCATION": "Location- 161, Jagannath, LBS Marg, Near Petrol pump, Kurla (W), Mumbai- 400070.", "ELEVATOR_CONTACT_LIST": null, "ELEVATOR_INTERCOM": null, "WORKING_HRS": null, "EMPLOYEE_QTY": null, "EMPLOYEE_MALE": null, "EMPLOYEE_FEMALE": null, "EMPLOYEE_DIF_ABLE": null, "WORKING_HRS_STR": null, "WORKING_HRS_STP": null, "VISITORS_QTY": null, "VISITING_HRS_STR": null, "VISITING_HRS_STP": null, "VISITORS_QTY_2": null, "VISITING_HRS_STR_2": null, "VISITING_HRS_STP_2": null}}, {"type": "Feature", "id": 8040, "geometry": {"type": "Point", "coordinates": [72.86064438631668, 19.075592321605647]}, "properties": {"OBJECTID": 8040, "NAME": "Durga Nursing Home", "TYPE": 4, "SUBTYPE": "Nursing Home", "LOCATION": "Yashwant Nagar,Vidyanagari", "ELEVATOR_CONTACT_LIST": null, "ELEVATOR_INTERCOM": null, "WORKING_HRS": null, "EMPLOYEE_QTY": null, "EMPLOYEE_MALE": null, "EMPLOYEE_FEMALE": null, "EMPLOYEE_DIF_ABLE": null, "WORKING_HRS_STR": null, "WORKING_HRS_STP": null, "VISITORS_QTY": null, "VISITING_HRS_STR": null, "VISITING_HRS_STP": null, "VISITORS_QTY_2": null, "VISITING_HRS_STR_2": null, "VISITING_HRS_STP_2": null}}, {"type": "Feature", "id": 3611, "geometry": {"type": "Point", "coordinates": [72.87685700019375, 19.103384000128347]}, "properties": {"OBJECTID": 3611, "NAME": "Sahar Airport Road Health Post", "TYPE": 1, "SUBTYPE": "Health Post", "LOCATION": "Sahar Airport Rd, Navpada, Marol, Andheri East, Mumbai, Maharashtra 400059", "ELEVATOR_CONTACT_LIST": null, "ELEVATOR_INTERCOM": null, "WORKING_HRS": null, "EMPLOYEE_QTY": null, "EMPLOYEE_MALE": null, "EMPLOYEE_FEMALE": null, "EMPLOYEE_DIF_ABLE": null, "WORKING_HRS_STR": null, "WORKING_HRS_STP": null, "VISITORS_QTY": null, "VISITING_HRS_STR": null, "VISITING_HRS_STP": null, "VISITORS_QTY_2": null, "VISITING_HRS_STR_2": null, "VISITING_HRS_STP_2": null}}, {"type": "Feature", "id": 2051, "geometry": {"type": "Point", "coordinates": [72.85570593999628, 19.063699928394147]}, "properties": {"OBJECTID": 2051, "NAME": "Golibar Health Post.", "TYPE": 1, "SUBTYPE": "Health Post", "LOCATION": "Patthar 400051, G Block BKC, Patthar Nagar, Valmiki Nagar, Bandra East, Mumbai, Maharashtra, 400051", "ELEVATOR_CONTACT_LIST": null, "ELEVATOR_INTERCOM": null, "WORKING_HRS": null, "EMPLOYEE_QTY": null, "EMPLOYEE_MALE": null, "EMPLOYEE_FEMALE": null, "EMPLOYEE_DIF_ABLE": null, "WORKING_HRS_STR": null, "WORKING_HRS_STP": null, "VISITORS_QTY": null, "VISITING_HRS_STR": null, "VISITING_HRS_STP": null, "VISITORS_QTY_2": null, "VISITING_HRS_STR_2": null, "VISITING_HRS_STP_2": null}}, {"type": "Feature", "id": 105, "geometry": {"type": "Point", "coordinates": [72.87776199957652, 19.10839600009939]}, "properties": {"OBJECTID": 105, "NAME": "Medicare Hospital", "TYPE": 4, "SUBTYPE": "Nursing Home", "LOCATION": "Marol Naka Junction, Andheri Kurla Road, Andheri Kurla Road, Mumbai - 400059.", "ELEVATOR_CONTACT_LIST": "No", "ELEVATOR_INTERCOM": "Yes", "WORKING_HRS": "Yes", "EMPLOYEE_QTY": 53, "EMPLOYEE_MALE": null, "EMPLOYEE_FEMALE": null, "EMPLOYEE_DIF_ABLE": null, "WORKING_HRS_STR": null, "WORKING_HRS_STP": null, "VISITORS_QTY": null, "VISITING_HRS_STR": null, "VISITING_HRS_STP": null, "VISITORS_QTY_2": null, "VISITING_HRS_STR_2": null, "VISITING_HRS_STP_2": null}}, {"type": "Feature", "id": 5475, "geometry": {"type": "Point", "coordinates": [72.89271026369555, 19.067413437856946]}, "properties": {"OBJECTID": 5475, "NAME": "Kolekar Hospital", "TYPE": 4, "SUBTYPE": "General", "LOCATION": "Approach to Ambedkar Garden Bus Stop Chembur Gaothan, Chembur 2nd & 3rd floor Omprakash Arcade, Mumbai, Maharashtra 400071", "ELEVATOR_CONTACT_LIST": null, "ELEVATOR_INTERCOM": null, "WORKING_HRS": null, "EMPLOYEE_QTY": null, "EMPLOYEE_MALE": null, "EMPLOYEE_FEMALE": null, "EMPLOYEE_DIF_ABLE": null, "WORKING_HRS_STR": null, "WORKING_HRS_STP": null, "VISITORS_QTY": null, "VISITING_HRS_STR": null, "VISITING_HRS_STP": null, "VISITORS_QTY_2": null, "VISITING_HRS_STR_2": null, "VISITING_HRS_STP_2": null}}, {"type": "Feature", "id": 3603, "geometry": {"type": "Point", "coordinates": [72.87078500045956, 19.11501800030228]}, "properties": {"OBJECTID": 3603, "NAME": "Dr. Banes Pet Clinic", "TYPE": 4, "SUBTYPE": "Clinic", "LOCATION": "Raylon Arcade, c-3 OppAngel Medical near Pidilite Company, RK Mandir Rd, Andheri East, Mumbai, Maharashtra 400069", "ELEVATOR_CONTACT_LIST": null, "ELEVATOR_INTERCOM": null, "WORKING_HRS": null, "EMPLOYEE_QTY": null, "EMPLOYEE_MALE": null, "EMPLOYEE_FEMALE": null, "EMPLOYEE_DIF_ABLE": null, "WORKING_HRS_STR": null, "WORKING_HRS_STP": null, "VISITORS_QTY": null, "VISITING_HRS_STR": null, "VISITING_HRS_STP": null, "VISITORS_QTY_2": null, "VISITING_HRS_STR_2": null, "VISITING_HRS_STP_2": null}}, {"type": "Feature", "id": 1709, "geometry": {"type": "Point", "coordinates": [72.85115919990925, 19.06444511711864]}, "properties": {"OBJECTID": 1709, "NAME": "Shivam Nursing Home", "TYPE": 4, "SUBTYPE": "General", "LOCATION": "Police Station, Government Colony Bandra, Near Kherwadi, Shri Hari Mandir Marg, Kala Nagar, Bandra East, Mumbai, Maharashtra 400051", "ELEVATOR_CONTACT_LIST": null, "ELEVATOR_INTERCOM": null, "WORKING_HRS": null, "EMPLOYEE_QTY": null, "EMPLOYEE_MALE": null, "EMPLOYEE_FEMALE": null, "EMPLOYEE_DIF_ABLE": null, "WORKING_HRS_STR": null, "WORKING_HRS_STP": null, "VISITORS_QTY": null, "VISITING_HRS_STR": null, "VISITING_HRS_STP": null, "VISITORS_QTY_2": null, "VISITING_HRS_STR_2": null, "VISITING_HRS_STP_2": null}}, {"type": "Feature", "id": 428, "geometry": {"type": "Point", "coordinates": [72.88948799979761, 19.05639799973731]}, "properties": {"OBJECTID": 428, "NAME": "Sushrut Hospital & Research Centre", "TYPE": 4, "SUBTYPE": "General", "LOCATION": "365, St Vershaw Kakkaya Marg, Swastik Park, Chembur (East), Mumbai - 400071.", "ELEVATOR_CONTACT_LIST": "Yes", "ELEVATOR_INTERCOM": "Yes", "WORKING_HRS": "Yes", "EMPLOYEE_QTY": 274, "EMPLOYEE_MALE": null, "EMPLOYEE_FEMALE": null, "EMPLOYEE_DIF_ABLE": null, "WORKING_HRS_STR": null, "WORKING_HRS_STP": null, "VISITORS_QTY": null, "VISITING_HRS_STR": null, "VISITING_HRS_STP": null, "VISITORS_QTY_2": null, "VISITING_HRS_STR_2": null, "VISITING_HRS_STP_2": null}}, {"type": "Feature", "id": 8038, "geometry": {"type": "Point", "coordinates": [72.85242305360501, 19.08021608650842]}, "properties": {"OBJECTID": 8038, "NAME": "Shastri Nursing Home", "TYPE": 4, "SUBTYPE": "Nursing Home", "LOCATION": "Sree Kiran Kunj, Pipe Line Road, Santacruz East, Mumbai, Mumbai Suburban, Maharashtra, 400055", "ELEVATOR_CONTACT_LIST": null, "ELEVATOR_INTERCOM": null, "WORKING_HRS": null, "EMPLOYEE_QTY": null, "EMPLOYEE_MALE": null, "EMPLOYEE_FEMALE": null, "EMPLOYEE_DIF_ABLE": null, "WORKING_HRS_STR": null, "WORKING_HRS_STP": null, "VISITORS_QTY": null, "VISITING_HRS_STR": null, "VISITING_HRS_STP": null, "VISITORS_QTY_2": null, "VISITING_HRS_STR_2": null, "VISITING_HRS_STP_2": null}}, {"type": "Feature", "id": 548, "geometry": {"type": "Point", "coordinates": [72.88773765056911, 19.082980454077926]}, "properties": {"OBJECTID": 548, "NAME": "Amar Nagar Health Post", "TYPE": 4, "SUBTYPE": "Health Post", "LOCATION": "Naupada, Near Kohinoor Mall, Kamani Kurla, Mumbai 400070", "ELEVATOR_CONTACT_LIST": null, "ELEVATOR_INTERCOM": null, "WORKING_HRS": "No", "EMPLOYEE_QTY": null, "EMPLOYEE_MALE": null, "EMPLOYEE_FEMALE": null, "EMPLOYEE_DIF_ABLE": null, "WORKING_HRS_STR": null, "WORKING_HRS_STP": null, "VISITORS_QTY": null, "VISITING_HRS_STR": null, "VISITING_HRS_STP": null, "VISITORS_QTY_2": null, "VISITING_HRS_STR_2": null, "VISITING_HRS_STP_2": null}}, {"type": "Feature", "id": 3560, "geometry": {"type": "Point", "coordinates": [72.85276599970513, 19.10543999967399]}, "properties": {"OBJECTID": 3560, "NAME": "Smeet Child Care Center", "TYPE": 4, "SUBTYPE": "Children", "LOCATION": "Paranjape B Scheme Rd Number 3, Navpada, Paranjape Nagar, Vile Parle, Mumbai, Maharashtra 400057", "ELEVATOR_CONTACT_LIST": null, "ELEVATOR_INTERCOM": null, "WORKING_HRS": null, "EMPLOYEE_QTY": null, "EMPLOYEE_MALE": null, "EMPLOYEE_FEMALE": null, "EMPLOYEE_DIF_ABLE": null, "WORKING_HRS_STR": null, "WORKING_HRS_STP": null, "VISITORS_QTY": null, "VISITING_HRS_STR": null, "VISITING_HRS_STP": null, "VISITORS_QTY_2": null, "VISITING_HRS_STR_2": null, "VISITING_HRS_STP_2": null}}, {"type": "Feature", "id": 369, "geometry": {"type": "Point", "coordinates": [72.87993756109991, 19.079673337326017]}, "properties": {"OBJECTID": 369, "NAME": "Fauzia Hospital", "TYPE": 4, "SUBTYPE": "General", "LOCATION": "209,Aero View CHS LTD, Solanki Apartment) L B S, Lal Bahadur Shastri Marg, Kurla West, Mumbai - 70.", "ELEVATOR_CONTACT_LIST": null, "ELEVATOR_INTERCOM": null, "WORKING_HRS": null, "EMPLOYEE_QTY": null, "EMPLOYEE_MALE": null, "EMPLOYEE_FEMALE": null, "EMPLOYEE_DIF_ABLE": null, "WORKING_HRS_STR": null, "WORKING_HRS_STP": null, "VISITORS_QTY": null, "VISITING_HRS_STR": null, "VISITING_HRS_STP": null, "VISITORS_QTY_2": null, "VISITING_HRS_STR_2": null, "VISITING_HRS_STP_2": null}}, {"type": "Feature", "id": 262, "geometry": {"type": "Point", "coordinates": [72.88005782866252, 19.07826953716854]}, "properties": {"OBJECTID": 262, "NAME": "Habib Hospital", "TYPE": 4, "SUBTYPE": "General", "LOCATION": "Pl No. 345, 345/1 & 238, AH Wadia Marg, Opp. Shalimar Hotel, Off L B S Rd, Kurla W, Mumbai - 400070.", "ELEVATOR_CONTACT_LIST": null, "ELEVATOR_INTERCOM": null, "WORKING_HRS": null, "EMPLOYEE_QTY": null, "EMPLOYEE_MALE": null, "EMPLOYEE_FEMALE": null, "EMPLOYEE_DIF_ABLE": null, "WORKING_HRS_STR": null, "WORKING_HRS_STP": null, "VISITORS_QTY": null, "VISITING_HRS_STR": null, "VISITING_HRS_STP": null, "VISITORS_QTY_2": null, "VISITING_HRS_STR_2": null, "VISITING_HRS_STP_2": null}}, {"type": "Feature", "id": 8357, "geometry": {"type": "Point", "coordinates": [72.86412735587007, 19.11010338522096]}, "properties": {"OBJECTID": 8357, "NAME": "Goel Hospital", "TYPE": 4, "SUBTYPE": "General", "LOCATION": "Wireless Rd, Ekta Nagar, J B Nagar, Andheri East, Andheri, Maharashtra 400059\r\n", "ELEVATOR_CONTACT_LIST": null, "ELEVATOR_INTERCOM": null, "WORKING_HRS": null, "EMPLOYEE_QTY": null, "EMPLOYEE_MALE": null, "EMPLOYEE_FEMALE": null, "EMPLOYEE_DIF_ABLE": null, "WORKING_HRS_STR": null, "WORKING_HRS_STP": null, "VISITORS_QTY": null, "VISITING_HRS_STR": null, "VISITING_HRS_STP": null, "VISITORS_QTY_2": null, "VISITING_HRS_STR_2": null, "VISITING_HRS_STP_2": null}}, {"type": "Feature", "id": 372, "geometry": {"type": "Point", "coordinates": [72.88162999962209, 19.08273099988409]}, "properties": {"OBJECTID": 372, "NAME": "Sheetal Hospital", "TYPE": 4, "SUBTYPE": "General", "LOCATION": "Lal Bahadur Shastri Marg, Sakinaka, Mumbai - 400070.", "ELEVATOR_CONTACT_LIST": null, "ELEVATOR_INTERCOM": null, "WORKING_HRS": null, "EMPLOYEE_QTY": null, "EMPLOYEE_MALE": null, "EMPLOYEE_FEMALE": null, "EMPLOYEE_DIF_ABLE": null, "WORKING_HRS_STR": null, "WORKING_HRS_STP": null, "VISITORS_QTY": null, "VISITING_HRS_STR": null, "VISITING_HRS_STP": null, "VISITORS_QTY_2": null, "VISITING_HRS_STR_2": null, "VISITING_HRS_STP_2": null}}, {"type": "Feature", "id": 533, "geometry": {"type": "Point", "coordinates": [72.87816507284246, 19.11086541969435]}, "properties": {"OBJECTID": 533, "NAME": "Marol Dispensary", "TYPE": 4, "SUBTYPE": "Dispensary", "LOCATION": "Church Road, Andheri East", "ELEVATOR_CONTACT_LIST": null, "ELEVATOR_INTERCOM": null, "WORKING_HRS": null, "EMPLOYEE_QTY": 2, "EMPLOYEE_MALE": null, "EMPLOYEE_FEMALE": null, "EMPLOYEE_DIF_ABLE": null, "WORKING_HRS_STR": null, "WORKING_HRS_STP": null, "VISITORS_QTY": null, "VISITING_HRS_STR": null, "VISITING_HRS_STP": null, "VISITORS_QTY_2": null, "VISITING_HRS_STR_2": null, "VISITING_HRS_STP_2": null}}, {"type": "Feature", "id": 267, "geometry": {"type": "Point", "coordinates": [72.871976525752, 19.111141350196263]}, "properties": {"OBJECTID": 267, "NAME": "Mukund Hospital", "TYPE": 4, "SUBTYPE": "Maternity Home", "LOCATION": "Mukund Cooperative Housing SocietyAndheri Kurla Road, Marol Pipeline, Andheri East, Mumbai - 59.", "ELEVATOR_CONTACT_LIST": "NO", "ELEVATOR_INTERCOM": "Yes", "WORKING_HRS": null, "EMPLOYEE_QTY": 52, "EMPLOYEE_MALE": null, "EMPLOYEE_FEMALE": null, "EMPLOYEE_DIF_ABLE": null, "WORKING_HRS_STR": null, "WORKING_HRS_STP": null, "VISITORS_QTY": null, "VISITING_HRS_STR": null, "VISITING_HRS_STP": null, "VISITORS_QTY_2": null, "VISITING_HRS_STR_2": null, "VISITING_HRS_STP_2": null}}, {"type": "Feature", "id": 503, "geometry": {"type": "Point", "coordinates": [72.87810200034494, 19.110860999863714]}, "properties": {"OBJECTID": 503, "NAME": "Marol Maternity Home & Health Post", "TYPE": 1, "SUBTYPE": "Maternity Home", "LOCATION": "Marol Naka, Andheri East", "ELEVATOR_CONTACT_LIST": null, "ELEVATOR_INTERCOM": null, "WORKING_HRS": null, "EMPLOYEE_QTY": 5, "EMPLOYEE_MALE": null, "EMPLOYEE_FEMALE": null, "EMPLOYEE_DIF_ABLE": null, "WORKING_HRS_STR": null, "WORKING_HRS_STP": null, "VISITORS_QTY": null, "VISITING_HRS_STR": null, "VISITING_HRS_STP": null, "VISITORS_QTY_2": null, "VISITING_HRS_STR_2": null, "VISITING_HRS_STP_2": null}}, {"type": "Feature", "id": 1714, "geometry": {"type": "Point", "coordinates": [72.85051849972412, 19.075481600166906]}, "properties": {"OBJECTID": 1714, "NAME": "Bmc Hospital", "TYPE": 1, "SUBTYPE": "General", "LOCATION": "Shanti Nagar, Vakola, Santacruz East, Mumbai, Maharashtra 400055", "ELEVATOR_CONTACT_LIST": null, "ELEVATOR_INTERCOM": null, "WORKING_HRS": null, "EMPLOYEE_QTY": null, "EMPLOYEE_MALE": null, "EMPLOYEE_FEMALE": null, "EMPLOYEE_DIF_ABLE": null, "WORKING_HRS_STR": null, "WORKING_HRS_STP": null, "VISITORS_QTY": null, "VISITING_HRS_STR": null, "VISITING_HRS_STP": null, "VISITORS_QTY_2": null, "VISITING_HRS_STR_2": null, "VISITING_HRS_STP_2": null}}, {"type": "Feature", "id": 3610, "geometry": {"type": "Point", "coordinates": [72.84957199969243, 19.11002499997651]}, "properties": {"OBJECTID": 3610, "NAME": "Dental Clinic", "TYPE": 4, "SUBTYPE": "Clinic", "LOCATION": "Ketayun Mansion C.H.Society,, Shahaji Raje Marg, Netaji Subhash Nagar, Vile Parle, Mumbai, Maharashtra 400057", "ELEVATOR_CONTACT_LIST": null, "ELEVATOR_INTERCOM": null, "WORKING_HRS": null, "EMPLOYEE_QTY": null, "EMPLOYEE_MALE": null, "EMPLOYEE_FEMALE": null, "EMPLOYEE_DIF_ABLE": null, "WORKING_HRS_STR": null, "WORKING_HRS_STP": null, "VISITORS_QTY": null, "VISITING_HRS_STR": null, "VISITING_HRS_STP": null, "VISITORS_QTY_2": null, "VISITING_HRS_STR_2": null, "VISITING_HRS_STP_2": null}}]}