{"type": "FeatureCollection", "crs": {"type": "name", "properties": {"name": "urn:ogc:def:crs:OGC:1.3:CRS84"}}, "metadata": {"source": "OpenStreetMap", "retrieved_at": "2026-09-12T13:52:43.561464+00:00", "attribution": "OpenStreetMap contributors (ODbL)", "feature_count": 76}, "features": [{"type": "Feature", "id": "48870455", "properties": {"id": "48870455", "name": "Waterway", "waterway": "stream", "source": "OSM"}, "geometry": {"type": "LineString", "coordinates": [[72.852148, 19.0679937], [72.8526428, 19.0681431], [72.8526316, 19.0682691], [72.8523063, 19.0688254], [72.8520669, 19.0693141], [72.8521171, 19.0693524], [72.8521707, 19.0694234], [72.8521815, 19.0694943], [72.8522566, 19.0695349], [72.8523853, 19.0695552], [72.8524389, 19.0695856], [72.8525248, 19.0696363], [72.8525999, 19.0696667], [72.8526857, 19.0696566], [72.8527394, 19.0696667], [72.8527501, 19.0697276], [72.8528145, 19.0698087], [72.8528145, 19.0698594], [72.8527608, 19.0699202], [72.8527394, 19.0699912], [72.8527823, 19.0700825], [72.8528788, 19.0701027], [72.8529754, 19.0700825], [72.853072, 19.0701027], [72.8532007, 19.0701737], [72.8533509, 19.0702041]]}}, {"type": "Feature", "id": "48870793", "properties": {"id": "48870793", "name": "Waterway", "waterway": "stream", "source": "OSM"}, "geometry": {"type": "LineString", "coordinates": [[72.8520669, 19.0693141], [72.8519562, 19.0693727], [72.8519025, 19.0694842], [72.8518381, 19.0695653], [72.8516987, 19.0697174], [72.8515806, 19.0698695], [72.851527, 19.0699405], [72.8515055, 19.0699912]]}}, {"type": "Feature", "id": "48870794", "properties": {"id": "48870794", "name": "Waterway", "waterway": "stream", "source": "OSM"}, "geometry": {"type": "LineString", "coordinates": [[72.8526428, 19.0681431], [72.852783, 19.0680242], [72.8529968, 19.0679125], [72.8532222, 19.0679328], [72.8533509, 19.0679328], [72.8535333, 19.0679125], [72.8537157, 19.0678922], [72.8538552, 19.0678314], [72.8541234, 19.0676793]]}}, {"type": "Feature", "id": "49011971", "properties": {"id": "49011971", "name": "Waterway", "waterway": "drain", "source": "OSM"}, "geometry": {"type": "LineString", "coordinates": [[72.8878433, 19.1000977], [72.8877748, 19.1000828], [72.8875495, 19.0999814], [72.8874422, 19.099951], [72.8873563, 19.100022], [72.8872705, 19.1001132], [72.8871954, 19.1002247], [72.8870774, 19.1002349], [72.8869379, 19.1002146], [72.8867984, 19.1001234], [72.8866375, 19.1000727], [72.886498, 19.1000017], [72.8864766, 19.09988], [72.8864444, 19.0997584], [72.8863478, 19.0996671], [72.8862405, 19.0996773], [72.8861011, 19.0997077], [72.886026, 19.0997685], [72.8859187, 19.0997584], [72.8858543, 19.0996165], [72.8858221, 19.0994644], [72.8857518, 19.0992667], [72.885698, 19.0991045], [72.8856342, 19.0988867], [72.8855324, 19.0987958], [72.8854332, 19.0987449], [72.8851999, 19.098633], [72.8850711, 19.0985722], [72.8847669, 19.098407], [72.884744, 19.0982869], [72.8849102, 19.0980957], [72.884974, 19.0979003], [72.8850175, 19.0977814], [72.8850604, 19.0976395], [72.8850604, 19.097528], [72.8849745, 19.097457], [72.8848136, 19.0974266], [72.8846849, 19.0974164], [72.8845132, 19.0974266], [72.8843201, 19.0974671], [72.8842021, 19.097528], [72.884127, 19.0975888], [72.8839875, 19.0975685], [72.8838373, 19.0974874], [72.8837193, 19.0974367], [72.8836549, 19.0973151], [72.8836656, 19.0971224], [72.8836978, 19.0969805], [72.8837193, 19.0968183], [72.8836556, 19.0968124], [72.8833918, 19.0967522], [72.8831828, 19.0966865], [72.8830326, 19.0966865], [72.8828288, 19.0966966], [72.8826571, 19.0966966], [72.8825176, 19.0966155], [72.8823353, 19.0965344], [72.8821636, 19.0964938], [72.8820241, 19.0964938], [72.8818632, 19.0964634], [72.8816808, 19.0964026], [72.8813877, 19.0962951], [72.8812889, 19.0962589], [72.8808538, 19.09605], [72.8806495, 19.0959791]]}}, {"type": "Feature", "id": "49055889", "properties": {"id": "49055889", "name": "Waterway", "waterway": "drain", "source": "OSM"}, "geometry": {"type": "LineString", "coordinates": [[72.8494795, 19.0799136], [72.8494124, 19.0796753], [72.8492327, 19.0793077], [72.8488304, 19.0783445], [72.8484673, 19.0774558], [72.8479096, 19.0768405], [72.8475663, 19.0766512], [72.8474735, 19.0762456], [72.8478888, 19.0746842], [72.8481608, 19.0740623], [72.848447, 19.0737649], [72.8493316, 19.0731615], [72.8497501, 19.0726481], [72.8516551, 19.0689298], [72.852148, 19.0679937], [72.8523309, 19.0676464], [72.852361, 19.0675828], [72.8523668, 19.06757], [72.8530759, 19.0662225], [72.8541352, 19.0653553], [72.857573, 19.0595016], [72.8575945, 19.058883], [72.857219, 19.0582543], [72.857101, 19.0573112]]}}, {"type": "Feature", "id": "49678380", "properties": {"id": "49678380", "name": "Waterway", "waterway": "drain", "source": "OSM"}, "geometry": {"type": "LineString", "coordinates": [[72.8853974, 19.0706224], [72.8842381, 19.0697424], [72.8840941, 19.0695718], [72.8839442, 19.0695872], [72.8836606, 19.0693839], [72.8831041, 19.0689849], [72.882601, 19.0684774], [72.8824181, 19.0682148]]}}, {"type": "Feature", "id": "49682805", "properties": {"id": "49682805", "name": "Waterway", "waterway": "drain", "source": "OSM"}, "geometry": {"type": "LineString", "coordinates": [[72.8632762, 19.0689775], [72.8635659, 19.0690806], [72.8636423, 19.0692124], [72.8637639, 19.069629], [72.8641714, 19.0697654], [72.8646817, 19.0701994], [72.8659166, 19.0708071], [72.8677522, 19.0713039], [72.8679533, 19.0712381]]}}, {"type": "Feature", "id": "67070168", "properties": {"id": "67070168", "name": "Waterway", "waterway": "stream", "source": "OSM"}, "geometry": {"type": "LineString", "coordinates": [[72.870092, 19.0985617], [72.8704567, 19.0988455], [72.8707572, 19.0990889], [72.8710576, 19.0993525], [72.8713365, 19.0996059], [72.87183, 19.0999303], [72.8722056, 19.1001331]]}}, {"type": "Feature", "id": "67070171", "properties": {"id": "67070171", "name": "Waterway", "waterway": "drain", "source": "OSM"}, "geometry": {"type": "LineString", "coordinates": [[72.8683513, 19.1146296], [72.8690525, 19.1144816], [72.869321, 19.1141962], [72.8695709, 19.1141398], [72.8696007, 19.1138085], [72.8699327, 19.1136217], [72.869705, 19.1123522], [72.8695995, 19.1120009], [72.8695946, 19.1118381], [72.869572, 19.1116326]]}}, {"type": "Feature", "id": "102240258", "properties": {"id": "102240258", "name": "Waterway", "waterway": "drain", "source": "OSM"}, "geometry": {"type": "LineString", "coordinates": [[72.8857097, 19.0737974], [72.8860121, 19.0712919], [72.8860677, 19.0710923], [72.8872994, 19.0695861], [72.8877367, 19.0693715], [72.8881071, 19.0690638], [72.88749, 19.0685017], [72.8878604, 19.067866], [72.8886865, 19.067075], [72.888494, 19.0660235]]}}, {"type": "Feature", "id": "107213229", "properties": {"id": "107213229", "name": "Waterway", "waterway": "drain", "source": "OSM"}, "geometry": {"type": "LineString", "coordinates": [[72.8854713, 19.0617398], [72.8853133, 19.0616212], [72.8845674, 19.0610485], [72.8832578, 19.0601094], [72.8811765, 19.0587708], [72.8809002, 19.0586441], [72.8806078, 19.0585604], [72.8804415, 19.0585047], [72.8801572, 19.0583652], [72.879901, 19.0580589], [72.8796649, 19.0578257], [72.8794396, 19.0577243], [72.8791714, 19.0575012], [72.8790212, 19.0573491], [72.8788066, 19.0571767], [72.8784955, 19.0570245], [72.8783453, 19.0568116], [72.8781951, 19.0565581], [72.8780127, 19.0563755], [72.8777552, 19.0561626], [72.877605, 19.0559293], [72.8775299, 19.0557265], [72.8775299, 19.0553209], [72.8775299, 19.0550775], [72.8775835, 19.0546921], [72.8776694, 19.0541952], [72.8778196, 19.0537186], [72.8778628, 19.053171], [72.8778625, 19.0526944], [72.877994, 19.0520491], [72.8782753, 19.0513121], [72.8780345, 19.050986], [72.8776785, 19.05063], [72.877562, 19.050092], [72.8775406, 19.0498548], [72.8776479, 19.0495303], [72.8779376, 19.0486987], [72.8780624, 19.0483053], [72.8781243, 19.0479587]]}}, {"type": "Feature", "id": "107213240", "properties": {"id": "107213240", "name": "Waterway", "waterway": "drain", "source": "OSM"}, "geometry": {"type": "LineString", "coordinates": [[72.8911034, 19.0653509], [72.890479, 19.0655409], [72.888494, 19.0660235]]}}, {"type": "Feature", "id": "107213252", "properties": {"id": "107213252", "name": "Waterway", "waterway": "drain", "source": "OSM"}, "geometry": {"type": "LineString", "coordinates": [[72.8824181, 19.0682148], [72.8825671, 19.0680044], [72.8827574, 19.0676964], [72.8829972, 19.0670879], [72.8830948, 19.0668502], [72.8832577, 19.0667396], [72.8838063, 19.0655426], [72.8847836, 19.0632936], [72.8850723, 19.0627642], [72.8854713, 19.0617398]]}}, {"type": "Feature", "id": "122187977", "properties": {"id": "122187977", "name": "Waterway", "waterway": "drain", "source": "OSM"}, "geometry": {"type": "LineString", "coordinates": [[72.902607, 19.0871233], [72.9025195, 19.0860176], [72.9024411, 19.08452], [72.9021463, 19.0845331], [72.9020726, 19.0844547], [72.9018932, 19.0840345], [72.9016995, 19.083571], [72.9015582, 19.0832411], [72.9015031, 19.0829992], [72.9013232, 19.0822857], [72.9014316, 19.0819094], [72.9001611, 19.0811319], [72.8998568, 19.0808892], [72.8983104, 19.0796568], [72.8981111, 19.0794321], [72.897991, 19.0791929], [72.8979359, 19.0783729], [72.898263, 19.078029], [72.8980649, 19.0778374], [72.8979175, 19.0777068], [72.8977977, 19.0774978], [72.8976917, 19.0773933], [72.8963789, 19.0764486], [72.8962268, 19.0762658], [72.8962038, 19.0760873], [72.896881, 19.0741455], [72.8968764, 19.0739017], [72.8957155, 19.0723126], [72.8956694, 19.0720645], [72.894785, 19.0708802], [72.8927396, 19.0679344], [72.8912045, 19.06571]]}}, {"type": "Feature", "id": "125344254", "properties": {"id": "125344254", "name": "Waterway", "waterway": "drain", "source": "OSM"}, "geometry": {"type": "LineString", "coordinates": [[72.888494, 19.0660235], [72.8880656, 19.0651776], [72.8875399, 19.0642345], [72.8871274, 19.0635241], [72.8865589, 19.0627649], [72.8863174, 19.0625259], [72.886145, 19.0623817], [72.8861136, 19.0622267], [72.8860676, 19.062124], [72.8854713, 19.0617398]]}}, {"type": "Feature", "id": "125344258", "properties": {"id": "125344258", "name": "Waterway", "waterway": "drain", "source": "OSM"}, "geometry": {"type": "LineString", "coordinates": [[72.8896319, 19.0710555], [72.8884641, 19.0701831], [72.8888055, 19.0697839], [72.8881071, 19.0690638]]}}, {"type": "Feature", "id": "125344259", "properties": {"id": "125344259", "name": "Waterway", "waterway": "drain", "source": "OSM"}, "geometry": {"type": "LineString", "coordinates": [[72.8854887, 19.0824254], [72.8895787, 19.0804116], [72.889658, 19.0802124], [72.8896224, 19.0794371], [72.8898027, 19.0787149], [72.890493, 19.0774481]]}}, {"type": "Feature", "id": "204352191", "properties": {"id": "204352191", "name": "Mithi River", "waterway": "river", "source": "OSM"}, "geometry": {"type": "LineString", "coordinates": [[72.878796, 19.0876913], [72.8786636, 19.0854841], [72.8778152, 19.0837726], [72.8775705, 19.083233], [72.8776112, 19.0819995], [72.8784841, 19.0806042], [72.8786806, 19.0797335], [72.8785657, 19.0793244], [72.8779946, 19.078885], [72.8772278, 19.0788773], [72.8765997, 19.0790469], [72.8763395, 19.0789818], [72.8762262, 19.0789534], [72.8755393, 19.0778288], [72.8748867, 19.0772737], [72.8735798, 19.076672], [72.8719092, 19.0757704], [72.8715366, 19.0754927], [72.8714726, 19.0753295], [72.8717673, 19.0743916], [72.8721546, 19.0731764], [72.8727658, 19.0720107], [72.873202, 19.071424], [72.8734019, 19.0705633], [72.8727207, 19.067265], [72.8695579, 19.0597916], [72.8682171, 19.0566072], [72.8661285, 19.0555638], [72.8648151, 19.0555792], [72.8638118, 19.0560284], [72.8629321, 19.0563884], [72.8617251, 19.0565912], [72.8607112, 19.0568853], [72.8600782, 19.0572859], [72.8593218, 19.0576104], [72.8587103, 19.0577625], [72.857101, 19.0573112], [72.8566914, 19.0570472], [72.8552907, 19.0554699], [72.8518102, 19.0522152], [72.8503619, 19.0517322], [72.8497886, 19.051701], [72.8491715, 19.051863], [72.8485405, 19.0519057], [72.8482684, 19.0518934], [72.8478448, 19.0517546], [72.8475989, 19.0516978], [72.8466962, 19.051603], [72.8449262, 19.051622], [72.8442436, 19.0514993], [72.8437592, 19.0513328], [72.8431831, 19.0512561], [72.8416212, 19.0505086]]}}, {"type": "Feature", "id": "204352192", "properties": {"id": "204352192", "name": "Mithi River", "waterway": "river", "source": "OSM"}, "geometry": {"type": "LineString", "coordinates": [[72.8788436, 19.0912659], [72.878796, 19.0876913]]}}, {"type": "Feature", "id": "204352194", "properties": {"id": "204352194", "name": "Mithi River", "waterway": "river", "source": "OSM"}, "geometry": {"type": "LineString", "coordinates": [[72.8806495, 19.0959791], [72.880499, 19.0957984], [72.8801564, 19.0954593], [72.8799606, 19.0948811], [72.8792835, 19.0944649], [72.8788267, 19.0940871], [72.8784759, 19.0933934], [72.8786079, 19.0921225], [72.8788436, 19.0912659]]}}, {"type": "Feature", "id": "204352217", "properties": {"id": "204352217", "name": "Waterway", "waterway": "drain", "source": "OSM"}, "geometry": {"type": "LineString", "coordinates": [[72.8789002, 19.099912], [72.876966, 19.1006163], [72.8767648, 19.1006769]]}}, {"type": "Feature", "id": "215261321", "properties": {"id": "215261321", "name": "Waterway", "waterway": "canal", "source": "OSM"}, "geometry": {"type": "LineString", "coordinates": [[72.8918421, 19.1020023], [72.8920284, 19.1018736], [72.8921201, 19.1019089], [72.8924535, 19.1023443], [72.8925538, 19.1025861], [72.8932866, 19.1023774], [72.8933047, 19.1023514], [72.8932662, 19.1022518], [72.8932626, 19.1022201], [72.8932654, 19.1021993], [72.8932733, 19.102186], [72.8935008, 19.1021385], [72.8935866, 19.1021206]]}}, {"type": "Feature", "id": "219943422", "properties": {"id": "219943422", "name": "Waterway", "waterway": "drain", "source": "OSM"}, "geometry": {"type": "LineString", "coordinates": [[72.8912045, 19.06571], [72.8942478, 19.0648548], [72.8969556, 19.0642051], [72.8984332, 19.0638239]]}}, {"type": "Feature", "id": "235932509", "properties": {"id": "235932509", "name": "Mithi River", "waterway": "river", "source": "OSM"}, "geometry": {"type": "LineString", "coordinates": [[72.8842998, 19.1291965], [72.8842288, 19.1290318], [72.8841698, 19.128378], [72.8842959, 19.127875], [72.8844032, 19.1276216], [72.8852266, 19.1272579], [72.8861439, 19.1271515], [72.8864765, 19.1268829], [72.8865945, 19.1265737], [72.8865811, 19.1259998], [72.8868574, 19.1246224], [72.8870961, 19.124013], [72.887418, 19.1232324], [72.8874931, 19.1226952], [72.8881368, 19.1220971], [72.8883976, 19.1218426], [72.8883109, 19.1215585], [72.8877505, 19.1212963], [72.8868279, 19.1209212], [72.8863236, 19.1204853], [72.8860017, 19.1193297], [72.8858515, 19.118387], [72.8860232, 19.1170489], [72.8862592, 19.1157412], [72.8870532, 19.1145247], [72.8871819, 19.113957], [72.8868279, 19.1134806], [72.8860017, 19.1128622], [72.8853875, 19.1121487], [72.8852427, 19.1117078], [72.8852481, 19.1111907], [72.8853607, 19.1108663], [72.885583, 19.1107122], [72.8860259, 19.110476], [72.8866267, 19.1099286], [72.8868306, 19.1097715], [72.88697, 19.1095485], [72.8869218, 19.1092494], [72.8866106, 19.1082154], [72.8860542, 19.1070449], [72.8856219, 19.1067519], [72.8841752, 19.105909], [72.8840679, 19.1057671], [72.8839552, 19.10451], [72.8838517, 19.1043085], [72.8834112, 19.103977], [72.8820026, 19.1031312], [72.8804415, 19.1026345], [72.8800446, 19.1021123], [72.8792101, 19.0997991], [72.8790388, 19.0989666], [72.8791448, 19.098612], [72.8794222, 19.0984733], [72.8802216, 19.0983731], [72.8808416, 19.0980185], [72.880964, 19.097317], [72.8810129, 19.0964151], [72.8806495, 19.0959791]]}}, {"type": "Feature", "id": "286258582", "properties": {"id": "286258582", "name": "Waterway", "waterway": "canal", "source": "OSM"}, "geometry": {"type": "LineString", "coordinates": [[72.8525604, 19.0737352], [72.8523152, 19.073677], [72.8519443, 19.0736077], [72.8516326, 19.0735721], [72.8513271, 19.073555], [72.8505289, 19.0736059], [72.8497195, 19.0737586], [72.8496564, 19.0737573], [72.8496094, 19.0737242], [72.8495853, 19.0736773], [72.8495879, 19.0735975], [72.8496089, 19.0733913], [72.8496185, 19.0732897], [72.8496297, 19.0731958], [72.8496963, 19.0729537], [72.8497501, 19.0726481]]}}, {"type": "Feature", "id": "315613888", "properties": {"id": "315613888", "name": "Waterway", "waterway": "drain", "source": "OSM"}, "geometry": {"type": "LineString", "coordinates": [[72.8767648, 19.1006769], [72.8759382, 19.100938]]}}, {"type": "Feature", "id": "315613889", "properties": {"id": "315613889", "name": "Waterway", "waterway": "drain", "source": "OSM"}, "geometry": {"type": "LineString", "coordinates": [[72.8759382, 19.100938], [72.873336, 19.1009228], [72.8730524, 19.1009398], [72.8728923, 19.1010267], [72.872773, 19.1012328], [72.8727662, 19.1020926], [72.8728171, 19.1029211]]}}, {"type": "Feature", "id": "366912384", "properties": {"id": "366912384", "name": "Waterway", "waterway": "drain", "source": "OSM"}, "geometry": {"type": "LineString", "coordinates": [[72.8987437, 19.117903], [72.898208, 19.1166304], [72.8978803, 19.1159981], [72.8977797, 19.1154212], [72.897756, 19.1145412], [72.897627, 19.1142411], [72.8975235, 19.1133254], [72.8972662, 19.1112286], [72.8969215, 19.109466], [72.8964063, 19.1095528], [72.8963317, 19.1093676], [72.8962415, 19.1091382], [72.8961617, 19.1090038], [72.896068, 19.1089677], [72.8957905, 19.1089841], [72.8955164, 19.1088038], [72.8953638, 19.1086563], [72.8952146, 19.1084465], [72.8947046, 19.108358], [72.8944895, 19.1081678], [72.8943924, 19.1080892], [72.894212, 19.1080334], [72.8939483, 19.1080236], [72.8938026, 19.1078663], [72.893303, 19.1076532], [72.8932475, 19.1075647], [72.8931677, 19.1074598], [72.8929908, 19.1074663], [72.8925467, 19.1076466], [72.8924149, 19.1074073], [72.8922978, 19.1070243]]}}, {"type": "Feature", "id": "366912385", "properties": {"id": "366912385", "name": "Waterway", "waterway": "drain", "source": "OSM"}, "geometry": {"type": "LineString", "coordinates": [[72.8910988, 19.1057273], [72.8907115, 19.1055682], [72.8906088, 19.1054218], [72.8905869, 19.1052579], [72.8905734, 19.105164], [72.8905212, 19.1051401], [72.8903528, 19.1051338], [72.8902703, 19.1050621], [72.890213, 19.1049539], [72.890112, 19.1049476], [72.8900413, 19.1049062], [72.8900379, 19.1047757], [72.8901322, 19.1046166], [72.890144, 19.1045577], [72.8900817, 19.1044988], [72.8898459, 19.1044416], [72.8897572, 19.1044459]]}}, {"type": "Feature", "id": "376930300", "properties": {"id": "376930300", "name": "Waterway", "waterway": "drain", "source": "OSM"}, "geometry": {"type": "LineString", "coordinates": [[72.8525964, 19.0947004], [72.852457, 19.0944773], [72.8522961, 19.0942745], [72.8520495, 19.0939905], [72.8518349, 19.0937371], [72.8516311, 19.0935342], [72.8513523, 19.0932502], [72.8511271, 19.0930373], [72.8507839, 19.0926925], [72.8505264, 19.0924491], [72.8502797, 19.0922259], [72.8500545, 19.0920333], [72.849722, 19.0917392], [72.849604, 19.0915464], [72.8494432, 19.0913842], [72.8493037, 19.0913132], [72.8490462, 19.0912523], [72.8486278, 19.0912015], [72.8483917, 19.0911913], [72.8480055, 19.0911709], [72.8477587, 19.0911708], [72.847512, 19.0911607], [72.8472545, 19.0911504], [72.8469112, 19.0911402]]}}, {"type": "Feature", "id": "427200318", "properties": {"id": "427200318", "name": "Waterway", "waterway": "drain", "source": "OSM"}, "geometry": {"type": "LineString", "coordinates": [[72.8912045, 19.06571], [72.8911034, 19.0653509]]}}, {"type": "Feature", "id": "427242813", "properties": {"id": "427242813", "name": "Waterway", "waterway": "drain", "source": "OSM"}, "geometry": {"type": "LineString", "coordinates": [[72.8838903, 19.0743087], [72.8853733, 19.0739975], [72.8855944, 19.0739048], [72.8857097, 19.0737974]]}}, {"type": "Feature", "id": "427242814", "properties": {"id": "427242814", "name": "Waterway", "waterway": "drain", "source": "OSM"}, "geometry": {"type": "LineString", "coordinates": [[72.892581, 19.0792929], [72.8924293, 19.0790167], [72.8917453, 19.0784644], [72.890684, 19.0775719], [72.890493, 19.0774481], [72.8903162, 19.0773171], [72.8868433, 19.0746635], [72.8865836, 19.0744651], [72.8857097, 19.0737974]]}}, {"type": "Feature", "id": "430418396", "properties": {"id": "430418396", "name": "Waterway", "waterway": "drain", "source": "OSM"}, "geometry": {"type": "LineString", "coordinates": [[72.8714023, 19.0722748], [72.8717415, 19.0717475], [72.8727658, 19.0720107]]}}, {"type": "Feature", "id": "430418397", "properties": {"id": "430418397", "name": "Waterway", "waterway": "drain", "source": "OSM"}, "geometry": {"type": "LineString", "coordinates": [[72.8679533, 19.0712381], [72.8684697, 19.0709282], [72.8706333, 19.0720681], [72.8714023, 19.0722748]]}}, {"type": "Feature", "id": "436222503", "properties": {"id": "436222503", "name": "Waterway", "waterway": "drain", "source": "OSM"}, "geometry": {"type": "LineString", "coordinates": [[72.8762573, 19.1110361], [72.87615, 19.1108714], [72.8761393, 19.1107751], [72.876201, 19.1107016], [72.8762653, 19.110471], [72.8763217, 19.1100275], [72.876783, 19.1099337], [72.8768957, 19.1099058], [72.8769225, 19.109807], [72.8767213, 19.1089554], [72.8765336, 19.1086082], [72.8764558, 19.1085423], [72.8762761, 19.1084916], [72.8761795, 19.1084257], [72.8758469, 19.1077211], [72.8757986, 19.1075336], [72.8758442, 19.107341], [72.8759059, 19.107232], [72.875922, 19.1068772], [72.8758603, 19.1067758], [72.8752877, 19.1061995], [72.8752392, 19.1061507], [72.8749869, 19.1056332], [72.8749377, 19.105615], [72.8747875, 19.1057038]]}}, {"type": "Feature", "id": "436370690", "properties": {"id": "436370690", "name": "Waterway", "waterway": "drain", "source": "OSM"}, "geometry": {"type": "LineString", "coordinates": [[72.8741055, 19.0782234], [72.8740599, 19.0781423], [72.8740331, 19.0779166], [72.8739446, 19.0776125], [72.8738561, 19.0774984], [72.8738641, 19.0773894], [72.8737085, 19.077179], [72.8734913, 19.0769635], [72.8735233, 19.0768261], [72.8735494, 19.0767139]]}}, {"type": "Feature", "id": "436370692", "properties": {"id": "436370692", "name": "Waterway", "waterway": "drain", "source": "OSM"}, "geometry": {"type": "LineString", "coordinates": [[72.8802739, 19.0801442], [72.879598, 19.0800631], [72.8793542, 19.0799755]]}}, {"type": "Feature", "id": "436370694", "properties": {"id": "436370694", "name": "Waterway", "waterway": "drain", "source": "OSM"}, "geometry": {"type": "LineString", "coordinates": [[72.8706421, 19.081622], [72.8734584, 19.0802836], [72.874306, 19.0799312], [72.8759663, 19.0791682], [72.8763395, 19.0789818]]}}, {"type": "Feature", "id": "436370696", "properties": {"id": "436370696", "name": "Waterway", "waterway": "drain", "source": "OSM"}, "geometry": {"type": "LineString", "coordinates": [[72.8733438, 19.0776682], [72.8733572, 19.0774198], [72.8732982, 19.0770599], [72.8734333, 19.0768009], [72.8735494, 19.0767139], [72.8735798, 19.076672]]}}, {"type": "Feature", "id": "542236632", "properties": {"id": "542236632", "name": "Waterway", "waterway": "drain", "source": "OSM"}, "geometry": {"type": "LineString", "coordinates": [[72.8853974, 19.0706224], [72.8858408, 19.0711934], [72.8860121, 19.0712919]]}}, {"type": "Feature", "id": "542236633", "properties": {"id": "542236633", "name": "Waterway", "waterway": "drain", "source": "OSM"}, "geometry": {"type": "LineString", "coordinates": [[72.8833675, 19.0730053], [72.8838302, 19.0725311], [72.8839605, 19.0723186], [72.8840583, 19.0720723], [72.8853974, 19.0706224]]}}, {"type": "Feature", "id": "628785883", "properties": {"id": "628785883", "name": "Waterway", "waterway": "drain", "source": "OSM"}, "geometry": {"type": "LineString", "coordinates": [[72.8695464, 19.1153724], [72.8694016, 19.1147287], [72.8694606, 19.1145817], [72.869423, 19.1143181], [72.8695709, 19.1141398]]}}, {"type": "Feature", "id": "833520643", "properties": {"id": "833520643", "name": "Waterway", "waterway": "drain", "source": "OSM"}, "geometry": {"type": "LineString", "coordinates": [[72.8695641, 19.1115605], [72.8695363, 19.1113072], [72.8694447, 19.1110083], [72.8695821, 19.1108667], [72.8702855, 19.1104105], [72.8703562, 19.11021], [72.8703104, 19.1095532], [72.8703442, 19.1095138]]}}, {"type": "Feature", "id": "833520644", "properties": {"id": "833520644", "name": "Waterway", "waterway": "drain", "source": "OSM"}, "geometry": {"type": "LineString", "coordinates": [[72.869572, 19.1116326], [72.8695641, 19.1115605]]}}, {"type": "Feature", "id": "833520645", "properties": {"id": "833520645", "name": "Waterway", "waterway": "drain", "source": "OSM"}, "geometry": {"type": "LineString", "coordinates": [[72.8703884, 19.1093732], [72.8705589, 19.1092152], [72.8707017, 19.109097], [72.8707849, 19.1085976], [72.8707778, 19.1083933], [72.8705303, 19.1079131], [72.8704072, 19.107959], [72.8703188, 19.1077323], [72.8702314, 19.107697], [72.870107, 19.1076704], [72.8699461, 19.1077313], [72.8697556, 19.1077322], [72.8695155, 19.1077363], [72.8694156, 19.1075554], [72.8694239, 19.1074492], [72.8696944, 19.1072801], [72.8698859, 19.1069891], [72.8699941, 19.1062812], [72.8700269, 19.1059089], [72.8699769, 19.105642], [72.8706185, 19.1053444], [72.8717191, 19.1047354], [72.8727141, 19.1042641], [72.8727634, 19.1040844], [72.8727634, 19.1040058], [72.8727152, 19.1037879], [72.8725918, 19.1034483], [72.8725918, 19.1033063], [72.8726444, 19.1032165]]}}, {"type": "Feature", "id": "833520646", "properties": {"id": "833520646", "name": "Waterway", "waterway": "drain", "source": "OSM"}, "geometry": {"type": "LineString", "coordinates": [[72.8703442, 19.1095138], [72.8703884, 19.1093732]]}}, {"type": "Feature", "id": "833520647", "properties": {"id": "833520647", "name": "Waterway", "waterway": "drain", "source": "OSM"}, "geometry": {"type": "LineString", "coordinates": [[72.8726838, 19.1031491], [72.8727181, 19.1030928]]}}, {"type": "Feature", "id": "833520648", "properties": {"id": "833520648", "name": "Waterway", "waterway": "drain", "source": "OSM"}, "geometry": {"type": "LineString", "coordinates": [[72.8726444, 19.1032165], [72.8726838, 19.1031491]]}}, {"type": "Feature", "id": "833520649", "properties": {"id": "833520649", "name": "Waterway", "waterway": "drain", "source": "OSM"}, "geometry": {"type": "LineString", "coordinates": [[72.8728171, 19.1029211], [72.8727762, 19.1030003]]}}, {"type": "Feature", "id": "833520650", "properties": {"id": "833520650", "name": "Waterway", "waterway": "drain", "source": "OSM"}, "geometry": {"type": "LineString", "coordinates": [[72.8727181, 19.1030928], [72.8727762, 19.1030003]]}}, {"type": "Feature", "id": "992670280", "properties": {"id": "992670280", "name": "Waterway", "waterway": "canal", "source": "OSM"}, "geometry": {"type": "LineString", "coordinates": [[72.8935866, 19.1021206], [72.8938043, 19.1020972], [72.8946578, 19.1020227], [72.8951173, 19.1021459], [72.8951082, 19.1023434], [72.8951209, 19.1023766], [72.8951478, 19.1023999], [72.8959835, 19.1024288]]}}, {"type": "Feature", "id": "1122603583", "properties": {"id": "1122603583", "name": "Waterway", "waterway": "drain", "source": "OSM"}, "geometry": {"type": "LineString", "coordinates": [[72.8745031, 19.105833], [72.8744119, 19.1058178], [72.8743342, 19.1056404], [72.8742725, 19.1053033], [72.8742725, 19.1047356], [72.8742349, 19.1045556], [72.8741062, 19.1043934], [72.873913, 19.1042591], [72.8738004, 19.104216], [72.8730574, 19.1041957], [72.8727634, 19.1040844]]}}, {"type": "Feature", "id": "1122603584", "properties": {"id": "1122603584", "name": "Waterway", "waterway": "drain", "source": "OSM"}, "geometry": {"type": "LineString", "coordinates": [[72.8747875, 19.1057038], [72.8745031, 19.105833]]}}, {"type": "Feature", "id": "1156851567", "properties": {"id": "1156851567", "name": "Waterway", "waterway": "drain", "source": "OSM"}, "geometry": {"type": "LineString", "coordinates": [[72.8898158, 19.1018356], [72.8896416, 19.1016339], [72.8894807, 19.1015934], [72.8893014, 19.1015011], [72.8891164, 19.1013269], [72.8891695, 19.1010459], [72.8891159, 19.1009243], [72.8890515, 19.1007114], [72.889073, 19.100539], [72.8889871, 19.1004579], [72.8888798, 19.1004782], [72.8887726, 19.1005086], [72.888676, 19.1005492], [72.8886223, 19.1004275], [72.8885902, 19.1003363], [72.8884936, 19.1002247], [72.8883005, 19.1001335], [72.8881825, 19.1001538], [72.8880537, 19.1001436]]}}, {"type": "Feature", "id": "1156851568", "properties": {"id": "1156851568", "name": "Waterway", "waterway": "drain", "source": "OSM"}, "geometry": {"type": "LineString", "coordinates": [[72.8880068, 19.1001334], [72.8879578, 19.1001227]]}}, {"type": "Feature", "id": "1156851569", "properties": {"id": "1156851569", "name": "Waterway", "waterway": "drain", "source": "OSM"}, "geometry": {"type": "LineString", "coordinates": [[72.8878818, 19.1001061], [72.8878433, 19.1000977]]}}, {"type": "Feature", "id": "1156851570", "properties": {"id": "1156851570", "name": "Waterway", "waterway": "drain", "source": "OSM"}, "geometry": {"type": "LineString", "coordinates": [[72.8879578, 19.1001227], [72.8878818, 19.1001061]]}}, {"type": "Feature", "id": "1156851571", "properties": {"id": "1156851571", "name": "Waterway", "waterway": "drain", "source": "OSM"}, "geometry": {"type": "LineString", "coordinates": [[72.8880537, 19.1001436], [72.8880068, 19.1001334]]}}, {"type": "Feature", "id": "1172947231", "properties": {"id": "1172947231", "name": "Waterway", "waterway": "drain", "source": "OSM"}, "geometry": {"type": "LineString", "coordinates": [[72.8919138, 19.0810864], [72.892581, 19.0792929]]}}, {"type": "Feature", "id": "1456263512", "properties": {"id": "1456263512", "name": "Waterway", "waterway": "drain", "source": "OSM"}, "geometry": {"type": "LineString", "coordinates": [[72.8792101, 19.0997991], [72.8789979, 19.0998764]]}}, {"type": "Feature", "id": "1456263513", "properties": {"id": "1456263513", "name": "Waterway", "waterway": "drain", "source": "OSM"}, "geometry": {"type": "LineString", "coordinates": [[72.8789979, 19.0998764], [72.8789002, 19.099912]]}}, {"type": "Feature", "id": "1487577968", "properties": {"id": "1487577968", "name": "Irla Nala", "waterway": "drain", "source": "OSM"}, "geometry": {"type": "LineString", "coordinates": [[72.8502306, 19.1131756], [72.8501138, 19.1131384], [72.8500092, 19.113146], [72.8499516, 19.1131148], [72.8498551, 19.1130337], [72.8497692, 19.1129728], [72.8496512, 19.1129019], [72.8494903, 19.1129627], [72.8493401, 19.1130033], [72.8492972, 19.1127498], [72.8492891, 19.1126704]]}}, {"type": "Feature", "id": "1497268707", "properties": {"id": "1497268707", "name": "Waterway", "waterway": "drain", "source": "OSM"}, "geometry": {"type": "LineString", "coordinates": [[72.8895405, 19.1044681], [72.8894114, 19.1045116], [72.8893104, 19.1045132], [72.8890123, 19.1043349], [72.8889366, 19.1042522], [72.8888052, 19.1037732], [72.8887479, 19.1035377], [72.8886267, 19.1033627], [72.8892929, 19.1028153], [72.8893763, 19.1026911], [72.8900544, 19.1021344], [72.8900503, 19.1021279]]}}, {"type": "Feature", "id": "1497268708", "properties": {"id": "1497268708", "name": "Waterway", "waterway": "drain", "source": "OSM"}, "geometry": {"type": "LineString", "coordinates": [[72.8895815, 19.1044543], [72.8895405, 19.1044681]]}}, {"type": "Feature", "id": "1497268709", "properties": {"id": "1497268709", "name": "Waterway", "waterway": "drain", "source": "OSM"}, "geometry": {"type": "LineString", "coordinates": [[72.8896187, 19.1044525], [72.8895815, 19.1044543]]}}, {"type": "Feature", "id": "1497268710", "properties": {"id": "1497268710", "name": "Waterway", "waterway": "drain", "source": "OSM"}, "geometry": {"type": "LineString", "coordinates": [[72.8897572, 19.1044459], [72.8896187, 19.1044525]]}}, {"type": "Feature", "id": "1502558248", "properties": {"id": "1502558248", "name": "Waterway", "waterway": "drain", "source": "OSM"}, "geometry": {"type": "LineString", "coordinates": [[72.8803111, 19.0657868], [72.8783591, 19.0642944]]}}, {"type": "Feature", "id": "1508895773", "properties": {"id": "1508895773", "name": "Waterway", "waterway": "drain", "source": "OSM"}, "geometry": {"type": "LineString", "coordinates": [[72.8792934, 19.0799537], [72.8786806, 19.0797335]]}}, {"type": "Feature", "id": "1508895774", "properties": {"id": "1508895774", "name": "Waterway", "waterway": "drain", "source": "OSM"}, "geometry": {"type": "LineString", "coordinates": [[72.8793542, 19.0799755], [72.8792934, 19.0799537]]}}, {"type": "Feature", "id": "1521665880", "properties": {"id": "1521665880", "name": "Waterway", "waterway": "drain", "source": "OSM"}, "geometry": {"type": "LineString", "coordinates": [[72.8898451, 19.1018803], [72.8898158, 19.1018356]]}}, {"type": "Feature", "id": "1521665881", "properties": {"id": "1521665881", "name": "Waterway", "waterway": "drain", "source": "OSM"}, "geometry": {"type": "LineString", "coordinates": [[72.8900503, 19.1021279], [72.8898451, 19.1018803]]}}, {"type": "Feature", "id": "1522280662", "properties": {"id": "1522280662", "name": "Waterway", "waterway": "drain", "source": "OSM"}, "geometry": {"type": "LineString", "coordinates": [[72.8922978, 19.1070243], [72.8922237, 19.1065802], [72.8920216, 19.1062938], [72.8916579, 19.1060742], [72.8914435, 19.1059411]]}}, {"type": "Feature", "id": "1522280663", "properties": {"id": "1522280663", "name": "Waterway", "waterway": "drain", "source": "OSM"}, "geometry": {"type": "LineString", "coordinates": [[72.8911938, 19.1057862], [72.8910988, 19.1057273]]}}, {"type": "Feature", "id": "1522639135", "properties": {"id": "1522639135", "name": "Waterway", "waterway": "drain", "source": "OSM"}, "geometry": {"type": "LineString", "coordinates": [[72.8913552, 19.1058863], [72.8911938, 19.1057862]]}}, {"type": "Feature", "id": "1522639136", "properties": {"id": "1522639136", "name": "Waterway", "waterway": "drain", "source": "OSM"}, "geometry": {"type": "LineString", "coordinates": [[72.8914435, 19.1059411], [72.8913552, 19.1058863]]}}]}