{"type": "FeatureCollection", "features": [{"type": "Feature", "geometry": {"type": "Point", "coordinates": [72.8232458, 19.1453433]}, "properties": {"osm_id": 12400639935, "man_made": "manhole", "manhole": null, "amenity": null, "operator": null, "provenance": "REAL", "source": "OpenStreetMap"}}, {"type": "Feature", "geometry": {"type": "Point", "coordinates": [72.8232242, 19.1453446]}, "properties": {"osm_id": 12400639954, "man_made": "manhole", "manhole": null, "amenity": null, "operator": null, "provenance": "REAL", "source": "OpenStreetMap"}}, {"type": "Feature", "geometry": {"type": "Point", "coordinates": [72.8236024, 19.1449578]}, "properties": {"osm_id": 12411847283, "man_made": "manhole", "manhole": null, "amenity": null, "operator": null, "provenance": "REAL", "source": "OpenStreetMap"}}, {"type": "Feature", "geometry": {"type": "Point", "coordinates": [72.8238486, 19.1445192]}, "properties": {"osm_id": 12411847291, "man_made": "manhole", "manhole": null, "amenity": null, "operator": null, "provenance": "REAL", "source": "OpenStreetMap"}}, {"type": "Feature", "geometry": {"type": "Point", "coordinates": [72.82373, 19.1447455]}, "properties": {"osm_id": 12411907759, "man_made": "manhole", "manhole": null, "amenity": null, "operator": null, "provenance": "REAL", "source": "OpenStreetMap"}}, {"type": "Feature", "geometry": {"type": "Point", "coordinates": [72.8243577, 19.1436161]}, "properties": {"osm_id": 12423272420, "man_made": "manhole", "manhole": null, "amenity": null, "operator": null, "provenance": "REAL", "source": "OpenStreetMap"}}, {"type": "Feature", "geometry": {"type": "Point", "coordinates": [72.8248061, 19.1428373]}, "properties": {"osm_id": 12445990397, "man_made": "manhole", "manhole": null, "amenity": null, "operator": null, "provenance": "REAL", "source": "OpenStreetMap"}}, {"type": "Feature", "geometry": {"type": "Point", "coordinates": [72.8247856, 19.1428282]}, "properties": {"osm_id": 12446001708, "man_made": "manhole", "manhole": null, "amenity": null, "operator": null, "provenance": "REAL", "source": "OpenStreetMap"}}, {"type": "Feature", "geometry": {"type": "Point", "coordinates": [72.8259886, 19.1406351]}, "properties": {"osm_id": 12486490076, "man_made": "manhole", "manhole": null, "amenity": null, "operator": null, "provenance": "REAL", "source": "OpenStreetMap"}}, {"type": "Feature", "geometry": {"type": "Point", "coordinates": [72.8260745, 19.1405035]}, "properties": {"osm_id": 12486490122, "man_made": "manhole", "manhole": null, "amenity": null, "operator": null, "provenance": "REAL", "source": "OpenStreetMap"}}, {"type": "Feature", "geometry": {"type": "Point", "coordinates": [72.8253311, 19.1418647]}, "properties": {"osm_id": 12486490194, "man_made": "manhole", "manhole": null, "amenity": null, "operator": null, "provenance": "REAL", "source": "OpenStreetMap"}}, {"type": "Feature", "geometry": {"type": "Point", "coordinates": [72.8242465, 19.1435486]}, "properties": {"osm_id": 12500926747, "man_made": "manhole", "manhole": null, "amenity": null, "operator": null, "provenance": "REAL", "source": "OpenStreetMap"}}, {"type": "Feature", "geometry": {"type": "Point", "coordinates": [72.8243163, 19.143571]}, "properties": {"osm_id": 13590816954, "man_made": "manhole", "manhole": null, "amenity": null, "operator": null, "provenance": "REAL", "source": "OpenStreetMap"}}, {"type": "Feature", "geometry": {"type": "Point", "coordinates": [72.8241004, 19.1457165]}, "properties": {"osm_id": 13764788401, "man_made": "manhole", "manhole": null, "amenity": null, "operator": null, "provenance": "REAL", "source": "OpenStreetMap"}}, {"type": "Feature", "geometry": {"type": "Point", "coordinates": [72.8237221, 19.1455257]}, "properties": {"osm_id": 13764788402, "man_made": "manhole", "manhole": null, "amenity": null, "operator": null, "provenance": "REAL", "source": "OpenStreetMap"}}, {"type": "Feature", "geometry": {"type": "Point", "coordinates": [72.823411, 19.1454238]}, "properties": {"osm_id": 14027517904, "man_made": "manhole", "manhole": "telecom", "amenity": null, "operator": "MTNL", "provenance": "REAL", "source": "OpenStreetMap"}}, {"type": "Feature", "geometry": {"type": "Point", "coordinates": [72.8235457, 19.1465661]}, "properties": {"osm_id": 14027517931, "man_made": "manhole", "manhole": null, "amenity": null, "operator": "BMC", "provenance": "REAL", "source": "OpenStreetMap"}}, {"type": "Feature", "geometry": {"type": "Point", "coordinates": [72.8234852, 19.1464895]}, "properties": {"osm_id": 14027517938, "man_made": "manhole", "manhole": null, "amenity": null, "operator": "BMC", "provenance": "REAL", "source": "OpenStreetMap"}}, {"type": "Feature", "geometry": {"type": "Point", "coordinates": [72.8240996, 19.1442904]}, "properties": {"osm_id": 14027517966, "man_made": "manhole", "manhole": "telecom", "amenity": null, "operator": "MTNL", "provenance": "REAL", "source": "OpenStreetMap"}}, {"type": "Feature", "geometry": {"type": "Point", "coordinates": [72.8233632, 19.1463351]}, "properties": {"osm_id": 14027517976, "man_made": "manhole", "manhole": null, "amenity": null, "operator": "MCGM", "provenance": "REAL", "source": "OpenStreetMap"}}, {"type": "Feature", "geometry": {"type": "Point", "coordinates": [72.8234228, 19.1464106]}, "properties": {"osm_id": 14027518011, "man_made": "manhole", "manhole": "sewer", "amenity": null, "operator": "MCGM", "provenance": "REAL", "source": "OpenStreetMap"}}, {"type": "Feature", "geometry": {"type": "Point", "coordinates": [72.823314, 19.1452932]}, "properties": {"osm_id": 14053918847, "man_made": "manhole", "manhole": null, "amenity": null, "operator": null, "provenance": "REAL", "source": "OpenStreetMap"}}, {"type": "Feature", "geometry": {"type": "Point", "coordinates": [72.8232215, 19.1452756]}, "properties": {"osm_id": 14053918871, "man_made": "manhole", "manhole": null, "amenity": null, "operator": null, "provenance": "REAL", "source": "OpenStreetMap"}}]}