{"type": "FeatureCollection", "crs": {"type": "name", "properties": {"name": "EPSG:4326"}}, "features": [{"type": "Feature", "id": 1, "geometry": {"type": "Point", "coordinates": [72.841174799947, 19.001362100094]}, "properties": {"OBJECTID_1": 1, "OBJECTID": 1, "Ward": "F/S", "Latitude": 19.0013621, "Longitude": 72.8411748, "Unique_ID": "HA-1753872574465", "Hospital_Type": "Major Hospital", "Hospital_Name": "KEM Hospital, Parel", "Hospital_Address": "Acharya Dhonde Marg, Parel Mumbai", "OPD_Time": "08:00 - 16:00", "LabRoutine__Yes_No_": "Yes", "Lab_Time__Routine_Start_": "20:00", "Lab_Time__Routine_End_": "16:00", "Lab_Emergency__24_7_": "Yes", "General_Speciality": "ANC, Anesthesia, Anesthesiology, ART, Ayurvedic, Chest TB, Casualty, Dermatology, Diet Consultation, Diabetes OPD, Dental, ENT, Ophthalmology, Gen.Surgery, General Medicine, Gynecologic & Obs, IPD Services, Immunization OPD, Leprosy, Medicine, Medicine with ICU, NCD OPD, NTEP(TB), OBGY, OPD-Medicine, Pathology, Psychiatry, PT, Radiology, School Clinic, Skin & V.D, Surgery, TB Chest, Trauma ward, Medical, Pediatrics, Psychiatric & De Addiction, Chest Medicine, Obst & Gyn., Anesthesia (Pain Clinic), Pediatric Surgery, Orthopedics", "Super_speciality": "Cardiac, Rheumatology, Neuro Medicine, Hematology, G.I.C.Surgery, Clinical Pharmacology, Nephrology, Endocrinology, G.I.Medical, Neurosurgery, Neurology, Neonatology, Plastic Surgery, Thoracic Surgery, Cardiology, Urology, Ayurvedic, Pediatric Surgery", "ICUs": "EMS, ICU, IPCU, PICU, SICU", "Diagnostic": "Biochemistry, Blood group testing, Blood sugar testing, CT scan, Dengue test, ECG, Haematology, Histopathology, ICTC, IN-House pathology laboratory, Laboratory, Microbiology, MRI, MP test, School clinic, Ultrasonography (USG), UPT (Urine pregnancy test), VDRL, Widal test, X-ray", "Photo_OPD_URL": "https://drive.google.com/file/d/1aRUD1IJa8OcYyN6DKbRajHJ5Sag6UxZW/view?usp=drivesdk", "Photo_IPD_URL": "https://drive.google.com/file/d/1aIoJoTY00gqxU729V-rH5K-S2jJV2Qvf/view?usp=drivesdk", "User_Name": "KEM Hospital", "Mobile": "2224137000", "Time_stamp": 1753872574000, "FRONT_PHOTO_URL": "https://mcgm.maps.arcgis.com/sharing/rest/content/items/b221c210ac9942129f961b2391de4248/data", "GlobalID": "{9d215dc4-d904-42ed-bc3b-142024973bd4}", "CreationDate": 1756087566000, "Creator": "amrit.kumar", "EditDate": 1756087566000, "Editor": "amrit.kumar", "_source": "MCGM ArcGIS FeatureServer (official)"}}, {"type": "Feature", "id": 2, "geometry": {"type": "Point", "coordinates": [72.8218553999721, 18.9730032998905]}, "properties": {"OBJECTID_1": 2, "OBJECTID": 2, "Ward": "E", "Latitude": 18.9730033, "Longitude": 72.8218554, "Unique_ID": "HA-1753875237501", "Hospital_Type": "Major Hospital", "Hospital_Name": "BYL Nair Charitable Hospital", "Hospital_Address": "Dr AL Nair road ,Mumbai central east,Mumbai central,Mumbai 08", "OPD_Time": "07:30 - 11:30", "LabRoutine__Yes_No_": "Yes", "Lab_Time__Routine_Start_": "08:30", "Lab_Time__Routine_End_": "10:30", "Lab_Emergency__24_7_": "Yes", "General_Speciality": "ANC, Anesthesia, Anesthesiology, ART, Ayurvedic, Chest TB, Casualty, Dermatology, Diet Consultation, Diet Department, Dilaasa, Diabetes OPD, Dental, ENT, Ophthalmology, Gen.Surgery, General Medicine, General Surgery, Gynecologic & Obs, ICTC, IPD Services, Immunization OPD, Leprosy, Medicine, Medicine with ICU, NCD OPD, NTEP(TB), OBGY, OPD-Medicine, Optometry, Pediatric ENT, Pathology, Psychiatry, PT, Radiology, School Clinic, Skin, Skin & V.D, Surgery, TB Chest, Trauma ward, Medical, Pediatrics, Psychiatric & De Addiction, Chest Medicine, Obst & Gyn., Anesthesia (Pain Clinic), Pediatric Surgery, Orthopedics", "Super_speciality": "Cardiac, Rheumatology, Neuro Medicine, Hematology, Clinical Pharmacology, Nephrology, Endocrinology, G.I.Medical, Neurosurgery, Neurology, Neonatology, Plastic Surgery, Thoracic Surgery, Cardiology, Urology, Ayurvedic, Pediatric Surgery", "ICUs": "EMS, ICU, IPCU, MICU, NICU, PICU, PU, SICU, TICU", "Diagnostic": "Biochemistry, Blood group testing, Blood sugar testing, CT scan, Dengue test, ECG, Gene expert laboratory, Haematology, Histopathology, ICTC, IN-House pathology laboratory, Laboratory, Microbiology, MRI, MP test, Regional blood Centre with BCSU, School clinic, TruNAT, Ultrasonography (USG), UPT (Urine pregnancy test), VDRL, Widal test, X-ray", "Photo_OPD_URL": "https://drive.google.com/file/d/1vnKPpoVcqB93ccPVmqtsi4v_DWJgnzHl/view?usp=drivesdk", "Photo_IPD_URL": "https://drive.google.com/file/d/1rPLObzC_vRjSPu_K2lqFpI8oXnXbpI6A/view?usp=drivesdk", "User_Name": "Nair hospital", "Mobile": "9820703190", "Time_stamp": 1753875238000, "FRONT_PHOTO_URL": "https://mcgm.maps.arcgis.com/sharing/rest/content/items/fb06de95690f48fbaedf173ca7abb3ee/data", "GlobalID": "{ca4db091-e13a-4eb4-9326-8d4c92cae555}", "CreationDate": 1756087566000, "Creator": "amrit.kumar", "EditDate": 1756087566000, "Editor": "amrit.kumar", "_source": "MCGM ArcGIS FeatureServer (official)"}}, {"type": "Feature", "id": 3, "geometry": {"type": "Point", "coordinates": [72.8648288996473, 19.0483500997658]}, "properties": {"OBJECTID_1": 3, "OBJECTID": 3, "Ward": "F/N", "Latitude": 19.0483501, "Longitude": 72.8648289, "Unique_ID": "HA-1753959171681", "Hospital_Type": "Major Hospital", "Hospital_Name": "Lokmanya Tilak Municipal General Hospital", "Hospital_Address": "Lokmanya Tilak Municipal General Hospital,Sion,Mumbai-400022", "OPD_Time": "09:00 - 16:00", "LabRoutine__Yes_No_": "Yes", "Lab_Time__Routine_Start_": "09:00", "Lab_Time__Routine_End_": "15:00", "Lab_Emergency__24_7_": "Yes", "General_Speciality": "ANC, Anesthesia, Anesthesiology, ART, Chest TB, Casualty, Dermatology, Diet Consultation, Diet Department, Dilaasa, Diabetes OPD, Dental, ENT, Ophthalmology, Gen.Surgery, General Medicine, General Surgery, Gynecologic & Obs, ICTC, IPD Services, Immunization OPD, Leprosy, Medicine, Medicine with ICU, NCD OPD, NTEP(TB), OBGY, OPD-Medicine, Optometry, Pediatric ENT, Pathology, Psychiatry, PT, Radiology, School Clinic, Skin, Skin & V.D, Surgery, TB Chest, Trauma ward, Medical, Pediatrics, Psychiatric & De Addiction, Chest Medicine, Obst & Gyn., Anesthesia (Pain Clinic), Pediatric Surgery, Orthopedics", "Super_speciality": "Cardiac, Rheumatology, Neuro Medicine, Hematology, G.I.C.Surgery, Clinical Pharmacology, Nephrology, Endocrinology, G.I.Medical, Neurosurgery, Neurology, Neonatology, Plastic Surgery, Thoracic Surgery, Cardiology, Urology, Ayurvedic, Pediatric Surgery", "ICUs": "EMS, ICU, IPCU, MICU, NICU, PICU, PU, SICU, TICU", "Diagnostic": "Biochemistry, Blood group testing, Blood sugar testing, CT scan, Dengue test, ECG, Gene expert laboratory, Haematology, Histopathology, ICTC, IN-House pathology laboratory, Laboratory, Microbiology, MRI, MP test, Regional blood Centre with BCSU, School clinic, TruNAT, Ultrasonography (USG), UPT (Urine pregnancy test), VDRL, Widal test, X-ray", "Photo_OPD_URL": "https://drive.google.com/file/d/1QCjvDtMi_L3Sxc0WfE3ooTDnRin9JvVl/view?usp=drivesdk", "Photo_IPD_URL": "https://drive.google.com/file/d/1rfTOw5d0vTwC9vzD1tpAb_DmC6axB-pk/view?usp=drivesdk", "User_Name": "Dr.Mohan Joshi", "Mobile": "9820703192", "Time_stamp": 1753959172000, "FRONT_PHOTO_URL": "https://mcgm.maps.arcgis.com/sharing/rest/content/items/ff3ead0d30734b3ba821a8517f055c58/data", "GlobalID": "{b4bcdd7d-3dbd-4fa4-a902-a5bfba1dfc7e}", "CreationDate": 1756087566000, "Creator": "amrit.kumar", "EditDate": 1756087566000, "Editor": "amrit.kumar", "_source": "MCGM ArcGIS FeatureServer (official)"}}, {"type": "Feature", "id": 4, "geometry": {"type": "Point", "coordinates": [72.83660190002, 19.1085496999738]}, "properties": {"OBJECTID_1": 4, "OBJECTID": 4, "Ward": "K/W", "Latitude": 19.1085497, "Longitude": 72.8366019, "Unique_ID": "HA-1754040655301", "Hospital_Type": "Major Hospital", "Hospital_Name": "HBT Medical College and  Dr. R N Cooper Hospital", "Hospital_Address": "Bhaktivedanta Swami Road, Juhu, Vile Parle (West) Mumbai, 400056", "OPD_Time": "08:00 - 11:30", "LabRoutine__Yes_No_": "Yes", "Lab_Time__Routine_Start_": "08:30", "Lab_Time__Routine_End_": "15:30", "Lab_Emergency__24_7_": "Yes", "General_Speciality": "ANC, Anesthesiology, ART, Chest TB, Casualty, Dermatology, Diet Consultation, Diet Department, Dilaasa, Diabetes OPD, Dental, ENT, Ophthalmology, Gen.Surgery, General Medicine, General Surgery, Gynecologic & Obs, ICTC, IPD Services, Immunization OPD, Leprosy, Medicine, Medicine with ICU, NCD OPD, NTEP(TB), OBGY, OPD-Medicine, Optometry, Pediatric ENT, Pathology, Psychiatry, PT, Radiology, School Clinic, Skin, Skin & V.D, Surgery, TB Chest, Trauma ward, Medical, Pediatrics, Psychiatric & De Addiction, Chest Medicine, Obst & Gyn., Anesthesia (Pain Clinic), Orthopedics", "Super_speciality": "Rheumatology, Neuro Medicine, Nephrology, Neurology, Neonatology, Cardiology", "ICUs": "EMS, ICU, MICU, NICU, PICU, SICU, TICU", "Diagnostic": "Biochemistry, Blood group testing, Blood sugar testing, CT scan, Dengue test, ECG, Gene expert laboratory, Haematology, Histopathology, ICTC, IN-House pathology laboratory, Laboratory, Microbiology, MRI, MP test, Regional blood Centre with BCSU, School clinic, TruNAT, Ultrasonography (USG), UPT (Urine pregnancy test), VDRL, Widal test, X-ray", "Photo_OPD_URL": "https://drive.google.com/file/d/1SQevmuUMNRDQgq6mo9YeyW6K81FKIgkZ/view?usp=drivesdk", "Photo_IPD_URL": "https://drive.google.com/file/d/1GBoZTb7vdhp2rpwHmxzW14URgFcbWphk/view?usp=drivesdk", "User_Name": "cooperhospital", "Mobile": "9326783765", "Time_stamp": 1754040655000, "FRONT_PHOTO_URL": "https://mcgm.maps.arcgis.com/sharing/rest/content/items/8e19f73993ac4ba8a5ad0ee23295ee94/data", "GlobalID": "{f662b8aa-1cb2-4dc1-907d-afc7c0c6c225}", "CreationDate": 1756087566000, "Creator": "amrit.kumar", "EditDate": 1756087566000, "Editor": "amrit.kumar", "_source": "MCGM ArcGIS FeatureServer (official)"}}]}