{"type": "FeatureCollection", "crs": {"type": "name", "properties": {"name": "EPSG:4326"}}, "features": [{"type": "Feature", "id": 1, "geometry": {"type": "Point", "coordinates": [72.823631709, 19.0132933080001]}, "properties": {"OBJECTID": 1, "FEATUREID": "FB13148100015", "NAME": "Worli Fire Station", "TYPE": 1, "SUBTYPE": null, "LOCATION": "Dr Annie Besant Road, Adarsh Nagar, Prabhadevi, Mumbai - 400030", "BRD_LINE_NO": "24300178", "CNTRL_ROOM_NO": null, "TYPE_CONSTRUCT": null, "YEAR_CONSTRUCT": null, "NO_FLOOR": null, "NO_ROOMS": null, "NO_COM_TOILET": null, "NO_GEN_TOILET": null, "NO_LAD_TOILET": null, "BATHROOM_FAC": null, "RAMP_DISABLED": null, "OPEN_SPACE": null, "REMARKS": null, "EDUPDATEUSER": "Sonawane Chandrakala Laxman", "EDUPDATETIME": 1683113224000, "CREATED_USER": "DMMASTER", "CREATED_DATE": 1529055514000, "LAST_EDITED_USER": "DMMASTER", "LAST_EDITED_DATE": 1566147667000, "HEIGHT_TO_MSL": null, "SYMMETRIC": null, "GROUND": null, "NO_HALL_AUD": null, "SEAT_CAPACITY": null, "WATER_TANK_CAPA": null, "NO_BASEMENT": null, "NO_WATER_TANK": null, "NO_ELEVATOR": null, "PAS": null, "CCTV_SERVE": null, "STRUCTURAL_AUDIT": null, "FIRE_EXTING_SYS": null, "FIRE_AUDIT": null, "CENTRALIZED_AC": null, "DISPLAY_BOARD": null, "HAZ_MAT": null, "ALT_ELEC": null, "WARD": "G/S", "ELEVATOR_CONTACT_LIST": null, "ELEVATOR_INTERCOM": null, "WORKING_HRS": null, "EMPLOYEE_QTY": null, "EMPLOYEE_MALE": null, "EMPLOYEE_FEMALE": null, "EMPLOYEE_DIF_ABLE": null, "WORKING_HRS_STR": null, "WORKING_HRS_STP": null, "_source": "MCGM ArcGIS FeatureServer (official)"}}, {"type": "Feature", "id": 2, "geometry": {"type": "Point", "coordinates": [72.8410774170001, 19.033071502]}, "properties": {"OBJECTID": 2, "FEATUREID": "FB15167300013", "NAME": "Shivaji Park Fire Station", "TYPE": 1, "SUBTYPE": null, "LOCATION": "P N Kotnis Road, Opp Gokul Niwas Society, Mahim West, Mahim, Mumbai- 400016.", "BRD_LINE_NO": "24457203", "CNTRL_ROOM_NO": "101", "TYPE_CONSTRUCT": null, "YEAR_CONSTRUCT": null, "NO_FLOOR": null, "NO_ROOMS": null, "NO_COM_TOILET": null, "NO_GEN_TOILET": null, "NO_LAD_TOILET": null, "BATHROOM_FAC": null, "RAMP_DISABLED": null, "OPEN_SPACE": null, "REMARKS": "Shri. Mahesh Jadhav", "EDUPDATEUSER": "PATIL SIDDHI KAPIL", "EDUPDATETIME": 1683118853000, "CREATED_USER": "DMMASTER", "CREATED_DATE": 1529055514000, "LAST_EDITED_USER": "DMMASTER", "LAST_EDITED_DATE": 1566130246000, "HEIGHT_TO_MSL": null, "SYMMETRIC": null, "GROUND": null, "NO_HALL_AUD": null, "SEAT_CAPACITY": null, "WATER_TANK_CAPA": null, "NO_BASEMENT": null, "NO_WATER_TANK": null, "NO_ELEVATOR": null, "PAS": null, "CCTV_SERVE": null, "STRUCTURAL_AUDIT": null, "FIRE_EXTING_SYS": null, "FIRE_AUDIT": null, "CENTRALIZED_AC": null, "DISPLAY_BOARD": null, "HAZ_MAT": null, "ALT_ELEC": null, "WARD": "G/N", "ELEVATOR_CONTACT_LIST": null, "ELEVATOR_INTERCOM": null, "WORKING_HRS": null, "EMPLOYEE_QTY": null, "EMPLOYEE_MALE": null, "EMPLOYEE_FEMALE": null, "EMPLOYEE_DIF_ABLE": null, "WORKING_HRS_STR": null, "WORKING_HRS_STP": null, "_source": "MCGM ArcGIS FeatureServer (official)"}}, {"type": "Feature", "id": 3, "geometry": {"type": "Point", "coordinates": [72.8326944830001, 18.958009761]}, "properties": {"OBJECTID": 3, "FEATUREID": "FB14087000005", "NAME": "Memonwada Fire Station", "TYPE": 1, "SUBTYPE": "Stn", "LOCATION": "Opposite Bhendi Bazar,  S V P Road, Near Shalimar Hotel, Dongari,  Mumbai - 400009.", "BRD_LINE_NO": "23478818", "CNTRL_ROOM_NO": null, "TYPE_CONSTRUCT": null, "YEAR_CONSTRUCT": null, "NO_FLOOR": null, "NO_ROOMS": null, "NO_COM_TOILET": null, "NO_GEN_TOILET": null, "NO_LAD_TOILET": null, "BATHROOM_FAC": null, "RAMP_DISABLED": null, "OPEN_SPACE": null, "REMARKS": null, "EDUPDATEUSER": null, "EDUPDATETIME": null, "CREATED_USER": "DMMASTER", "CREATED_DATE": 1529055514000, "LAST_EDITED_USER": "DMMASTER", "LAST_EDITED_DATE": 1566139096000, "HEIGHT_TO_MSL": null, "SYMMETRIC": null, "GROUND": null, "NO_HALL_AUD": null, "SEAT_CAPACITY": null, "WATER_TANK_CAPA": null, "NO_BASEMENT": null, "NO_WATER_TANK": null, "NO_ELEVATOR": null, "PAS": null, "CCTV_SERVE": null, "STRUCTURAL_AUDIT": null, "FIRE_EXTING_SYS": null, "FIRE_AUDIT": null, "CENTRALIZED_AC": null, "DISPLAY_BOARD": null, "HAZ_MAT": null, "ALT_ELEC": null, "WARD": "B", "ELEVATOR_CONTACT_LIST": null, "ELEVATOR_INTERCOM": null, "WORKING_HRS": null, "EMPLOYEE_QTY": null, "EMPLOYEE_MALE": null, "EMPLOYEE_FEMALE": null, "EMPLOYEE_DIF_ABLE": null, "WORKING_HRS_STR": null, "WORKING_HRS_STP": null, "_source": "MCGM ArcGIS FeatureServer (official)"}}, {"type": "Feature", "id": 4, "geometry": {"type": "Point", "coordinates": [72.8321449490001, 18.9720291530001]}, "properties": {"OBJECTID": 4, "FEATUREID": "FB14097600008", "NAME": "Fire Brigade Head Quarter", "TYPE": 1, "SUBTYPE": "Off", "LOCATION": "Opposite Y Bridge, Byculla, Sir JJ Rd, Agripada, Mumbai - 400027.", "BRD_LINE_NO": "23076111, 23076112, 23076113", "CNTRL_ROOM_NO": null, "TYPE_CONSTRUCT": null, "YEAR_CONSTRUCT": null, "NO_FLOOR": null, "NO_ROOMS": null, "NO_COM_TOILET": null, "NO_GEN_TOILET": null, "NO_LAD_TOILET": null, "BATHROOM_FAC": null, "RAMP_DISABLED": null, "OPEN_SPACE": null, "REMARKS": null, "EDUPDATEUSER": null, "EDUPDATETIME": null, "CREATED_USER": "DMMASTER", "CREATED_DATE": 1529055514000, "LAST_EDITED_USER": "DMMASTER", "LAST_EDITED_DATE": 1566139752000, "HEIGHT_TO_MSL": null, "SYMMETRIC": null, "GROUND": null, "NO_HALL_AUD": null, "SEAT_CAPACITY": null, "WATER_TANK_CAPA": null, "NO_BASEMENT": null, "NO_WATER_TANK": null, "NO_ELEVATOR": null, "PAS": null, "CCTV_SERVE": null, "STRUCTURAL_AUDIT": null, "FIRE_EXTING_SYS": null, "FIRE_AUDIT": null, "CENTRALIZED_AC": null, "DISPLAY_BOARD": null, "HAZ_MAT": null, "ALT_ELEC": null, "WARD": "E", "ELEVATOR_CONTACT_LIST": null, "ELEVATOR_INTERCOM": null, "WORKING_HRS": null, "EMPLOYEE_QTY": null, "EMPLOYEE_MALE": null, "EMPLOYEE_FEMALE": null, "EMPLOYEE_DIF_ABLE": null, "WORKING_HRS_STR": null, "WORKING_HRS_STP": null, "_source": "MCGM ArcGIS FeatureServer (official)"}}, {"type": "Feature", "id": 5, "geometry": {"type": "Point", "coordinates": [72.8775588460001, 19.110031732]}, "properties": {"OBJECTID": 5, "FEATUREID": "FB19247700018", "NAME": "Marol Fire Station", "TYPE": 1, "SUBTYPE": "Stn", "LOCATION": "Marol Maroshi Road, Shivaji Nagar, JJC, Marol, Andheri East, Mumbai - 400047.", "BRD_LINE_NO": "29200940, 29200941,29200941", "CNTRL_ROOM_NO": null, "TYPE_CONSTRUCT": null, "YEAR_CONSTRUCT": null, "NO_FLOOR": null, "NO_ROOMS": null, "NO_COM_TOILET": null, "NO_GEN_TOILET": null, "NO_LAD_TOILET": null, "BATHROOM_FAC": null, "RAMP_DISABLED": null, "OPEN_SPACE": null, "REMARKS": null, "EDUPDATEUSER": null, "EDUPDATETIME": null, "CREATED_USER": "DMMASTER", "CREATED_DATE": 1529055514000, "LAST_EDITED_USER": "DMMASTER", "LAST_EDITED_DATE": 1566148585000, "HEIGHT_TO_MSL": null, "SYMMETRIC": null, "GROUND": null, "NO_HALL_AUD": null, "SEAT_CAPACITY": null, "WATER_TANK_CAPA": null, "NO_BASEMENT": null, "NO_WATER_TANK": null, "NO_ELEVATOR": null, "PAS": null, "CCTV_SERVE": null, "STRUCTURAL_AUDIT": null, "FIRE_EXTING_SYS": null, "FIRE_AUDIT": null, "CENTRALIZED_AC": null, "DISPLAY_BOARD": null, "HAZ_MAT": null, "ALT_ELEC": null, "WARD": "K/E", "ELEVATOR_CONTACT_LIST": null, "ELEVATOR_INTERCOM": null, "WORKING_HRS": null, "EMPLOYEE_QTY": null, "EMPLOYEE_MALE": null, "EMPLOYEE_FEMALE": null, "EMPLOYEE_DIF_ABLE": null, "WORKING_HRS_STR": null, "WORKING_HRS_STP": null, "_source": "MCGM ArcGIS FeatureServer (official)"}}, {"type": "Feature", "id": 6, "geometry": {"type": "Point", "coordinates": [72.8499780170001, 19.0392976640001]}, "properties": {"OBJECTID": 6, "FEATUREID": "FB16165900014", "NAME": "Dharavi Fire Station", "TYPE": 1, "SUBTYPE": "Station", "LOCATION": "12/e, Jasmine Mill Road, Opp Post Office, Dharavi, Rajashree Shahu Nagar, Mumbai - 400017.", "BRD_LINE_NO": "24077868", "CNTRL_ROOM_NO": null, "TYPE_CONSTRUCT": null, "YEAR_CONSTRUCT": null, "NO_FLOOR": 5, "NO_ROOMS": 32, "NO_COM_TOILET": 1, "NO_GEN_TOILET": 2, "NO_LAD_TOILET": 1, "BATHROOM_FAC": 4, "RAMP_DISABLED": null, "OPEN_SPACE": 2000, "REMARKS": "Shri. M P Erande", "EDUPDATEUSER": "PATIL SIDDHI KAPIL", "EDUPDATETIME": 1683118911000, "CREATED_USER": "DMMASTER", "CREATED_DATE": 1529055514000, "LAST_EDITED_USER": "DMMASTER", "LAST_EDITED_DATE": 1566148002000, "HEIGHT_TO_MSL": null, "SYMMETRIC": null, "GROUND": null, "NO_HALL_AUD": null, "SEAT_CAPACITY": null, "WATER_TANK_CAPA": "25000", "NO_BASEMENT": null, "NO_WATER_TANK": "1", "NO_ELEVATOR": null, "PAS": "No", "CCTV_SERVE": "No", "STRUCTURAL_AUDIT": null, "FIRE_EXTING_SYS": "No", "FIRE_AUDIT": null, "CENTRALIZED_AC": "No", "DISPLAY_BOARD": null, "HAZ_MAT": null, "ALT_ELEC": "No", "WARD": "G/N", "ELEVATOR_CONTACT_LIST": null, "ELEVATOR_INTERCOM": null, "WORKING_HRS": null, "EMPLOYEE_QTY": null, "EMPLOYEE_MALE": null, "EMPLOYEE_FEMALE": null, "EMPLOYEE_DIF_ABLE": null, "WORKING_HRS_STR": null, "WORKING_HRS_STP": null, "_source": "MCGM ArcGIS FeatureServer (official)"}}, {"type": "Feature", "id": 7, "geometry": {"type": "Point", "coordinates": [72.840679854, 19.1122520970001]}, "properties": {"OBJECTID": 7, "FEATUREID": "FB15257000020", "NAME": "Andheri Fire Station", "TYPE": 1, "SUBTYPE": "Stn", "LOCATION": "Near Bharat Petrol Pump, Irla Signal, Swami Vivekanand Rd, Irla Bridge, Andheri West, Mumbai - 400058.", "BRD_LINE_NO": "26205301", "CNTRL_ROOM_NO": null, "TYPE_CONSTRUCT": "RCC", "YEAR_CONSTRUCT": null, "NO_FLOOR": 1, "NO_ROOMS": 7, "NO_COM_TOILET": 2, "NO_GEN_TOILET": null, "NO_LAD_TOILET": null, "BATHROOM_FAC": null, "RAMP_DISABLED": null, "OPEN_SPACE": null, "REMARKS": "Info given Mr.Rajesh Shinde", "EDUPDATEUSER": "Deshmukh Ajit Namdeo", "EDUPDATETIME": 1477331536000, "CREATED_USER": "DMMASTER", "CREATED_DATE": 1529055514000, "LAST_EDITED_USER": "DMMASTER", "LAST_EDITED_DATE": 1566210208000, "HEIGHT_TO_MSL": null, "SYMMETRIC": null, "GROUND": null, "NO_HALL_AUD": null, "SEAT_CAPACITY": null, "WATER_TANK_CAPA": null, "NO_BASEMENT": null, "NO_WATER_TANK": null, "NO_ELEVATOR": null, "PAS": null, "CCTV_SERVE": null, "STRUCTURAL_AUDIT": null, "FIRE_EXTING_SYS": null, "FIRE_AUDIT": null, "CENTRALIZED_AC": null, "DISPLAY_BOARD": null, "HAZ_MAT": null, "ALT_ELEC": null, "WARD": "K/W", "ELEVATOR_CONTACT_LIST": null, "ELEVATOR_INTERCOM": null, "WORKING_HRS": null, "EMPLOYEE_QTY": null, "EMPLOYEE_MALE": null, "EMPLOYEE_FEMALE": null, "EMPLOYEE_DIF_ABLE": null, "WORKING_HRS_STR": null, "WORKING_HRS_STP": null, "_source": "MCGM ArcGIS FeatureServer (official)"}}, {"type": "Feature", "id": 8, "geometry": {"type": "Point", "coordinates": [72.8442092060001, 19.092703215]}, "properties": {"OBJECTID": 8, "FEATUREID": "FB16221900019", "NAME": "Vile Parle Fire Station", "TYPE": 1, "SUBTYPE": "Stn", "LOCATION": "Azad Road, Akash Kiran Society, Navpada, Vile Parle East, Mumbai - 400057.", "BRD_LINE_NO": "26112121", "CNTRL_ROOM_NO": null, "TYPE_CONSTRUCT": null, "YEAR_CONSTRUCT": null, "NO_FLOOR": null, "NO_ROOMS": null, "NO_COM_TOILET": null, "NO_GEN_TOILET": null, "NO_LAD_TOILET": null, "BATHROOM_FAC": null, "RAMP_DISABLED": null, "OPEN_SPACE": null, "REMARKS": null, "EDUPDATEUSER": null, "EDUPDATETIME": null, "CREATED_USER": "DMMASTER", "CREATED_DATE": 1529055514000, "LAST_EDITED_USER": "DMMASTER", "LAST_EDITED_DATE": 1566148159000, "HEIGHT_TO_MSL": null, "SYMMETRIC": null, "GROUND": null, "NO_HALL_AUD": null, "SEAT_CAPACITY": null, "WATER_TANK_CAPA": null, "NO_BASEMENT": null, "NO_WATER_TANK": null, "NO_ELEVATOR": null, "PAS": null, "CCTV_SERVE": null, "STRUCTURAL_AUDIT": null, "FIRE_EXTING_SYS": null, "FIRE_AUDIT": null, "CENTRALIZED_AC": null, "DISPLAY_BOARD": null, "HAZ_MAT": null, "ALT_ELEC": null, "WARD": "K/E", "ELEVATOR_CONTACT_LIST": null, "ELEVATOR_INTERCOM": null, "WORKING_HRS": null, "EMPLOYEE_QTY": null, "EMPLOYEE_MALE": null, "EMPLOYEE_FEMALE": null, "EMPLOYEE_DIF_ABLE": null, "WORKING_HRS_STR": null, "WORKING_HRS_STP": null, "_source": "MCGM ArcGIS FeatureServer (official)"}}, {"type": "Feature", "id": 9, "geometry": {"type": "Point", "coordinates": [72.866819686, 19.035569047]}, "properties": {"OBJECTID": 9, "FEATUREID": "FB18164500009", "NAME": "Raoli Camp Fire Station", "TYPE": 1, "SUBTYPE": "Station", "LOCATION": "Lailabai Kashe Marg, Guru Teg Bahadur Nagar, Sion Koliwada, Mumbai - 400022.", "BRD_LINE_NO": "24077841", "CNTRL_ROOM_NO": "23083240", "TYPE_CONSTRUCT": "Load bearing", "YEAR_CONSTRUCT": "1973", "NO_FLOOR": 1, "NO_ROOMS": 6, "NO_COM_TOILET": 2, "NO_GEN_TOILET": 1, "NO_LAD_TOILET": 1, "BATHROOM_FAC": 2, "RAMP_DISABLED": null, "OPEN_SPACE": 1000, "REMARKS": null, "EDUPDATEUSER": "Mane Minakshi Amar", "EDUPDATETIME": 1600428015000, "CREATED_USER": "DMMASTER", "CREATED_DATE": 1529055514000, "LAST_EDITED_USER": "DMMASTER", "LAST_EDITED_DATE": 1566147557000, "HEIGHT_TO_MSL": null, "SYMMETRIC": null, "GROUND": "Parking", "NO_HALL_AUD": "1", "SEAT_CAPACITY": null, "WATER_TANK_CAPA": "4000", "NO_BASEMENT": null, "NO_WATER_TANK": "1", "NO_ELEVATOR": null, "PAS": "No", "CCTV_SERVE": "No", "STRUCTURAL_AUDIT": null, "FIRE_EXTING_SYS": "No", "FIRE_AUDIT": null, "CENTRALIZED_AC": "No", "DISPLAY_BOARD": "No", "HAZ_MAT": "No", "ALT_ELEC": "No", "WARD": "F/N", "ELEVATOR_CONTACT_LIST": null, "ELEVATOR_INTERCOM": null, "WORKING_HRS": null, "EMPLOYEE_QTY": null, "EMPLOYEE_MALE": null, "EMPLOYEE_FEMALE": null, "EMPLOYEE_DIF_ABLE": null, "WORKING_HRS_STR": null, "WORKING_HRS_STP": null, "_source": "MCGM ArcGIS FeatureServer (official)"}}, {"type": "Feature", "id": 10, "geometry": {"type": "Point", "coordinates": [72.843232954, 18.9854369020001]}, "properties": {"OBJECTID": 10, "FEATUREID": "FB15119100012", "NAME": "Sewri (Cotton Green) Fire Station", "TYPE": 1, "SUBTYPE": "Stn", "LOCATION": "Unit2, First Street, Zakaria Bunder Road, Sewri, Mumbai - 400033", "BRD_LINE_NO": "23775756", "CNTRL_ROOM_NO": null, "TYPE_CONSTRUCT": null, "YEAR_CONSTRUCT": null, "NO_FLOOR": null, "NO_ROOMS": null, "NO_COM_TOILET": null, "NO_GEN_TOILET": null, "NO_LAD_TOILET": null, "BATHROOM_FAC": null, "RAMP_DISABLED": null, "OPEN_SPACE": null, "REMARKS": null, "EDUPDATEUSER": null, "EDUPDATETIME": null, "CREATED_USER": "DMMASTER", "CREATED_DATE": 1529055514000, "LAST_EDITED_USER": "DMMASTER", "LAST_EDITED_DATE": 1566147191000, "HEIGHT_TO_MSL": null, "SYMMETRIC": null, "GROUND": null, "NO_HALL_AUD": null, "SEAT_CAPACITY": null, "WATER_TANK_CAPA": null, "NO_BASEMENT": null, "NO_WATER_TANK": null, "NO_ELEVATOR": null, "PAS": null, "CCTV_SERVE": null, "STRUCTURAL_AUDIT": null, "FIRE_EXTING_SYS": null, "FIRE_AUDIT": null, "CENTRALIZED_AC": null, "DISPLAY_BOARD": null, "HAZ_MAT": null, "ALT_ELEC": null, "WARD": "F/S", "ELEVATOR_CONTACT_LIST": null, "ELEVATOR_INTERCOM": null, "WORKING_HRS": null, "EMPLOYEE_QTY": null, "EMPLOYEE_MALE": null, "EMPLOYEE_FEMALE": null, "EMPLOYEE_DIF_ABLE": null, "WORKING_HRS_STR": null, "WORKING_HRS_STP": null, "_source": "MCGM ArcGIS FeatureServer (official)"}}, {"type": "Feature", "id": 11, "geometry": {"type": "Point", "coordinates": [72.8455960000001, 19.014301]}, "properties": {"OBJECTID": 11, "FEATUREID": "FB16141200011", "NAME": "Dadar Fire Station", "TYPE": 1, "SUBTYPE": null, "LOCATION": "Dr. Babasaheb Ambedkar Road, Old BDD Chawl, Dadar East, Mumbai - 400014.", "BRD_LINE_NO": "24134200", "CNTRL_ROOM_NO": null, "TYPE_CONSTRUCT": null, "YEAR_CONSTRUCT": null, "NO_FLOOR": null, "NO_ROOMS": null, "NO_COM_TOILET": null, "NO_GEN_TOILET": null, "NO_LAD_TOILET": null, "BATHROOM_FAC": null, "RAMP_DISABLED": null, "OPEN_SPACE": null, "REMARKS": "mahafireservice.gov.in", "EDUPDATEUSER": "Sonawane Chandrakala Laxman", "EDUPDATETIME": 1683113198000, "CREATED_USER": "DMMASTER", "CREATED_DATE": 1529055514000, "LAST_EDITED_USER": "DMMASTER", "LAST_EDITED_DATE": 1566147316000, "HEIGHT_TO_MSL": null, "SYMMETRIC": null, "GROUND": null, "NO_HALL_AUD": null, "SEAT_CAPACITY": null, "WATER_TANK_CAPA": null, "NO_BASEMENT": null, "NO_WATER_TANK": null, "NO_ELEVATOR": null, "PAS": null, "CCTV_SERVE": null, "STRUCTURAL_AUDIT": null, "FIRE_EXTING_SYS": null, "FIRE_AUDIT": null, "CENTRALIZED_AC": null, "DISPLAY_BOARD": null, "HAZ_MAT": null, "ALT_ELEC": null, "WARD": "F/S", "ELEVATOR_CONTACT_LIST": null, "ELEVATOR_INTERCOM": null, "WORKING_HRS": null, "EMPLOYEE_QTY": null, "EMPLOYEE_MALE": null, "EMPLOYEE_FEMALE": null, "EMPLOYEE_DIF_ABLE": null, "WORKING_HRS_STR": null, "WORKING_HRS_STP": null, "_source": "MCGM ArcGIS FeatureServer (official)"}}, {"type": "Feature", "id": 12, "geometry": {"type": "Point", "coordinates": [72.87012695, 19.0250315390001]}, "properties": {"OBJECTID": 12, "FEATUREID": "FB18157400010", "NAME": "Wadala Fire Station", "TYPE": 1, "SUBTYPE": "Stn", "LOCATION": "14, Shaikh Mistry Road, Sangam Nagar, Wadala (East), Mumbai - 400037.", "BRD_LINE_NO": "24132058", "CNTRL_ROOM_NO": null, "TYPE_CONSTRUCT": null, "YEAR_CONSTRUCT": null, "NO_FLOOR": null, "NO_ROOMS": null, "NO_COM_TOILET": null, "NO_GEN_TOILET": null, "NO_LAD_TOILET": null, "BATHROOM_FAC": null, "RAMP_DISABLED": null, "OPEN_SPACE": null, "REMARKS": null, "EDUPDATEUSER": null, "EDUPDATETIME": null, "CREATED_USER": "DMMASTER", "CREATED_DATE": 1529055514000, "LAST_EDITED_USER": "DMMASTER", "LAST_EDITED_DATE": 1566147453000, "HEIGHT_TO_MSL": null, "SYMMETRIC": null, "GROUND": null, "NO_HALL_AUD": null, "SEAT_CAPACITY": null, "WATER_TANK_CAPA": null, "NO_BASEMENT": null, "NO_WATER_TANK": null, "NO_ELEVATOR": null, "PAS": null, "CCTV_SERVE": null, "STRUCTURAL_AUDIT": null, "FIRE_EXTING_SYS": null, "FIRE_AUDIT": null, "CENTRALIZED_AC": null, "DISPLAY_BOARD": null, "HAZ_MAT": null, "ALT_ELEC": null, "WARD": "F/N", "ELEVATOR_CONTACT_LIST": null, "ELEVATOR_INTERCOM": null, "WORKING_HRS": null, "EMPLOYEE_QTY": null, "EMPLOYEE_MALE": null, "EMPLOYEE_FEMALE": null, "EMPLOYEE_DIF_ABLE": null, "WORKING_HRS_STR": null, "WORKING_HRS_STP": null, "_source": "MCGM ArcGIS FeatureServer (official)"}}, {"type": "Feature", "id": 13, "geometry": {"type": "Point", "coordinates": [72.826103, 18.915403]}, "properties": {"OBJECTID": 13, "FEATUREID": "FB13039300003", "NAME": "Colaba Fire Station", "TYPE": 1, "SUBTYPE": "Stn", "LOCATION": "Near Sasoon Dock & Mukesh Mill, Near Sasson Dock, Narayan A Sawant Road, Colaba\nMumbai - 400005.", "BRD_LINE_NO": "22043603", "CNTRL_ROOM_NO": null, "TYPE_CONSTRUCT": null, "YEAR_CONSTRUCT": null, "NO_FLOOR": null, "NO_ROOMS": null, "NO_COM_TOILET": null, "NO_GEN_TOILET": null, "NO_LAD_TOILET": null, "BATHROOM_FAC": null, "RAMP_DISABLED": null, "OPEN_SPACE": null, "REMARKS": null, "EDUPDATEUSER": null, "EDUPDATETIME": null, "CREATED_USER": "DMMASTER", "CREATED_DATE": 1529055514000, "LAST_EDITED_USER": "DMMASTER", "LAST_EDITED_DATE": 1566137009000, "HEIGHT_TO_MSL": null, "SYMMETRIC": null, "GROUND": null, "NO_HALL_AUD": null, "SEAT_CAPACITY": null, "WATER_TANK_CAPA": null, "NO_BASEMENT": null, "NO_WATER_TANK": null, "NO_ELEVATOR": null, "PAS": null, "CCTV_SERVE": null, "STRUCTURAL_AUDIT": null, "FIRE_EXTING_SYS": null, "FIRE_AUDIT": null, "CENTRALIZED_AC": null, "DISPLAY_BOARD": null, "HAZ_MAT": null, "ALT_ELEC": null, "WARD": "A", "ELEVATOR_CONTACT_LIST": null, "ELEVATOR_INTERCOM": null, "WORKING_HRS": null, "EMPLOYEE_QTY": null, "EMPLOYEE_MALE": null, "EMPLOYEE_FEMALE": null, "EMPLOYEE_DIF_ABLE": null, "WORKING_HRS_STR": null, "WORKING_HRS_STP": null, "_source": "MCGM ArcGIS FeatureServer (official)"}}, {"type": "Feature", "id": 14, "geometry": {"type": "Point", "coordinates": [72.826042498, 18.923076528]}, "properties": {"OBJECTID": 14, "FEATUREID": "FB13049100004", "NAME": "Nariman Point Fire Station", "TYPE": 1, "SUBTYPE": "Stn", "LOCATION": "Gen Jagannath Bhosle Road,  Near Sarang TowerNariman Point, Mumbai - 400021.", "BRD_LINE_NO": "22882787", "CNTRL_ROOM_NO": null, "TYPE_CONSTRUCT": null, "YEAR_CONSTRUCT": null, "NO_FLOOR": null, "NO_ROOMS": null, "NO_COM_TOILET": null, "NO_GEN_TOILET": null, "NO_LAD_TOILET": null, "BATHROOM_FAC": null, "RAMP_DISABLED": null, "OPEN_SPACE": null, "REMARKS": null, "EDUPDATEUSER": null, "EDUPDATETIME": null, "CREATED_USER": "DMMASTER", "CREATED_DATE": 1529055514000, "LAST_EDITED_USER": "DMMASTER", "LAST_EDITED_DATE": 1566137225000, "HEIGHT_TO_MSL": null, "SYMMETRIC": null, "GROUND": null, "NO_HALL_AUD": null, "SEAT_CAPACITY": null, "WATER_TANK_CAPA": null, "NO_BASEMENT": null, "NO_WATER_TANK": null, "NO_ELEVATOR": null, "PAS": null, "CCTV_SERVE": null, "STRUCTURAL_AUDIT": null, "FIRE_EXTING_SYS": null, "FIRE_AUDIT": null, "CENTRALIZED_AC": null, "DISPLAY_BOARD": null, "HAZ_MAT": null, "ALT_ELEC": null, "WARD": "A", "ELEVATOR_CONTACT_LIST": null, "ELEVATOR_INTERCOM": null, "WORKING_HRS": null, "EMPLOYEE_QTY": null, "EMPLOYEE_MALE": null, "EMPLOYEE_FEMALE": null, "EMPLOYEE_DIF_ABLE": null, "WORKING_HRS_STR": null, "WORKING_HRS_STP": null, "_source": "MCGM ArcGIS FeatureServer (official)"}}, {"type": "Feature", "id": 15, "geometry": {"type": "Point", "coordinates": [72.9663054150001, 19.1720633730001]}, "properties": {"OBJECTID": 15, "FEATUREID": "FB29311500032", "NAME": "Gawanpada Fire Station", "TYPE": 1, "SUBTYPE": "Stn", "LOCATION": "Near Gawanpada Road, V.S Road, Gawanpada, Mulund East, Mumbai - 400081.", "BRD_LINE_NO": "25639191", "CNTRL_ROOM_NO": null, "TYPE_CONSTRUCT": null, "YEAR_CONSTRUCT": null, "NO_FLOOR": null, "NO_ROOMS": null, "NO_COM_TOILET": null, "NO_GEN_TOILET": null, "NO_LAD_TOILET": null, "BATHROOM_FAC": null, "RAMP_DISABLED": null, "OPEN_SPACE": null, "REMARKS": null, "EDUPDATEUSER": "Dhanke Yashwant Gopal", "EDUPDATETIME": 1620586526000, "CREATED_USER": "DMMASTER", "CREATED_DATE": 1529055514000, "LAST_EDITED_USER": "DMMASTER", "LAST_EDITED_DATE": 1626179934000, "HEIGHT_TO_MSL": null, "SYMMETRIC": null, "GROUND": null, "NO_HALL_AUD": null, "SEAT_CAPACITY": null, "WATER_TANK_CAPA": null, "NO_BASEMENT": null, "NO_WATER_TANK": null, "NO_ELEVATOR": null, "PAS": null, "CCTV_SERVE": null, "STRUCTURAL_AUDIT": null, "FIRE_EXTING_SYS": null, "FIRE_AUDIT": null, "CENTRALIZED_AC": null, "DISPLAY_BOARD": null, "HAZ_MAT": null, "ALT_ELEC": null, "WARD": "T", "ELEVATOR_CONTACT_LIST": null, "ELEVATOR_INTERCOM": null, "WORKING_HRS": "Yes", "EMPLOYEE_QTY": null, "EMPLOYEE_MALE": null, "EMPLOYEE_FEMALE": null, "EMPLOYEE_DIF_ABLE": null, "WORKING_HRS_STR": null, "WORKING_HRS_STP": null, "_source": "MCGM ArcGIS FeatureServer (official)"}}, {"type": "Feature", "id": 16, "geometry": {"type": "Point", "coordinates": [72.8728776, 19.2131832000001]}, "properties": {"OBJECTID": 16, "FEATUREID": "FS23000000001", "NAME": "Thakur Village Mini Fire Station", "TYPE": 1, "SUBTYPE": "Stn", "LOCATION": "Thakur Village Mini Fire Station, Thakur Village Road, Near Thakur Shyamnarayan High School just, Kandivali, Mumbai, 400101", "BRD_LINE_NO": "022 2805 0101", "CNTRL_ROOM_NO": null, "TYPE_CONSTRUCT": null, "YEAR_CONSTRUCT": null, "NO_FLOOR": null, "NO_ROOMS": null, "NO_COM_TOILET": null, "NO_GEN_TOILET": null, "NO_LAD_TOILET": null, "BATHROOM_FAC": null, "RAMP_DISABLED": null, "OPEN_SPACE": null, "REMARKS": null, "EDUPDATEUSER": null, "EDUPDATETIME": null, "CREATED_USER": "DMMASTER", "CREATED_DATE": 1577625605000, "LAST_EDITED_USER": "DMMASTER", "LAST_EDITED_DATE": 1577625623000, "HEIGHT_TO_MSL": null, "SYMMETRIC": null, "GROUND": null, "NO_HALL_AUD": null, "SEAT_CAPACITY": null, "WATER_TANK_CAPA": null, "NO_BASEMENT": null, "NO_WATER_TANK": null, "NO_ELEVATOR": null, "PAS": null, "CCTV_SERVE": null, "STRUCTURAL_AUDIT": null, "FIRE_EXTING_SYS": null, "FIRE_AUDIT": null, "CENTRALIZED_AC": null, "DISPLAY_BOARD": null, "HAZ_MAT": null, "ALT_ELEC": null, "WARD": "R/S", "ELEVATOR_CONTACT_LIST": null, "ELEVATOR_INTERCOM": null, "WORKING_HRS": null, "EMPLOYEE_QTY": null, "EMPLOYEE_MALE": null, "EMPLOYEE_FEMALE": null, "EMPLOYEE_DIF_ABLE": null, "WORKING_HRS_STR": null, "WORKING_HRS_STP": null, "_source": "MCGM ArcGIS FeatureServer (official)"}}, {"type": "Feature", "id": 17, "geometry": {"type": "Point", "coordinates": [72.8858245000001, 19.0847462]}, "properties": {"OBJECTID": 17, "FEATUREID": "FB20215900021", "NAME": "Kurla Fire Staion", "TYPE": 1, "SUBTYPE": "Stn", "LOCATION": "Kurla Fire Station, Lal Bahadur Shastri Marg, Near Phoenix Mall, Kurla West, Mumbai, 400070", "BRD_LINE_NO": "25039200", "CNTRL_ROOM_NO": "101", "TYPE_CONSTRUCT": null, "YEAR_CONSTRUCT": null, "NO_FLOOR": null, "NO_ROOMS": null, "NO_COM_TOILET": null, "NO_GEN_TOILET": null, "NO_LAD_TOILET": null, "BATHROOM_FAC": null, "RAMP_DISABLED": null, "OPEN_SPACE": null, "REMARKS": "Updated by M/s. Innowave IT", "EDUPDATEUSER": "Rathod Savita Ghevarchand", "EDUPDATETIME": 1628317077000, "CREATED_USER": "Innowave", "CREATED_DATE": 1527747338000, "LAST_EDITED_USER": "DMMASTER@PRSRVGISDB.MUMBASE.MCGM.GOV.IN", "LAST_EDITED_DATE": 1643287933000, "HEIGHT_TO_MSL": null, "SYMMETRIC": null, "GROUND": null, "NO_HALL_AUD": null, "SEAT_CAPACITY": null, "WATER_TANK_CAPA": null, "NO_BASEMENT": null, "NO_WATER_TANK": null, "NO_ELEVATOR": null, "PAS": null, "CCTV_SERVE": null, "STRUCTURAL_AUDIT": null, "FIRE_EXTING_SYS": null, "FIRE_AUDIT": null, "CENTRALIZED_AC": null, "DISPLAY_BOARD": null, "HAZ_MAT": null, "ALT_ELEC": null, "WARD": "L", "ELEVATOR_CONTACT_LIST": null, "ELEVATOR_INTERCOM": null, "WORKING_HRS": null, "EMPLOYEE_QTY": null, "EMPLOYEE_MALE": null, "EMPLOYEE_FEMALE": null, "EMPLOYEE_DIF_ABLE": null, "WORKING_HRS_STR": null, "WORKING_HRS_STP": null, "_source": "MCGM ArcGIS FeatureServer (official)"}}, {"type": "Feature", "id": 18, "geometry": {"type": "Point", "coordinates": [72.836593394, 19.177419023]}, "properties": {"OBJECTID": 18, "FEATUREID": "FB15324300027", "NAME": "Chincholi Fire Station", "TYPE": 1, "SUBTYPE": "Stn", "LOCATION": "Link Rd, Malad West, Mumbai - 400064.", "BRD_LINE_NO": "28769101", "CNTRL_ROOM_NO": null, "TYPE_CONSTRUCT": null, "YEAR_CONSTRUCT": null, "NO_FLOOR": null, "NO_ROOMS": null, "NO_COM_TOILET": null, "NO_GEN_TOILET": null, "NO_LAD_TOILET": null, "BATHROOM_FAC": null, "RAMP_DISABLED": null, "OPEN_SPACE": null, "REMARKS": null, "EDUPDATEUSER": null, "EDUPDATETIME": null, "CREATED_USER": "DMMASTER", "CREATED_DATE": 1529055514000, "LAST_EDITED_USER": "DMMASTER", "LAST_EDITED_DATE": 1597991128000, "HEIGHT_TO_MSL": null, "SYMMETRIC": null, "GROUND": null, "NO_HALL_AUD": null, "SEAT_CAPACITY": null, "WATER_TANK_CAPA": null, "NO_BASEMENT": null, "NO_WATER_TANK": null, "NO_ELEVATOR": null, "PAS": null, "CCTV_SERVE": null, "STRUCTURAL_AUDIT": null, "FIRE_EXTING_SYS": null, "FIRE_AUDIT": null, "CENTRALIZED_AC": null, "DISPLAY_BOARD": null, "HAZ_MAT": null, "ALT_ELEC": null, "WARD": "P/S", "ELEVATOR_CONTACT_LIST": null, "ELEVATOR_INTERCOM": null, "WORKING_HRS": null, "EMPLOYEE_QTY": null, "EMPLOYEE_MALE": null, "EMPLOYEE_FEMALE": null, "EMPLOYEE_DIF_ABLE": null, "WORKING_HRS_STR": null, "WORKING_HRS_STP": null, "_source": "MCGM ArcGIS FeatureServer (official)"}}, {"type": "Feature", "id": 19, "geometry": {"type": "Point", "coordinates": [72.840406026, 19.153548566]}, "properties": {"OBJECTID": 19, "FEATUREID": "FB15298600028", "NAME": "Goregaon Motilal Nagar Fire Station", "TYPE": 1, "SUBTYPE": "Stn", "LOCATION": "Shri Gajanan Maharaj Marg, opp BEST staff colony and Imperial Height, Road Number 6, Motilal Nagar, Goregaon West, Mumbai - 400104.", "BRD_LINE_NO": "28712869", "CNTRL_ROOM_NO": null, "TYPE_CONSTRUCT": null, "YEAR_CONSTRUCT": null, "NO_FLOOR": null, "NO_ROOMS": null, "NO_COM_TOILET": null, "NO_GEN_TOILET": null, "NO_LAD_TOILET": null, "BATHROOM_FAC": null, "RAMP_DISABLED": null, "OPEN_SPACE": null, "REMARKS": null, "EDUPDATEUSER": null, "EDUPDATETIME": null, "CREATED_USER": "DMMASTER", "CREATED_DATE": 1529055514000, "LAST_EDITED_USER": "DMMASTER", "LAST_EDITED_DATE": 1597991251000, "HEIGHT_TO_MSL": null, "SYMMETRIC": null, "GROUND": null, "NO_HALL_AUD": null, "SEAT_CAPACITY": null, "WATER_TANK_CAPA": null, "NO_BASEMENT": null, "NO_WATER_TANK": null, "NO_ELEVATOR": null, "PAS": null, "CCTV_SERVE": null, "STRUCTURAL_AUDIT": null, "FIRE_EXTING_SYS": null, "FIRE_AUDIT": null, "CENTRALIZED_AC": null, "DISPLAY_BOARD": null, "HAZ_MAT": null, "ALT_ELEC": null, "WARD": "P/S", "ELEVATOR_CONTACT_LIST": null, "ELEVATOR_INTERCOM": null, "WORKING_HRS": null, "EMPLOYEE_QTY": null, "EMPLOYEE_MALE": null, "EMPLOYEE_FEMALE": null, "EMPLOYEE_DIF_ABLE": null, "WORKING_HRS_STR": null, "WORKING_HRS_STP": null, "_source": "MCGM ArcGIS FeatureServer (official)"}}, {"type": "Feature", "id": 20, "geometry": {"type": "Point", "coordinates": [72.850624, 19.206017]}, "properties": {"OBJECTID": 20, "FEATUREID": "FB16359400031", "NAME": "Kandivali Fire Station", "TYPE": 1, "SUBTYPE": "Stn", "LOCATION": "K Nehru Road, Jethava Nagar, Kandivali (W), Mumbai - 400067.", "BRD_LINE_NO": "28050101", "CNTRL_ROOM_NO": null, "TYPE_CONSTRUCT": null, "YEAR_CONSTRUCT": null, "NO_FLOOR": null, "NO_ROOMS": null, "NO_COM_TOILET": null, "NO_GEN_TOILET": null, "NO_LAD_TOILET": null, "BATHROOM_FAC": null, "RAMP_DISABLED": null, "OPEN_SPACE": null, "REMARKS": null, "EDUPDATEUSER": null, "EDUPDATETIME": null, "CREATED_USER": "DMMASTER", "CREATED_DATE": 1529055514000, "LAST_EDITED_USER": "DMMASTER", "LAST_EDITED_DATE": 1597991312000, "HEIGHT_TO_MSL": null, "SYMMETRIC": null, "GROUND": null, "NO_HALL_AUD": null, "SEAT_CAPACITY": null, "WATER_TANK_CAPA": null, "NO_BASEMENT": null, "NO_WATER_TANK": null, "NO_ELEVATOR": null, "PAS": null, "CCTV_SERVE": null, "STRUCTURAL_AUDIT": null, "FIRE_EXTING_SYS": null, "FIRE_AUDIT": null, "CENTRALIZED_AC": null, "DISPLAY_BOARD": null, "HAZ_MAT": null, "ALT_ELEC": null, "WARD": "R/S", "ELEVATOR_CONTACT_LIST": null, "ELEVATOR_INTERCOM": null, "WORKING_HRS": null, "EMPLOYEE_QTY": null, "EMPLOYEE_MALE": null, "EMPLOYEE_FEMALE": null, "EMPLOYEE_DIF_ABLE": null, "WORKING_HRS_STR": null, "WORKING_HRS_STP": null, "_source": "MCGM ArcGIS FeatureServer (official)"}}, {"type": "Feature", "id": 21, "geometry": {"type": "Point", "coordinates": [72.8702810030001, 19.024918917]}, "properties": {"OBJECTID": 21, "FEATUREID": "FB06000000001", "NAME": "Regional Command Centre Zone2", "TYPE": 1, "SUBTYPE": "Stn", "LOCATION": "Regional Command Centre Zone2, SMD Road, Near Shiv Mandir, Wadala, Mumbai, 400037", "BRD_LINE_NO": "022 24132058", "CNTRL_ROOM_NO": "022 23085994", "TYPE_CONSTRUCT": null, "YEAR_CONSTRUCT": null, "NO_FLOOR": null, "NO_ROOMS": null, "NO_COM_TOILET": null, "NO_GEN_TOILET": null, "NO_LAD_TOILET": null, "BATHROOM_FAC": null, "RAMP_DISABLED": null, "OPEN_SPACE": null, "REMARKS": null, "EDUPDATEUSER": null, "EDUPDATETIME": null, "CREATED_USER": "DMMASTER", "CREATED_DATE": 1566139961000, "LAST_EDITED_USER": "DMMASTER@PRSRVGISDB.MUMBASE.MCGM.GOV.IN", "LAST_EDITED_DATE": 1643288034000, "HEIGHT_TO_MSL": null, "SYMMETRIC": null, "GROUND": null, "NO_HALL_AUD": null, "SEAT_CAPACITY": null, "WATER_TANK_CAPA": null, "NO_BASEMENT": null, "NO_WATER_TANK": null, "NO_ELEVATOR": null, "PAS": null, "CCTV_SERVE": null, "STRUCTURAL_AUDIT": null, "FIRE_EXTING_SYS": null, "FIRE_AUDIT": null, "CENTRALIZED_AC": null, "DISPLAY_BOARD": null, "HAZ_MAT": null, "ALT_ELEC": null, "WARD": "F/N", "ELEVATOR_CONTACT_LIST": null, "ELEVATOR_INTERCOM": null, "WORKING_HRS": null, "EMPLOYEE_QTY": null, "EMPLOYEE_MALE": null, "EMPLOYEE_FEMALE": null, "EMPLOYEE_DIF_ABLE": null, "WORKING_HRS_STR": null, "WORKING_HRS_STP": null, "_source": "MCGM ArcGIS FeatureServer (official)"}}, {"type": "Feature", "id": 22, "geometry": {"type": "Point", "coordinates": [72.8624954060001, 19.247481545]}, "properties": {"OBJECTID": 22, "FEATUREID": "FB18402000030", "NAME": "Dahisar Fire Station", "TYPE": 1, "SUBTYPE": "Stn", "LOCATION": "Swami Vivekanand Road, Opp BMC Garden, Dahisar East, Mumbai", "BRD_LINE_NO": "28977702", "CNTRL_ROOM_NO": null, "TYPE_CONSTRUCT": "RCC", "YEAR_CONSTRUCT": "2006", "NO_FLOOR": 3, "NO_ROOMS": 12, "NO_COM_TOILET": 3, "NO_GEN_TOILET": 3, "NO_LAD_TOILET": null, "BATHROOM_FAC": 3, "RAMP_DISABLED": null, "OPEN_SPACE": 2500, "REMARKS": null, "EDUPDATEUSER": null, "EDUPDATETIME": null, "CREATED_USER": "DMMASTER", "CREATED_DATE": 1529055514000, "LAST_EDITED_USER": "DMMASTER", "LAST_EDITED_DATE": 1597991935000, "HEIGHT_TO_MSL": null, "SYMMETRIC": null, "GROUND": null, "NO_HALL_AUD": null, "SEAT_CAPACITY": null, "WATER_TANK_CAPA": "5000", "NO_BASEMENT": null, "NO_WATER_TANK": null, "NO_ELEVATOR": null, "PAS": null, "CCTV_SERVE": null, "STRUCTURAL_AUDIT": null, "FIRE_EXTING_SYS": null, "FIRE_AUDIT": null, "CENTRALIZED_AC": null, "DISPLAY_BOARD": null, "HAZ_MAT": null, "ALT_ELEC": null, "WARD": "R/N", "ELEVATOR_CONTACT_LIST": null, "ELEVATOR_INTERCOM": null, "WORKING_HRS": null, "EMPLOYEE_QTY": null, "EMPLOYEE_MALE": null, "EMPLOYEE_FEMALE": null, "EMPLOYEE_DIF_ABLE": null, "WORKING_HRS_STR": null, "WORKING_HRS_STP": null, "_source": "MCGM ArcGIS FeatureServer (official)"}}, {"type": "Feature", "id": 23, "geometry": {"type": "Point", "coordinates": [72.8545, 19.056992]}, "properties": {"OBJECTID": 23, "FEATUREID": "FB17181900016", "NAME": "BKC Fire Station", "TYPE": 1, "SUBTYPE": "Stn", "LOCATION": "Bandra Kurla Complex, Bandra East, Mumbai - 400051.", "BRD_LINE_NO": "26522426", "CNTRL_ROOM_NO": null, "TYPE_CONSTRUCT": null, "YEAR_CONSTRUCT": null, "NO_FLOOR": null, "NO_ROOMS": null, "NO_COM_TOILET": null, "NO_GEN_TOILET": null, "NO_LAD_TOILET": null, "BATHROOM_FAC": null, "RAMP_DISABLED": null, "OPEN_SPACE": null, "REMARKS": null, "EDUPDATEUSER": null, "EDUPDATETIME": null, "CREATED_USER": "DMMASTER", "CREATED_DATE": 1529055514000, "LAST_EDITED_USER": "DMMASTER", "LAST_EDITED_DATE": 1597990872000, "HEIGHT_TO_MSL": null, "SYMMETRIC": null, "GROUND": null, "NO_HALL_AUD": null, "SEAT_CAPACITY": null, "WATER_TANK_CAPA": null, "NO_BASEMENT": null, "NO_WATER_TANK": null, "NO_ELEVATOR": null, "PAS": null, "CCTV_SERVE": null, "STRUCTURAL_AUDIT": null, "FIRE_EXTING_SYS": null, "FIRE_AUDIT": null, "CENTRALIZED_AC": null, "DISPLAY_BOARD": null, "HAZ_MAT": null, "ALT_ELEC": null, "WARD": "H/E", "ELEVATOR_CONTACT_LIST": null, "ELEVATOR_INTERCOM": null, "WORKING_HRS": null, "EMPLOYEE_QTY": null, "EMPLOYEE_MALE": null, "EMPLOYEE_FEMALE": null, "EMPLOYEE_DIF_ABLE": null, "WORKING_HRS_STR": null, "WORKING_HRS_STP": null, "_source": "MCGM ArcGIS FeatureServer (official)"}}, {"type": "Feature", "id": 24, "geometry": {"type": "Point", "coordinates": [72.8406908740001, 19.2296791840001]}, "properties": {"OBJECTID": 24, "FEATUREID": "FB15388100029", "NAME": "Borivali Fire Station", "TYPE": 1, "SUBTYPE": "Stn", "LOCATION": "Borivali Fire Station, Lokmanya Tilak Road, Near Link Road, Borivali West, Mumbai, Maharashtra, 400091", "BRD_LINE_NO": "022 28602847", "CNTRL_ROOM_NO": null, "TYPE_CONSTRUCT": null, "YEAR_CONSTRUCT": null, "NO_FLOOR": null, "NO_ROOMS": null, "NO_COM_TOILET": null, "NO_GEN_TOILET": null, "NO_LAD_TOILET": null, "BATHROOM_FAC": null, "RAMP_DISABLED": null, "OPEN_SPACE": null, "REMARKS": null, "EDUPDATEUSER": null, "EDUPDATETIME": null, "CREATED_USER": "DMMASTER", "CREATED_DATE": 1566140479000, "LAST_EDITED_USER": "DMMASTER@PRSRVGISDB.MUMBASE.MCGM.GOV.IN", "LAST_EDITED_DATE": 1643288047000, "HEIGHT_TO_MSL": null, "SYMMETRIC": null, "GROUND": null, "NO_HALL_AUD": null, "SEAT_CAPACITY": null, "WATER_TANK_CAPA": null, "NO_BASEMENT": null, "NO_WATER_TANK": null, "NO_ELEVATOR": null, "PAS": null, "CCTV_SERVE": null, "STRUCTURAL_AUDIT": null, "FIRE_EXTING_SYS": null, "FIRE_AUDIT": null, "CENTRALIZED_AC": null, "DISPLAY_BOARD": null, "HAZ_MAT": null, "ALT_ELEC": null, "WARD": "R/C", "ELEVATOR_CONTACT_LIST": null, "ELEVATOR_INTERCOM": null, "WORKING_HRS": null, "EMPLOYEE_QTY": null, "EMPLOYEE_MALE": null, "EMPLOYEE_FEMALE": null, "EMPLOYEE_DIF_ABLE": null, "WORKING_HRS_STR": null, "WORKING_HRS_STP": null, "_source": "MCGM ArcGIS FeatureServer (official)"}}, {"type": "Feature", "id": 25, "geometry": {"type": "Point", "coordinates": [72.8127316170001, 18.961637389]}, "properties": {"OBJECTID": 25, "FEATUREID": "FB12086400007", "NAME": "Gowalia Tank Fire Station", "TYPE": 1, "SUBTYPE": "Station", "LOCATION": "Nana Chowk, August Kranti Marg, Mumbai - 400007.", "BRD_LINE_NO": "23806001", "CNTRL_ROOM_NO": null, "TYPE_CONSTRUCT": "RCC", "YEAR_CONSTRUCT": "2013", "NO_FLOOR": 4, "NO_ROOMS": 20, "NO_COM_TOILET": 4, "NO_GEN_TOILET": 3, "NO_LAD_TOILET": 1, "BATHROOM_FAC": 4, "RAMP_DISABLED": "Yes", "OPEN_SPACE": 150, "REMARKS": "9967929005", "EDUPDATEUSER": "Patil Gajanan Nana", "EDUPDATETIME": 1684148183000, "CREATED_USER": "DMMASTER", "CREATED_DATE": 1529055514000, "LAST_EDITED_USER": "DMMASTER@PRSRVGISDB.MUMBASE.MCGM.GOV.IN", "LAST_EDITED_DATE": 1648061963000, "HEIGHT_TO_MSL": null, "SYMMETRIC": null, "GROUND": "Parking", "NO_HALL_AUD": null, "SEAT_CAPACITY": "0", "WATER_TANK_CAPA": "12000", "NO_BASEMENT": null, "NO_WATER_TANK": "4", "NO_ELEVATOR": null, "PAS": "No", "CCTV_SERVE": "Yes", "STRUCTURAL_AUDIT": null, "FIRE_EXTING_SYS": null, "FIRE_AUDIT": null, "CENTRALIZED_AC": "No", "DISPLAY_BOARD": "No", "HAZ_MAT": "Yes", "ALT_ELEC": "No", "WARD": "D", "ELEVATOR_CONTACT_LIST": null, "ELEVATOR_INTERCOM": null, "WORKING_HRS": "Yes", "EMPLOYEE_QTY": 54, "EMPLOYEE_MALE": 54, "EMPLOYEE_FEMALE": 54, "EMPLOYEE_DIF_ABLE": null, "WORKING_HRS_STR": null, "WORKING_HRS_STP": null, "_source": "MCGM ArcGIS FeatureServer (official)"}}, {"type": "Feature", "id": 26, "geometry": {"type": "Point", "coordinates": [72.8229569380001, 19.1967546230001]}, "properties": {"OBJECTID": 26, "FEATUREID": "FB14340400026", "NAME": "Malad Malwani Fire Station", "TYPE": 1, "SUBTYPE": "Stn", "LOCATION": "Asmita Jyoti Housing Society, Malad (W),  Mumbai - 400095.", "BRD_LINE_NO": "28071010", "CNTRL_ROOM_NO": null, "TYPE_CONSTRUCT": null, "YEAR_CONSTRUCT": null, "NO_FLOOR": null, "NO_ROOMS": null, "NO_COM_TOILET": null, "NO_GEN_TOILET": null, "NO_LAD_TOILET": null, "BATHROOM_FAC": null, "RAMP_DISABLED": null, "OPEN_SPACE": null, "REMARKS": null, "EDUPDATEUSER": null, "EDUPDATETIME": null, "CREATED_USER": "DMMASTER", "CREATED_DATE": 1529055514000, "LAST_EDITED_USER": "DMMASTER@PRSRVGISDB.MUMBASE.MCGM.GOV.IN", "LAST_EDITED_DATE": 1648063426000, "HEIGHT_TO_MSL": null, "SYMMETRIC": null, "GROUND": null, "NO_HALL_AUD": null, "SEAT_CAPACITY": null, "WATER_TANK_CAPA": null, "NO_BASEMENT": null, "NO_WATER_TANK": null, "NO_ELEVATOR": null, "PAS": null, "CCTV_SERVE": null, "STRUCTURAL_AUDIT": null, "FIRE_EXTING_SYS": null, "FIRE_AUDIT": null, "CENTRALIZED_AC": null, "DISPLAY_BOARD": null, "HAZ_MAT": null, "ALT_ELEC": null, "WARD": "P/N", "ELEVATOR_CONTACT_LIST": null, "ELEVATOR_INTERCOM": null, "WORKING_HRS": null, "EMPLOYEE_QTY": null, "EMPLOYEE_MALE": null, "EMPLOYEE_FEMALE": null, "EMPLOYEE_DIF_ABLE": null, "WORKING_HRS_STR": null, "WORKING_HRS_STP": null, "_source": "MCGM ArcGIS FeatureServer (official)"}}, {"type": "Feature", "id": 27, "geometry": {"type": "Point", "coordinates": [72.8935416300001, 19.054555748]}, "properties": {"OBJECTID": 27, "FEATUREID": "FB21182600023", "NAME": "Chembur Fire Station", "TYPE": 1, "SUBTYPE": "Stn", "LOCATION": "V N Purav Marg, Chembur, Mumbai - 400074", "BRD_LINE_NO": "25224824", "CNTRL_ROOM_NO": null, "TYPE_CONSTRUCT": null, "YEAR_CONSTRUCT": null, "NO_FLOOR": 3, "NO_ROOMS": null, "NO_COM_TOILET": null, "NO_GEN_TOILET": null, "NO_LAD_TOILET": null, "BATHROOM_FAC": null, "RAMP_DISABLED": null, "OPEN_SPACE": null, "REMARKS": "Need to be re-locate Point", "EDUPDATEUSER": "Burkul Kavita Balu", "EDUPDATETIME": 1628660341000, "CREATED_USER": "DMMASTER", "CREATED_DATE": 1529055514000, "LAST_EDITED_USER": "DMMASTER@PRSRVGISDB.MUMBASE.MCGM.GOV.IN", "LAST_EDITED_DATE": 1648063206000, "HEIGHT_TO_MSL": null, "SYMMETRIC": null, "GROUND": null, "NO_HALL_AUD": "1", "SEAT_CAPACITY": null, "WATER_TANK_CAPA": "40", "NO_BASEMENT": null, "NO_WATER_TANK": null, "NO_ELEVATOR": null, "PAS": null, "CCTV_SERVE": null, "STRUCTURAL_AUDIT": null, "FIRE_EXTING_SYS": null, "FIRE_AUDIT": null, "CENTRALIZED_AC": null, "DISPLAY_BOARD": null, "HAZ_MAT": null, "ALT_ELEC": null, "WARD": "M/W", "ELEVATOR_CONTACT_LIST": null, "ELEVATOR_INTERCOM": null, "WORKING_HRS": null, "EMPLOYEE_QTY": null, "EMPLOYEE_MALE": null, "EMPLOYEE_FEMALE": null, "EMPLOYEE_DIF_ABLE": null, "WORKING_HRS_STR": null, "WORKING_HRS_STP": null, "_source": "MCGM ArcGIS FeatureServer (official)"}}, {"type": "Feature", "id": 28, "geometry": {"type": "Point", "coordinates": [72.8375780000001, 19.050398]}, "properties": {"OBJECTID": 28, "FEATUREID": "FB15183200017", "NAME": "Bandra Fire Station", "TYPE": 1, "SUBTYPE": "Stn", "LOCATION": "Bandra Reclamation, S V Road, Bandra (W), Mumbai - 400050.", "BRD_LINE_NO": "26435206", "CNTRL_ROOM_NO": null, "TYPE_CONSTRUCT": null, "YEAR_CONSTRUCT": null, "NO_FLOOR": null, "NO_ROOMS": null, "NO_COM_TOILET": null, "NO_GEN_TOILET": null, "NO_LAD_TOILET": null, "BATHROOM_FAC": null, "RAMP_DISABLED": null, "OPEN_SPACE": null, "REMARKS": null, "EDUPDATEUSER": "Hande Someshwari Anil", "EDUPDATETIME": 1603024456000, "CREATED_USER": "DMMASTER", "CREATED_DATE": 1529055514000, "LAST_EDITED_USER": "DMMASTER", "LAST_EDITED_DATE": 1606567937000, "HEIGHT_TO_MSL": null, "SYMMETRIC": null, "GROUND": null, "NO_HALL_AUD": null, "SEAT_CAPACITY": null, "WATER_TANK_CAPA": null, "NO_BASEMENT": null, "NO_WATER_TANK": null, "NO_ELEVATOR": null, "PAS": null, "CCTV_SERVE": null, "STRUCTURAL_AUDIT": null, "FIRE_EXTING_SYS": null, "FIRE_AUDIT": null, "CENTRALIZED_AC": null, "DISPLAY_BOARD": null, "HAZ_MAT": null, "ALT_ELEC": null, "WARD": "H/W", "ELEVATOR_CONTACT_LIST": null, "ELEVATOR_INTERCOM": null, "WORKING_HRS": null, "EMPLOYEE_QTY": null, "EMPLOYEE_MALE": null, "EMPLOYEE_FEMALE": null, "EMPLOYEE_DIF_ABLE": null, "WORKING_HRS_STR": null, "WORKING_HRS_STP": null, "_source": "MCGM ArcGIS FeatureServer (official)"}}, {"type": "Feature", "id": 29, "geometry": {"type": "Point", "coordinates": [72.9311065940001, 19.0567603910001]}, "properties": {"OBJECTID": 29, "FEATUREID": "FB10000010034", "NAME": "Mankhurd Pradeshik Samadesh Kendra", "TYPE": 1, "SUBTYPE": "Stn", "LOCATION": "Ghatkopar Mankhurd Link Road, Opp. Sathye Nagar. Mumbai 400043", "BRD_LINE_NO": null, "CNTRL_ROOM_NO": null, "TYPE_CONSTRUCT": null, "YEAR_CONSTRUCT": null, "NO_FLOOR": null, "NO_ROOMS": null, "NO_COM_TOILET": null, "NO_GEN_TOILET": null, "NO_LAD_TOILET": null, "BATHROOM_FAC": null, "RAMP_DISABLED": null, "OPEN_SPACE": null, "REMARKS": "8104737123", "EDUPDATEUSER": null, "EDUPDATETIME": null, "CREATED_USER": "DMMASTER", "CREATED_DATE": 1529055514000, "LAST_EDITED_USER": "DMMASTER", "LAST_EDITED_DATE": 1606568136000, "HEIGHT_TO_MSL": null, "SYMMETRIC": null, "GROUND": null, "NO_HALL_AUD": null, "SEAT_CAPACITY": null, "WATER_TANK_CAPA": null, "NO_BASEMENT": null, "NO_WATER_TANK": null, "NO_ELEVATOR": null, "PAS": null, "CCTV_SERVE": null, "STRUCTURAL_AUDIT": null, "FIRE_EXTING_SYS": null, "FIRE_AUDIT": null, "CENTRALIZED_AC": null, "DISPLAY_BOARD": null, "HAZ_MAT": null, "ALT_ELEC": null, "WARD": "M/E", "ELEVATOR_CONTACT_LIST": null, "ELEVATOR_INTERCOM": null, "WORKING_HRS": null, "EMPLOYEE_QTY": null, "EMPLOYEE_MALE": null, "EMPLOYEE_FEMALE": null, "EMPLOYEE_DIF_ABLE": null, "WORKING_HRS_STR": null, "WORKING_HRS_STP": null, "_source": "MCGM ArcGIS FeatureServer (official)"}}, {"type": "Feature", "id": 30, "geometry": {"type": "Point", "coordinates": [72.8403020000001, 18.9464110000001]}, "properties": {"OBJECTID": 30, "FEATUREID": "FB15065700001", "NAME": "Carnac Bunder (Indira Dock) Fire Station", "TYPE": 1, "SUBTYPE": "Stn", "LOCATION": "P D Mello Road, Near Hotel Sealord, Fort. Mumbai - 400001.", "BRD_LINE_NO": "22611589", "CNTRL_ROOM_NO": null, "TYPE_CONSTRUCT": null, "YEAR_CONSTRUCT": null, "NO_FLOOR": null, "NO_ROOMS": null, "NO_COM_TOILET": null, "NO_GEN_TOILET": null, "NO_LAD_TOILET": null, "BATHROOM_FAC": null, "RAMP_DISABLED": null, "OPEN_SPACE": null, "REMARKS": null, "EDUPDATEUSER": "1 computer operator", "EDUPDATETIME": 1578389144000, "CREATED_USER": "DMMASTER", "CREATED_DATE": 1529055514000, "LAST_EDITED_USER": "DMMASTER", "LAST_EDITED_DATE": 1606561250000, "HEIGHT_TO_MSL": null, "SYMMETRIC": null, "GROUND": null, "NO_HALL_AUD": null, "SEAT_CAPACITY": null, "WATER_TANK_CAPA": null, "NO_BASEMENT": null, "NO_WATER_TANK": null, "NO_ELEVATOR": null, "PAS": null, "CCTV_SERVE": null, "STRUCTURAL_AUDIT": null, "FIRE_EXTING_SYS": null, "FIRE_AUDIT": null, "CENTRALIZED_AC": null, "DISPLAY_BOARD": null, "HAZ_MAT": null, "ALT_ELEC": null, "WARD": "A", "ELEVATOR_CONTACT_LIST": null, "ELEVATOR_INTERCOM": null, "WORKING_HRS": null, "EMPLOYEE_QTY": null, "EMPLOYEE_MALE": null, "EMPLOYEE_FEMALE": null, "EMPLOYEE_DIF_ABLE": null, "WORKING_HRS_STR": null, "WORKING_HRS_STP": null, "_source": "MCGM ArcGIS FeatureServer (official)"}}, {"type": "Feature", "id": 31, "geometry": {"type": "Point", "coordinates": [72.8346480000001, 18.934914]}, "properties": {"OBJECTID": 31, "FEATUREID": "FB14059400002", "NAME": "Fort Fire Station", "TYPE": 1, "SUBTYPE": "Stn", "LOCATION": "Syed Abdullah Brelvi Marg,  Near Vidya Dairy Farm,Fort, Mumbai - 400001.", "BRD_LINE_NO": "22611942", "CNTRL_ROOM_NO": null, "TYPE_CONSTRUCT": null, "YEAR_CONSTRUCT": null, "NO_FLOOR": null, "NO_ROOMS": null, "NO_COM_TOILET": null, "NO_GEN_TOILET": null, "NO_LAD_TOILET": null, "BATHROOM_FAC": null, "RAMP_DISABLED": null, "OPEN_SPACE": null, "REMARKS": null, "EDUPDATEUSER": "1 computer operator", "EDUPDATETIME": 1578389242000, "CREATED_USER": "DMMASTER", "CREATED_DATE": 1529055514000, "LAST_EDITED_USER": "DMMASTER", "LAST_EDITED_DATE": 1606561288000, "HEIGHT_TO_MSL": null, "SYMMETRIC": null, "GROUND": null, "NO_HALL_AUD": null, "SEAT_CAPACITY": null, "WATER_TANK_CAPA": null, "NO_BASEMENT": null, "NO_WATER_TANK": null, "NO_ELEVATOR": null, "PAS": null, "CCTV_SERVE": null, "STRUCTURAL_AUDIT": null, "FIRE_EXTING_SYS": null, "FIRE_AUDIT": null, "CENTRALIZED_AC": null, "DISPLAY_BOARD": null, "HAZ_MAT": null, "ALT_ELEC": null, "WARD": "A", "ELEVATOR_CONTACT_LIST": null, "ELEVATOR_INTERCOM": null, "WORKING_HRS": null, "EMPLOYEE_QTY": null, "EMPLOYEE_MALE": null, "EMPLOYEE_FEMALE": null, "EMPLOYEE_DIF_ABLE": null, "WORKING_HRS_STR": null, "WORKING_HRS_STP": null, "_source": "MCGM ArcGIS FeatureServer (official)"}}, {"type": "Feature", "id": 32, "geometry": {"type": "Point", "coordinates": [72.860954, 19.174995]}, "properties": {"OBJECTID": 32, "FEATUREID": "FB18320000025", "NAME": "Dindoshi Fire Station", "TYPE": 1, "SUBTYPE": "Stn", "LOCATION": "Dindoshi, Malad East, Mumbai - 400097", "BRD_LINE_NO": "28406729", "CNTRL_ROOM_NO": null, "TYPE_CONSTRUCT": null, "YEAR_CONSTRUCT": null, "NO_FLOOR": null, "NO_ROOMS": null, "NO_COM_TOILET": null, "NO_GEN_TOILET": null, "NO_LAD_TOILET": null, "BATHROOM_FAC": null, "RAMP_DISABLED": null, "OPEN_SPACE": null, "REMARKS": null, "EDUPDATEUSER": null, "EDUPDATETIME": null, "CREATED_USER": "DMMASTER", "CREATED_DATE": 1529055514000, "LAST_EDITED_USER": "DMMASTER", "LAST_EDITED_DATE": 1606560916000, "HEIGHT_TO_MSL": null, "SYMMETRIC": null, "GROUND": null, "NO_HALL_AUD": null, "SEAT_CAPACITY": null, "WATER_TANK_CAPA": null, "NO_BASEMENT": null, "NO_WATER_TANK": null, "NO_ELEVATOR": null, "PAS": null, "CCTV_SERVE": null, "STRUCTURAL_AUDIT": null, "FIRE_EXTING_SYS": null, "FIRE_AUDIT": null, "CENTRALIZED_AC": null, "DISPLAY_BOARD": null, "HAZ_MAT": null, "ALT_ELEC": null, "WARD": "P/N", "ELEVATOR_CONTACT_LIST": null, "ELEVATOR_INTERCOM": null, "WORKING_HRS": null, "EMPLOYEE_QTY": null, "EMPLOYEE_MALE": null, "EMPLOYEE_FEMALE": null, "EMPLOYEE_DIF_ABLE": null, "WORKING_HRS_STR": null, "WORKING_HRS_STP": null, "_source": "MCGM ArcGIS FeatureServer (official)"}}, {"type": "Feature", "id": 33, "geometry": {"type": "Point", "coordinates": [72.841701765, 18.957292234]}, "properties": {"OBJECTID": 33, "FEATUREID": "FB15076900006", "NAME": "Mandvi Fire Station", "TYPE": 1, "SUBTYPE": "Stn", "LOCATION": "Sardar Valla bhbhai Patel Road, Opp Wadibunder Coaching Complex, Wadibunder. Mumbai - 400003.", "BRD_LINE_NO": "23716694", "CNTRL_ROOM_NO": null, "TYPE_CONSTRUCT": null, "YEAR_CONSTRUCT": null, "NO_FLOOR": null, "NO_ROOMS": null, "NO_COM_TOILET": null, "NO_GEN_TOILET": null, "NO_LAD_TOILET": null, "BATHROOM_FAC": null, "RAMP_DISABLED": null, "OPEN_SPACE": null, "REMARKS": null, "EDUPDATEUSER": null, "EDUPDATETIME": null, "CREATED_USER": "DMMASTER", "CREATED_DATE": 1529055514000, "LAST_EDITED_USER": "DMMASTER@PRSRVGISDB.MUMBASE.MCGM.GOV.IN", "LAST_EDITED_DATE": 1647863053000, "HEIGHT_TO_MSL": null, "SYMMETRIC": null, "GROUND": null, "NO_HALL_AUD": null, "SEAT_CAPACITY": null, "WATER_TANK_CAPA": null, "NO_BASEMENT": null, "NO_WATER_TANK": null, "NO_ELEVATOR": null, "PAS": null, "CCTV_SERVE": null, "STRUCTURAL_AUDIT": null, "FIRE_EXTING_SYS": null, "FIRE_AUDIT": null, "CENTRALIZED_AC": null, "DISPLAY_BOARD": null, "HAZ_MAT": null, "ALT_ELEC": null, "WARD": "B", "ELEVATOR_CONTACT_LIST": null, "ELEVATOR_INTERCOM": null, "WORKING_HRS": null, "EMPLOYEE_QTY": null, "EMPLOYEE_MALE": null, "EMPLOYEE_FEMALE": null, "EMPLOYEE_DIF_ABLE": null, "WORKING_HRS_STR": null, "WORKING_HRS_STP": null, "_source": "MCGM ArcGIS FeatureServer (official)"}}, {"type": "Feature", "id": 34, "geometry": {"type": "Point", "coordinates": [72.9245638290001, 19.053285062]}, "properties": {"OBJECTID": 34, "FEATUREID": "FB20203500022", "NAME": "Deonar Fire Station", "TYPE": 1, "SUBTYPE": "Stn", "LOCATION": "5/4 Sector, New Municipal Colony, Shivaji Nagar, Mumbai - 400043", "BRD_LINE_NO": "25563391", "CNTRL_ROOM_NO": null, "TYPE_CONSTRUCT": null, "YEAR_CONSTRUCT": null, "NO_FLOOR": null, "NO_ROOMS": null, "NO_COM_TOILET": null, "NO_GEN_TOILET": null, "NO_LAD_TOILET": null, "BATHROOM_FAC": null, "RAMP_DISABLED": null, "OPEN_SPACE": null, "REMARKS": null, "EDUPDATEUSER": null, "EDUPDATETIME": null, "CREATED_USER": "DMMASTER", "CREATED_DATE": 1529055514000, "LAST_EDITED_USER": "DMMASTER@PRSRVGISDB.MUMBASE.MCGM.GOV.IN", "LAST_EDITED_DATE": 1648063147000, "HEIGHT_TO_MSL": null, "SYMMETRIC": null, "GROUND": null, "NO_HALL_AUD": null, "SEAT_CAPACITY": null, "WATER_TANK_CAPA": null, "NO_BASEMENT": null, "NO_WATER_TANK": null, "NO_ELEVATOR": null, "PAS": null, "CCTV_SERVE": null, "STRUCTURAL_AUDIT": null, "FIRE_EXTING_SYS": null, "FIRE_AUDIT": null, "CENTRALIZED_AC": null, "DISPLAY_BOARD": null, "HAZ_MAT": null, "ALT_ELEC": null, "WARD": "M/E", "ELEVATOR_CONTACT_LIST": null, "ELEVATOR_INTERCOM": null, "WORKING_HRS": null, "EMPLOYEE_QTY": null, "EMPLOYEE_MALE": null, "EMPLOYEE_FEMALE": null, "EMPLOYEE_DIF_ABLE": null, "WORKING_HRS_STR": null, "WORKING_HRS_STP": null, "_source": "MCGM ArcGIS FeatureServer (official)"}}, {"type": "Feature", "id": 35, "geometry": {"type": "Point", "coordinates": [72.942607374, 19.1753852100001]}, "properties": {"OBJECTID": 35, "FEATUREID": "FB26316900033", "NAME": "Mulund Fire Station", "TYPE": 1, "SUBTYPE": "Station", "LOCATION": "Lal Bahadur Shastri Marg, Mulund Colony, Mulund West, Mumbai - 400080.", "BRD_LINE_NO": "25687637", "CNTRL_ROOM_NO": "25687637", "TYPE_CONSTRUCT": null, "YEAR_CONSTRUCT": null, "NO_FLOOR": null, "NO_ROOMS": null, "NO_COM_TOILET": null, "NO_GEN_TOILET": null, "NO_LAD_TOILET": null, "BATHROOM_FAC": null, "RAMP_DISABLED": null, "OPEN_SPACE": null, "REMARKS": null, "EDUPDATEUSER": "Dhanke Yashwant Gopal", "EDUPDATETIME": 1620585875000, "CREATED_USER": "DMMASTER", "CREATED_DATE": 1529055514000, "LAST_EDITED_USER": "DMMASTER@PRSRVGISDB.MUMBASE.MCGM.GOV.IN", "LAST_EDITED_DATE": 1648063598000, "HEIGHT_TO_MSL": null, "SYMMETRIC": null, "GROUND": null, "NO_HALL_AUD": null, "SEAT_CAPACITY": null, "WATER_TANK_CAPA": null, "NO_BASEMENT": null, "NO_WATER_TANK": null, "NO_ELEVATOR": null, "PAS": null, "CCTV_SERVE": null, "STRUCTURAL_AUDIT": null, "FIRE_EXTING_SYS": null, "FIRE_AUDIT": null, "CENTRALIZED_AC": null, "DISPLAY_BOARD": null, "HAZ_MAT": null, "ALT_ELEC": null, "WARD": "T", "ELEVATOR_CONTACT_LIST": null, "ELEVATOR_INTERCOM": null, "WORKING_HRS": "Yes", "EMPLOYEE_QTY": null, "EMPLOYEE_MALE": null, "EMPLOYEE_FEMALE": null, "EMPLOYEE_DIF_ABLE": null, "WORKING_HRS_STR": null, "WORKING_HRS_STP": null, "_source": "MCGM ArcGIS FeatureServer (official)"}}, {"type": "Feature", "id": 36, "geometry": {"type": "Point", "coordinates": [72.918259371, 19.100973916]}, "properties": {"OBJECTID": 36, "FEATUREID": "FB23239700024", "NAME": "Vikhroli Fire Station", "TYPE": 1, "SUBTYPE": null, "LOCATION": "Near L.B.S. Road, Vikhroli Park Site, L.B.S. Marg, Nivlekar Rd, BMC Colony, Vikhroli West, Mumbai - 400079.", "BRD_LINE_NO": "25170730", "CNTRL_ROOM_NO": null, "TYPE_CONSTRUCT": null, "YEAR_CONSTRUCT": null, "NO_FLOOR": null, "NO_ROOMS": null, "NO_COM_TOILET": null, "NO_GEN_TOILET": null, "NO_LAD_TOILET": null, "BATHROOM_FAC": null, "RAMP_DISABLED": null, "OPEN_SPACE": null, "REMARKS": null, "EDUPDATEUSER": "Rathod Savita Ghevarchand", "EDUPDATETIME": 1628316769000, "CREATED_USER": "DMMASTER", "CREATED_DATE": 1529055514000, "LAST_EDITED_USER": "DMMASTER", "LAST_EDITED_DATE": 1597990983000, "HEIGHT_TO_MSL": null, "SYMMETRIC": null, "GROUND": null, "NO_HALL_AUD": null, "SEAT_CAPACITY": null, "WATER_TANK_CAPA": null, "NO_BASEMENT": null, "NO_WATER_TANK": null, "NO_ELEVATOR": null, "PAS": null, "CCTV_SERVE": null, "STRUCTURAL_AUDIT": null, "FIRE_EXTING_SYS": null, "FIRE_AUDIT": null, "CENTRALIZED_AC": null, "DISPLAY_BOARD": null, "HAZ_MAT": null, "ALT_ELEC": null, "WARD": "N", "ELEVATOR_CONTACT_LIST": null, "ELEVATOR_INTERCOM": null, "WORKING_HRS": null, "EMPLOYEE_QTY": null, "EMPLOYEE_MALE": null, "EMPLOYEE_FEMALE": null, "EMPLOYEE_DIF_ABLE": null, "WORKING_HRS_STR": null, "WORKING_HRS_STP": null, "_source": "MCGM ArcGIS FeatureServer (official)"}}]}