{"type": "FeatureCollection", "crs": {"type": "name", "properties": {"name": "EPSG:4326"}}, "features": [{"type": "Feature", "id": 1, "geometry": {"type": "Point", "coordinates": [72.8271919878514, 18.9352961818815]}, "properties": {"FID": 1, "OBJECTID_1": 1, "NAME": "Churchgate", "N_TYPE": "Suburban Station", "N_REGION": "WESTERN", "For_Labell": "Churchgate", "_source": "MCGM ArcGIS FeatureServer (official)"}}, {"type": "Feature", "id": 2, "geometry": {"type": "Point", "coordinates": [72.8238144822946, 18.9457881977142]}, "properties": {"FID": 2, "OBJECTID_1": 2, "NAME": "Marine Lines", "N_TYPE": "Suburban Station", "N_REGION": "WESTERN", "For_Labell": " ", "_source": "MCGM ArcGIS FeatureServer (official)"}}, {"type": "Feature", "id": 3, "geometry": {"type": "Point", "coordinates": [72.8185706836947, 18.9517165867492]}, "properties": {"FID": 3, "OBJECTID_1": 3, "NAME": "Charni Road", "N_TYPE": "Suburban Station", "N_REGION": "WESTERN", "For_Labell": " ", "_source": "MCGM ArcGIS FeatureServer (official)"}}, {"type": "Feature", "id": 4, "geometry": {"type": "Point", "coordinates": [72.8161783832855, 18.9637045605152]}, "properties": {"FID": 4, "OBJECTID_1": 4, "NAME": "Grant Road", "N_TYPE": "Suburban Station", "N_REGION": "WESTERN", "For_Labell": " ", "_source": "MCGM ArcGIS FeatureServer (official)"}}, {"type": "Feature", "id": 5, "geometry": {"type": "Point", "coordinates": [72.8187988036057, 18.9698932713685]}, "properties": {"FID": 5, "OBJECTID_1": 5, "NAME": "Mumbai Central", "N_TYPE": "Suburban Station", "N_REGION": "WESTERN", "For_Labell": "Mumbai Central", "_source": "MCGM ArcGIS FeatureServer (official)"}}, {"type": "Feature", "id": 6, "geometry": {"type": "Point", "coordinates": [72.8241537111258, 18.9822737979282]}, "properties": {"FID": 6, "OBJECTID_1": 6, "NAME": "Mahalaxmi", "N_TYPE": "Suburban Station", "N_REGION": "WESTERN", "For_Labell": " ", "_source": "MCGM ArcGIS FeatureServer (official)"}}, {"type": "Feature", "id": 7, "geometry": {"type": "Point", "coordinates": [72.830172471783, 18.9953187079519]}, "properties": {"FID": 7, "OBJECTID_1": 7, "NAME": "Lower Parel", "N_TYPE": "Suburban Station", "N_REGION": "WESTERN", "For_Labell": " ", "_source": "MCGM ArcGIS FeatureServer (official)"}}, {"type": "Feature", "id": 8, "geometry": {"type": "Point", "coordinates": [72.8361132046624, 19.0075631386431]}, "properties": {"FID": 8, "OBJECTID_1": 8, "NAME": "Prabhadevi", "N_TYPE": "Suburban Station", "N_REGION": "WESTERN", "For_Labell": " ", "_source": "MCGM ArcGIS FeatureServer (official)"}}, {"type": "Feature", "id": 9, "geometry": {"type": "Point", "coordinates": [72.8431374888969, 19.0195608762157]}, "properties": {"FID": 9, "OBJECTID_1": 9, "NAME": "Dadar", "N_TYPE": "Suburban Station", "N_REGION": "WESTERN", "For_Labell": "Dadar", "_source": "MCGM ArcGIS FeatureServer (official)"}}, {"type": "Feature", "id": 10, "geometry": {"type": "Point", "coordinates": [72.8469289503764, 19.028368597856]}, "properties": {"FID": 10, "OBJECTID_1": 10, "NAME": "Matunga Road", "N_TYPE": "Suburban Station", "N_REGION": "WESTERN", "For_Labell": " ", "_source": "MCGM ArcGIS FeatureServer (official)"}}, {"type": "Feature", "id": 11, "geometry": {"type": "Point", "coordinates": [72.8469183881933, 19.040716517382]}, "properties": {"FID": 11, "OBJECTID_1": 11, "NAME": "Mahim Junction", "N_TYPE": "Suburban Station", "N_REGION": "HARBOUR", "For_Labell": " ", "_source": "MCGM ArcGIS FeatureServer (official)"}}, {"type": "Feature", "id": 12, "geometry": {"type": "Point", "coordinates": [72.8403282370921, 19.0555892333471]}, "properties": {"FID": 12, "OBJECTID_1": 12, "NAME": "Bandra", "N_TYPE": "Suburban Station", "N_REGION": "WESTERN", "For_Labell": "Bandra", "_source": "MCGM ArcGIS FeatureServer (official)"}}, {"type": "Feature", "id": 13, "geometry": {"type": "Point", "coordinates": [72.8401277252267, 19.0698951076843]}, "properties": {"FID": 13, "OBJECTID_1": 13, "NAME": "Khar Road", "N_TYPE": "Suburban Station", "N_REGION": "WESTERN", "For_Labell": " ", "_source": "MCGM ArcGIS FeatureServer (official)"}}, {"type": "Feature", "id": 14, "geometry": {"type": "Point", "coordinates": [72.8417807673674, 19.0825985273727]}, "properties": {"FID": 14, "OBJECTID_1": 14, "NAME": "Santacruz", "N_TYPE": "Suburban Station", "N_REGION": "WESTERN", "For_Labell": " ", "_source": "MCGM ArcGIS FeatureServer (official)"}}, {"type": "Feature", "id": 15, "geometry": {"type": "Point", "coordinates": [72.8439996742096, 19.0997393565481]}, "properties": {"FID": 15, "OBJECTID_1": 15, "NAME": "Vile Parle", "N_TYPE": "Suburban Station", "N_REGION": "WESTERN", "For_Labell": " ", "_source": "MCGM ArcGIS FeatureServer (official)"}}, {"type": "Feature", "id": 16, "geometry": {"type": "Point", "coordinates": [72.8465039707666, 19.1171747947178]}, "properties": {"FID": 16, "OBJECTID_1": 16, "NAME": "Andheri", "N_TYPE": "Suburban Station", "N_REGION": "WESTERN", "For_Labell": "Andheri", "_source": "MCGM ArcGIS FeatureServer (official)"}}, {"type": "Feature", "id": 17, "geometry": {"type": "Point", "coordinates": [72.8489736708461, 19.1365326519053]}, "properties": {"FID": 17, "OBJECTID_1": 17, "NAME": "Jogeshwari", "N_TYPE": "Suburban Station", "N_REGION": "WESTERN", "For_Labell": " ", "_source": "MCGM ArcGIS FeatureServer (official)"}}, {"type": "Feature", "id": 18, "geometry": {"type": "Point", "coordinates": [72.8496282479856, 19.1648702815213]}, "properties": {"FID": 18, "OBJECTID_1": 18, "NAME": "Goregaon", "N_TYPE": "Suburban Station", "N_REGION": "WESTERN", "For_Labell": " ", "_source": "MCGM ArcGIS FeatureServer (official)"}}, {"type": "Feature", "id": 19, "geometry": {"type": "Point", "coordinates": [72.8489362808279, 19.1868335617006]}, "properties": {"FID": 19, "OBJECTID_1": 19, "NAME": "Malad", "N_TYPE": "Suburban Station", "N_REGION": "WESTERN", "For_Labell": " ", "_source": "MCGM ArcGIS FeatureServer (official)"}}, {"type": "Feature", "id": 20, "geometry": {"type": "Point", "coordinates": [72.8520512299794, 19.2045320761638]}, "properties": {"FID": 20, "OBJECTID_1": 20, "NAME": "Kandivali", "N_TYPE": "Suburban Station", "N_REGION": "WESTERN", "For_Labell": " ", "_source": "MCGM ArcGIS FeatureServer (official)"}}, {"type": "Feature", "id": 21, "geometry": {"type": "Point", "coordinates": [72.8566489030573, 19.2290634217488]}, "properties": {"FID": 21, "OBJECTID_1": 21, "NAME": "Borivali", "N_TYPE": "Suburban Station", "N_REGION": "WESTERN", "For_Labell": "Borivali", "_source": "MCGM ArcGIS FeatureServer (official)"}}, {"type": "Feature", "id": 22, "geometry": {"type": "Point", "coordinates": [72.8592814710169, 19.2500070403722]}, "properties": {"FID": 22, "OBJECTID_1": 22, "NAME": "Dahisar", "N_TYPE": "Suburban Station", "N_REGION": "WESTERN", "For_Labell": " ", "_source": "MCGM ArcGIS FeatureServer (official)"}}, {"type": "Feature", "id": 23, "geometry": {"type": "Point", "coordinates": [72.8357059779256, 18.9402720285738]}, "properties": {"FID": 23, "OBJECTID_1": 23, "NAME": "CSMT", "N_TYPE": "Suburban Station", "N_REGION": "CENTRAL", "For_Labell": "CSMT", "_source": "MCGM ArcGIS FeatureServer (official)"}}, {"type": "Feature", "id": 24, "geometry": {"type": "Point", "coordinates": [72.8381997658401, 18.9520915390942]}, "properties": {"FID": 24, "OBJECTID_1": 24, "NAME": "Masjid Bunder", "N_TYPE": "Suburban Station", "N_REGION": "CENTRAL", "For_Labell": " ", "_source": "MCGM ArcGIS FeatureServer (official)"}}, {"type": "Feature", "id": 25, "geometry": {"type": "Point", "coordinates": [72.8395788297954, 18.9608785429075]}, "properties": {"FID": 25, "OBJECTID_1": 25, "NAME": "Sandhurst Road", "N_TYPE": "Suburban Station", "N_REGION": "CENTRAL", "For_Labell": " ", "_source": "MCGM ArcGIS FeatureServer (official)"}}, {"type": "Feature", "id": 26, "geometry": {"type": "Point", "coordinates": [72.8327690068053, 18.976692518895]}, "properties": {"FID": 26, "OBJECTID_1": 26, "NAME": "Byculla", "N_TYPE": "Suburban Station", "N_REGION": "CENTRAL", "For_Labell": " ", "_source": "MCGM ArcGIS FeatureServer (official)"}}, {"type": "Feature", "id": 27, "geometry": {"type": "Point", "coordinates": [72.8329013428044, 18.9870469487976]}, "properties": {"FID": 27, "OBJECTID_1": 27, "NAME": "Chinchpokali", "N_TYPE": "Suburban Station", "N_REGION": "CENTRAL", "For_Labell": " ", "_source": "MCGM ArcGIS FeatureServer (official)"}}, {"type": "Feature", "id": 28, "geometry": {"type": "Point", "coordinates": [72.8329987665172, 18.994110482723]}, "properties": {"FID": 28, "OBJECTID_1": 28, "NAME": "Currey Road", "N_TYPE": "Suburban Station", "N_REGION": "CENTRAL", "For_Labell": " ", "_source": "MCGM ArcGIS FeatureServer (official)"}}, {"type": "Feature", "id": 29, "geometry": {"type": "Point", "coordinates": [72.8376259004038, 19.0092440178425]}, "properties": {"FID": 29, "OBJECTID_1": 29, "NAME": "Parel", "N_TYPE": "Suburban Station", "N_REGION": "CENTRAL", "For_Labell": " ", "_source": "MCGM ArcGIS FeatureServer (official)"}}, {"type": "Feature", "id": 30, "geometry": {"type": "Point", "coordinates": [72.843633420996, 19.0181435365389]}, "properties": {"FID": 30, "OBJECTID_1": 30, "NAME": "Dadar", "N_TYPE": "Suburban Station", "N_REGION": "CENTRAL", "For_Labell": "Dadar", "_source": "MCGM ArcGIS FeatureServer (official)"}}, {"type": "Feature", "id": 31, "geometry": {"type": "Point", "coordinates": [72.8502084014804, 19.0274961050905]}, "properties": {"FID": 31, "OBJECTID_1": 31, "NAME": "Matunga", "N_TYPE": "Suburban Station", "N_REGION": "CENTRAL", "For_Labell": " ", "_source": "MCGM ArcGIS FeatureServer (official)"}}, {"type": "Feature", "id": 32, "geometry": {"type": "Point", "coordinates": [72.8640037012676, 19.0477097291027]}, "properties": {"FID": 32, "OBJECTID_1": 32, "NAME": "Sion", "N_TYPE": "Suburban Station", "N_REGION": "CENTRAL", "For_Labell": " ", "_source": "MCGM ArcGIS FeatureServer (official)"}}, {"type": "Feature", "id": 33, "geometry": {"type": "Point", "coordinates": [72.8793543303778, 19.0654774786936]}, "properties": {"FID": 33, "OBJECTID_1": 33, "NAME": "Kurla", "N_TYPE": "Suburban Station", "N_REGION": "CENTRAL", "For_Labell": "Kurla", "_source": "MCGM ArcGIS FeatureServer (official)"}}, {"type": "Feature", "id": 34, "geometry": {"type": "Point", "coordinates": [72.8975799791421, 19.0796208736982]}, "properties": {"FID": 34, "OBJECTID_1": 34, "NAME": "Vidyavihar", "N_TYPE": "Suburban Station", "N_REGION": "CENTRAL", "For_Labell": " ", "_source": "MCGM ArcGIS FeatureServer (official)"}}, {"type": "Feature", "id": 35, "geometry": {"type": "Point", "coordinates": [72.9084657878744, 19.0859890642817]}, "properties": {"FID": 35, "OBJECTID_1": 35, "NAME": "Ghatkopar", "N_TYPE": "Suburban Station", "N_REGION": "CENTRAL", "For_Labell": "Ghatkopar", "_source": "MCGM ArcGIS FeatureServer (official)"}}, {"type": "Feature", "id": 36, "geometry": {"type": "Point", "coordinates": [72.9281450869539, 19.1119177689733]}, "properties": {"FID": 36, "OBJECTID_1": 36, "NAME": "Vikhroli", "N_TYPE": "Suburban Station", "N_REGION": "CENTRAL", "For_Labell": "Vikhroli", "_source": "MCGM ArcGIS FeatureServer (official)"}}, {"type": "Feature", "id": 37, "geometry": {"type": "Point", "coordinates": [72.9281511337221, 19.128166320162]}, "properties": {"FID": 37, "OBJECTID_1": 37, "NAME": "Kanjur Marg", "N_TYPE": "Suburban Station", "N_REGION": "CENTRAL", "For_Labell": " ", "_source": "MCGM ArcGIS FeatureServer (official)"}}, {"type": "Feature", "id": 38, "geometry": {"type": "Point", "coordinates": [72.9376513107349, 19.1424351550521]}, "properties": {"FID": 38, "OBJECTID_1": 38, "NAME": "Bhandup", "N_TYPE": "Suburban Station", "N_REGION": "CENTRAL", "For_Labell": " ", "_source": "MCGM ArcGIS FeatureServer (official)"}}, {"type": "Feature", "id": 39, "geometry": {"type": "Point", "coordinates": [72.946766137471, 19.1546251377825]}, "properties": {"FID": 39, "OBJECTID_1": 39, "NAME": "Nahur", "N_TYPE": "Suburban Station", "N_REGION": "CENTRAL", "For_Labell": " ", "_source": "MCGM ArcGIS FeatureServer (official)"}}, {"type": "Feature", "id": 40, "geometry": {"type": "Point", "coordinates": [72.9565534048963, 19.1718662666882]}, "properties": {"FID": 40, "OBJECTID_1": 40, "NAME": "Mulund", "N_TYPE": "Suburban Station", "N_REGION": "CENTRAL", "For_Labell": "Mulund", "_source": "MCGM ArcGIS FeatureServer (official)"}}, {"type": "Feature", "id": 41, "geometry": {"type": "Point", "coordinates": [72.8443114850277, 18.9665629111886]}, "properties": {"FID": 41, "OBJECTID_1": 41, "NAME": "Dockyard Road", "N_TYPE": "Suburban Station", "N_REGION": "HARBOUR", "For_Labell": " ", "_source": "MCGM ArcGIS FeatureServer (official)"}}, {"type": "Feature", "id": 42, "geometry": {"type": "Point", "coordinates": [72.8442481797541, 18.9773683482474]}, "properties": {"FID": 42, "OBJECTID_1": 42, "NAME": "Ray Road", "N_TYPE": "Suburban Station", "N_REGION": "HARBOUR", "For_Labell": " ", "_source": "MCGM ArcGIS FeatureServer (official)"}}, {"type": "Feature", "id": 43, "geometry": {"type": "Point", "coordinates": [72.8432893293482, 18.9864939574943]}, "properties": {"FID": 43, "OBJECTID_1": 43, "NAME": "Cotton Green", "N_TYPE": "Suburban Station", "N_REGION": "HARBOUR", "For_Labell": " ", "_source": "MCGM ArcGIS FeatureServer (official)"}}, {"type": "Feature", "id": 44, "geometry": {"type": "Point", "coordinates": [72.854579130035, 18.9989313752645]}, "properties": {"FID": 44, "OBJECTID_1": 44, "NAME": "Sewri", "N_TYPE": "Suburban Station", "N_REGION": "HARBOUR", "For_Labell": " ", "_source": "MCGM ArcGIS FeatureServer (official)"}}, {"type": "Feature", "id": 45, "geometry": {"type": "Point", "coordinates": [72.8589424803243, 19.016006309249]}, "properties": {"FID": 45, "OBJECTID_1": 45, "NAME": "Wadala Road", "N_TYPE": "Suburban Station", "N_REGION": "HARBOUR", "For_Labell": "Wadala Road", "_source": "MCGM ArcGIS FeatureServer (official)"}}, {"type": "Feature", "id": 46, "geometry": {"type": "Point", "coordinates": [72.8643611543405, 19.0380290585816]}, "properties": {"FID": 46, "OBJECTID_1": 46, "NAME": "Guru Tej Bahadur Nagar", "N_TYPE": "Suburban Station", "N_REGION": "HARBOUR", "For_Labell": " ", "_source": "MCGM ArcGIS FeatureServer (official)"}}, {"type": "Feature", "id": 47, "geometry": {"type": "Point", "coordinates": [72.8689456446498, 19.0517072445659]}, "properties": {"FID": 47, "OBJECTID_1": 47, "NAME": "Chunna Bhatti", "N_TYPE": "Suburban Station", "N_REGION": "HARBOUR", "For_Labell": " ", "_source": "MCGM ArcGIS FeatureServer (official)"}}, {"type": "Feature", "id": 48, "geometry": {"type": "Point", "coordinates": [72.8899762020042, 19.0657803013233]}, "properties": {"FID": 48, "OBJECTID_1": 48, "NAME": "Tilak Nagar", "N_TYPE": "Suburban Station", "N_REGION": "HARBOUR", "For_Labell": " ", "_source": "MCGM ArcGIS FeatureServer (official)"}}, {"type": "Feature", "id": 49, "geometry": {"type": "Point", "coordinates": [72.9012441362589, 19.0625976174705]}, "properties": {"FID": 49, "OBJECTID_1": 49, "NAME": "Chembur", "N_TYPE": "Suburban Station", "N_REGION": "HARBOUR", "For_Labell": " ", "_source": "MCGM ArcGIS FeatureServer (official)"}}, {"type": "Feature", "id": 50, "geometry": {"type": "Point", "coordinates": [72.9153943027253, 19.0550932243739]}, "properties": {"FID": 50, "OBJECTID_1": 50, "NAME": "Govandi", "N_TYPE": "Suburban Station", "N_REGION": "HARBOUR", "For_Labell": " ", "_source": "MCGM ArcGIS FeatureServer (official)"}}, {"type": "Feature", "id": 51, "geometry": {"type": "Point", "coordinates": [72.9317241491867, 19.0481650219614]}, "properties": {"FID": 51, "OBJECTID_1": 51, "NAME": "Mankhurd", "N_TYPE": "Suburban Station", "N_REGION": "HARBOUR", "For_Labell": "Mankhurd", "_source": "MCGM ArcGIS FeatureServer (official)"}}, {"type": "Feature", "id": 52, "geometry": {"type": "Point", "coordinates": [72.8571690397359, 19.0322664869549]}, "properties": {"FID": 52, "OBJECTID_1": 52, "NAME": "Kings Circle", "N_TYPE": "Suburban Station", "N_REGION": "HARBOUR", "For_Labell": " ", "_source": "MCGM ArcGIS FeatureServer (official)"}}, {"type": "Feature", "id": 53, "geometry": {"type": "Point", "coordinates": [72.8560972045312, 19.2797406943242]}, "properties": {"FID": 53, "OBJECTID_1": 53, "NAME": "Mira Road", "N_TYPE": "Suburban Station", "N_REGION": "WESTERN", "For_Labell": " ", "_source": "MCGM ArcGIS FeatureServer (official)"}}, {"type": "Feature", "id": 54, "geometry": {"type": "Point", "coordinates": [72.8525704477226, 19.3114392227109]}, "properties": {"FID": 54, "OBJECTID_1": 54, "NAME": "Bhayandar", "N_TYPE": "Suburban Station", "N_REGION": "WESTERN", "For_Labell": " ", "_source": "MCGM ArcGIS FeatureServer (official)"}}, {"type": "Feature", "id": 55, "geometry": {"type": "Point", "coordinates": [72.8462832948645, 19.3513074099099]}, "properties": {"FID": 55, "OBJECTID_1": 55, "NAME": "Naigaon", "N_TYPE": "Suburban Station", "N_REGION": "WESTERN", "For_Labell": " ", "_source": "MCGM ArcGIS FeatureServer (official)"}}, {"type": "Feature", "id": 56, "geometry": {"type": "Point", "coordinates": [72.8321461041926, 19.3823802721053]}, "properties": {"FID": 56, "OBJECTID_1": 56, "NAME": "Vasai Road", "N_TYPE": "Suburban Station", "N_REGION": "WESTERN", "For_Labell": "Vasai Road", "_source": "MCGM ArcGIS FeatureServer (official)"}}, {"type": "Feature", "id": 57, "geometry": {"type": "Point", "coordinates": [72.8189145644195, 19.4176755166077]}, "properties": {"FID": 57, "OBJECTID_1": 57, "NAME": "Nallasopara", "N_TYPE": "Suburban Station", "N_REGION": "WESTERN", "For_Labell": " ", "_source": "MCGM ArcGIS FeatureServer (official)"}}, {"type": "Feature", "id": 58, "geometry": {"type": "Point", "coordinates": [72.8119284863236, 19.4549995182516]}, "properties": {"FID": 58, "OBJECTID_1": 58, "NAME": "Virar", "N_TYPE": "Suburban Station", "N_REGION": "WESTERN", "For_Labell": "Virar", "_source": "MCGM ArcGIS FeatureServer (official)"}}, {"type": "Feature", "id": 59, "geometry": {"type": "Point", "coordinates": [72.9988965632495, 19.0631172207064]}, "properties": {"FID": 59, "OBJECTID_1": 59, "NAME": "Vashi", "N_TYPE": "Suburban Station", "N_REGION": "HARBOUR", "For_Labell": "Vashi", "_source": "MCGM ArcGIS FeatureServer (official)"}}, {"type": "Feature", "id": 60, "geometry": {"type": "Point", "coordinates": [73.0093493142319, 19.0661147788721]}, "properties": {"FID": 60, "OBJECTID_1": 60, "NAME": "Sanpada", "N_TYPE": "Suburban Station", "N_REGION": "HARBOUR", "For_Labell": " ", "_source": "MCGM ArcGIS FeatureServer (official)"}}, {"type": "Feature", "id": 61, "geometry": {"type": "Point", "coordinates": [73.0183903439259, 19.0556163409323]}, "properties": {"FID": 61, "OBJECTID_1": 61, "NAME": "Juinagar", "N_TYPE": "Suburban Station", "N_REGION": "HARBOUR", "For_Labell": "Juinagar", "_source": "MCGM ArcGIS FeatureServer (official)"}}, {"type": "Feature", "id": 62, "geometry": {"type": "Point", "coordinates": [73.0182107815982, 19.0334707818177]}, "properties": {"FID": 62, "OBJECTID_1": 62, "NAME": "Nerul", "N_TYPE": "Suburban Station", "N_REGION": "HARBOUR", "For_Labell": " ", "_source": "MCGM ArcGIS FeatureServer (official)"}}, {"type": "Feature", "id": 63, "geometry": {"type": "Point", "coordinates": [73.0191424206458, 19.0219438755159]}, "properties": {"FID": 63, "OBJECTID_1": 63, "NAME": "Seawoods", "N_TYPE": "Suburban Station", "N_REGION": "HARBOUR", "For_Labell": "Seawoods", "_source": "MCGM ArcGIS FeatureServer (official)"}}, {"type": "Feature", "id": 64, "geometry": {"type": "Point", "coordinates": [73.0390873339028, 19.0190456436135]}, "properties": {"FID": 64, "OBJECTID_1": 64, "NAME": "CBD Belapur", "N_TYPE": "Suburban Station", "N_REGION": "HARBOUR", "For_Labell": "CBD Belapur", "_source": "MCGM ArcGIS FeatureServer (official)"}}, {"type": "Feature", "id": 65, "geometry": {"type": "Point", "coordinates": [73.0593969394587, 19.0261194215454]}, "properties": {"FID": 65, "OBJECTID_1": 65, "NAME": "Kharghar", "N_TYPE": "Suburban Station", "N_REGION": "HARBOUR", "For_Labell": " ", "_source": "MCGM ArcGIS FeatureServer (official)"}}, {"type": "Feature", "id": 66, "geometry": {"type": "Point", "coordinates": [73.0804701854415, 19.0166539817185]}, "properties": {"FID": 66, "OBJECTID_1": 66, "NAME": "Mansarovar", "N_TYPE": "Suburban Station", "N_REGION": "HARBOUR", "For_Labell": " ", "_source": "MCGM ArcGIS FeatureServer (official)"}}, {"type": "Feature", "id": 67, "geometry": {"type": "Point", "coordinates": [73.0947598188553, 19.0074679867507]}, "properties": {"FID": 67, "OBJECTID_1": 67, "NAME": "Khandeshwar", "N_TYPE": "Suburban Station", "N_REGION": "HARBOUR", "For_Labell": " ", "_source": "MCGM ArcGIS FeatureServer (official)"}}, {"type": "Feature", "id": 68, "geometry": {"type": "Point", "coordinates": [73.1213414488358, 18.9905700254378]}, "properties": {"FID": 68, "OBJECTID_1": 68, "NAME": "Panvel", "N_TYPE": "Suburban Station", "N_REGION": "HARBOUR", "For_Labell": "Panvel", "_source": "MCGM ArcGIS FeatureServer (official)"}}, {"type": "Feature", "id": 69, "geometry": {"type": "Point", "coordinates": [73.0177166307423, 19.0760002886039]}, "properties": {"FID": 69, "OBJECTID_1": 69, "NAME": "Turbhe", "N_TYPE": "Suburban Station", "N_REGION": "HARBOUR", "For_Labell": "Turbhe", "_source": "MCGM ArcGIS FeatureServer (official)"}}, {"type": "Feature", "id": 70, "geometry": {"type": "Point", "coordinates": [73.0113423150561, 19.1032160096145]}, "properties": {"FID": 70, "OBJECTID_1": 70, "NAME": "Kopar Kharine", "N_TYPE": "Suburban Station", "N_REGION": "HARBOUR", "For_Labell": " ", "_source": "MCGM ArcGIS FeatureServer (official)"}}, {"type": "Feature", "id": 71, "geometry": {"type": "Point", "coordinates": [73.0068894698697, 19.1164805906164]}, "properties": {"FID": 71, "OBJECTID_1": 71, "NAME": "Ghansoli", "N_TYPE": "Suburban Station", "N_REGION": "HARBOUR", "For_Labell": " ", "_source": "MCGM ArcGIS FeatureServer (official)"}}, {"type": "Feature", "id": 72, "geometry": {"type": "Point", "coordinates": [73.0027166938337, 19.1370192081831]}, "properties": {"FID": 72, "OBJECTID_1": 72, "NAME": "Rabale", "N_TYPE": "Suburban Station", "N_REGION": "HARBOUR", "For_Labell": " ", "_source": "MCGM ArcGIS FeatureServer (official)"}}, {"type": "Feature", "id": 73, "geometry": {"type": "Point", "coordinates": [72.9993795687864, 19.1585309448508]}, "properties": {"FID": 73, "OBJECTID_1": 73, "NAME": "Airoli", "N_TYPE": "Suburban Station", "N_REGION": "HARBOUR", "For_Labell": "Airoli", "_source": "MCGM ArcGIS FeatureServer (official)"}}, {"type": "Feature", "id": 74, "geometry": {"type": "Point", "coordinates": [72.9759337290526, 19.1861152574207]}, "properties": {"FID": 74, "OBJECTID_1": 74, "NAME": "Thane", "N_TYPE": "Suburban Station", "N_REGION": "CENTRAL", "For_Labell": "Thane", "_source": "MCGM ArcGIS FeatureServer (official)"}}, {"type": "Feature", "id": 75, "geometry": {"type": "Point", "coordinates": [72.9986747366214, 19.1969032812792]}, "properties": {"FID": 75, "OBJECTID_1": 75, "NAME": "Kalwa", "N_TYPE": "Suburban Station", "N_REGION": "CENTRAL", "For_Labell": " ", "_source": "MCGM ArcGIS FeatureServer (official)"}}, {"type": "Feature", "id": 76, "geometry": {"type": "Point", "coordinates": [73.0231397296511, 19.1902742542868]}, "properties": {"FID": 76, "OBJECTID_1": 76, "NAME": "Mumbra", "N_TYPE": "Suburban Station", "N_REGION": "CENTRAL", "For_Labell": " ", "_source": "MCGM ArcGIS FeatureServer (official)"}}, {"type": "Feature", "id": 77, "geometry": {"type": "Point", "coordinates": [73.0429514521207, 19.1889502669907]}, "properties": {"FID": 77, "OBJECTID_1": 77, "NAME": "Diva", "N_TYPE": "Suburban Station", "N_REGION": "CENTRAL", "For_Labell": "Diva", "_source": "MCGM ArcGIS FeatureServer (official)"}}, {"type": "Feature", "id": 78, "geometry": {"type": "Point", "coordinates": [73.0769788440469, 19.2106220863616]}, "properties": {"FID": 78, "OBJECTID_1": 78, "NAME": "Lower Kopar", "N_TYPE": "Suburban Station", "N_REGION": "CENTRAL", "For_Labell": " ", "_source": "MCGM ArcGIS FeatureServer (official)"}}, {"type": "Feature", "id": 79, "geometry": {"type": "Point", "coordinates": [73.0868430181902, 19.218286062568]}, "properties": {"FID": 79, "OBJECTID_1": 79, "NAME": "Dombivili", "N_TYPE": "Suburban Station", "N_REGION": "CENTRAL", "For_Labell": "Dombivili", "_source": "MCGM ArcGIS FeatureServer (official)"}}, {"type": "Feature", "id": 80, "geometry": {"type": "Point", "coordinates": [73.0979322946715, 19.2260018478666]}, "properties": {"FID": 80, "OBJECTID_1": 80, "NAME": "Thakurli", "N_TYPE": "Suburban Station", "N_REGION": "CENTRAL", "For_Labell": " ", "_source": "MCGM ArcGIS FeatureServer (official)"}}, {"type": "Feature", "id": 81, "geometry": {"type": "Point", "coordinates": [73.1299711282289, 19.2351909402425]}, "properties": {"FID": 81, "OBJECTID_1": 81, "NAME": "Kalyan", "N_TYPE": "Suburban Station", "N_REGION": "CENTRAL", "For_Labell": "Kalyan", "_source": "MCGM ArcGIS FeatureServer (official)"}}, {"type": "Feature", "id": 82, "geometry": {"type": "Point", "coordinates": [73.1492569841108, 19.2282722390585]}, "properties": {"FID": 82, "OBJECTID_1": 82, "NAME": "Vithalwadi", "N_TYPE": "Suburban Station", "N_REGION": "CENTRAL", "For_Labell": " ", "_source": "MCGM ArcGIS FeatureServer (official)"}}, {"type": "Feature", "id": 83, "geometry": {"type": "Point", "coordinates": [73.1631032188065, 19.21808971954]}, "properties": {"FID": 83, "OBJECTID_1": 83, "NAME": "Ulhas Nagar", "N_TYPE": "Suburban Station", "N_REGION": "CENTRAL", "For_Labell": "Ulhas Nagar", "_source": "MCGM ArcGIS FeatureServer (official)"}}, {"type": "Feature", "id": 84, "geometry": {"type": "Point", "coordinates": [73.1844317400222, 19.2101305480555]}, "properties": {"FID": 84, "OBJECTID_1": 84, "NAME": "Ambernath", "N_TYPE": "Suburban Station", "N_REGION": "CENTRAL", "For_Labell": "Ambernath", "_source": "MCGM ArcGIS FeatureServer (official)"}}, {"type": "Feature", "id": 85, "geometry": {"type": "Point", "coordinates": [73.2388025511903, 19.1668331363956]}, "properties": {"FID": 85, "OBJECTID_1": 85, "NAME": "Badlapur", "N_TYPE": "Suburban Station", "N_REGION": "CENTRAL", "For_Labell": "Badlapur", "_source": "MCGM ArcGIS FeatureServer (official)"}}, {"type": "Feature", "id": 86, "geometry": {"type": "Point", "coordinates": [73.3007405284918, 19.094393395304]}, "properties": {"FID": 86, "OBJECTID_1": 86, "NAME": "Vangani", "N_TYPE": "Suburban Station", "N_REGION": "CENTRAL", "For_Labell": " ", "_source": "MCGM ArcGIS FeatureServer (official)"}}, {"type": "Feature", "id": 87, "geometry": {"type": "Point", "coordinates": [73.3178011533358, 19.0634147978046]}, "properties": {"FID": 87, "OBJECTID_1": 87, "NAME": "Shelu", "N_TYPE": "Suburban Station", "N_REGION": "CENTRAL", "For_Labell": " ", "_source": "MCGM ArcGIS FeatureServer (official)"}}, {"type": "Feature", "id": 88, "geometry": {"type": "Point", "coordinates": [73.3185595294997, 19.0268065536976]}, "properties": {"FID": 88, "OBJECTID_1": 88, "NAME": "Neral", "N_TYPE": "Suburban Station", "N_REGION": "CENTRAL", "For_Labell": "Neral", "_source": "MCGM ArcGIS FeatureServer (official)"}}, {"type": "Feature", "id": 89, "geometry": {"type": "Point", "coordinates": [73.3314774682456, 18.9700072031662]}, "properties": {"FID": 89, "OBJECTID_1": 89, "NAME": "Bhivpuri Road", "N_TYPE": "Suburban Station", "N_REGION": "CENTRAL", "For_Labell": " ", "_source": "MCGM ArcGIS FeatureServer (official)"}}, {"type": "Feature", "id": 90, "geometry": {"type": "Point", "coordinates": [73.3206443228044, 18.9088351428396]}, "properties": {"FID": 90, "OBJECTID_1": 90, "NAME": "Karjat", "N_TYPE": "Suburban Station", "N_REGION": "CENTRAL", "For_Labell": "Karjat", "_source": "MCGM ArcGIS FeatureServer (official)"}}, {"type": "Feature", "id": 91, "geometry": {"type": "Point", "coordinates": [73.3208308318587, 18.8842927108596]}, "properties": {"FID": 91, "OBJECTID_1": 91, "NAME": "Palasdhari", "N_TYPE": "Suburban Station", "N_REGION": "CENTRAL", "For_Labell": " ", "_source": "MCGM ArcGIS FeatureServer (official)"}}, {"type": "Feature", "id": 92, "geometry": {"type": "Point", "coordinates": [73.3187810452539, 18.8456945832501]}, "properties": {"FID": 92, "OBJECTID_1": 92, "NAME": "Kelavali", "N_TYPE": "Suburban Station", "N_REGION": "CENTRAL", "For_Labell": " ", "_source": "MCGM ArcGIS FeatureServer (official)"}}, {"type": "Feature", "id": 93, "geometry": {"type": "Point", "coordinates": [73.3200621813635, 18.8342636565214]}, "properties": {"FID": 93, "OBJECTID_1": 93, "NAME": "Dolavali", "N_TYPE": "Suburban Station", "N_REGION": "CENTRAL", "For_Labell": " ", "_source": "MCGM ArcGIS FeatureServer (official)"}}, {"type": "Feature", "id": 94, "geometry": {"type": "Point", "coordinates": [73.3354354701634, 18.8086214214537]}, "properties": {"FID": 94, "OBJECTID_1": 94, "NAME": "Lowjee", "N_TYPE": "Suburban Station", "N_REGION": "CENTRAL", "For_Labell": " ", "_source": "MCGM ArcGIS FeatureServer (official)"}}, {"type": "Feature", "id": 95, "geometry": {"type": "Point", "coordinates": [73.3448726092399, 18.7896170591886]}, "properties": {"FID": 95, "OBJECTID_1": 95, "NAME": "Khopoli", "N_TYPE": "Suburban Station", "N_REGION": "CENTRAL", "For_Labell": "Khopoli", "_source": "MCGM ArcGIS FeatureServer (official)"}}, {"type": "Feature", "id": 96, "geometry": {"type": "Point", "coordinates": [73.1583231567416, 19.2443452121886]}, "properties": {"FID": 96, "OBJECTID_1": 96, "NAME": "Shahad", "N_TYPE": "Suburban Station", "N_REGION": "CENTRAL", "For_Labell": " ", "_source": "MCGM ArcGIS FeatureServer (official)"}}, {"type": "Feature", "id": 97, "geometry": {"type": "Point", "coordinates": [73.1717128739798, 19.267809303216]}, "properties": {"FID": 97, "OBJECTID_1": 97, "NAME": "Ambivili", "N_TYPE": "Suburban Station", "N_REGION": "CENTRAL", "For_Labell": " ", "_source": "MCGM ArcGIS FeatureServer (official)"}}, {"type": "Feature", "id": 98, "geometry": {"type": "Point", "coordinates": [73.203247161913, 19.296877134864]}, "properties": {"FID": 98, "OBJECTID_1": 98, "NAME": "Titwala", "N_TYPE": "Suburban Station", "N_REGION": "CENTRAL", "For_Labell": " ", "_source": "MCGM ArcGIS FeatureServer (official)"}}, {"type": "Feature", "id": 99, "geometry": {"type": "Point", "coordinates": [73.2189216499799, 19.3568495922065]}, "properties": {"FID": 99, "OBJECTID_1": 99, "NAME": "Khadawali", "N_TYPE": "Suburban Station", "N_REGION": "CENTRAL", "For_Labell": " ", "_source": "MCGM ArcGIS FeatureServer (official)"}}, {"type": "Feature", "id": 100, "geometry": {"type": "Point", "coordinates": [73.2676652674631, 19.4068464515156]}, "properties": {"FID": 100, "OBJECTID_1": 100, "NAME": "Vasind", "N_TYPE": "Suburban Station", "N_REGION": "CENTRAL", "For_Labell": " ", "_source": "MCGM ArcGIS FeatureServer (official)"}}, {"type": "Feature", "id": 101, "geometry": {"type": "Point", "coordinates": [72.8501779534613, 19.1516968179908]}, "properties": {"FID": 101, "OBJECTID_1": 108, "NAME": "Ram Mandir", "N_TYPE": "Suburban Station", "N_REGION": "WESTERN", "For_Labell": " ", "_source": "MCGM ArcGIS FeatureServer (official)"}}, {"type": "Feature", "id": 102, "geometry": {"type": "Point", "coordinates": [72.8502717197307, 19.5194475908323]}, "properties": {"FID": 102, "OBJECTID_1": 121, "NAME": "Vaitarna", "N_TYPE": "Suburban Station", "N_REGION": "WESTERN", "For_Labell": " ", "_source": "MCGM ArcGIS FeatureServer (official)"}}, {"type": "Feature", "id": 103, "geometry": {"type": "Point", "coordinates": [73.0247906779553, 19.0102840709078]}, "properties": {"FID": 103, "OBJECTID_1": 30, "NAME": "Sagar Sangam", "N_TYPE": "Proposed Suburban Station", "N_REGION": "HARBOUR", "For_Labell": "Sagar Sangam", "_source": "MCGM ArcGIS FeatureServer (official)"}}, {"type": "Feature", "id": 104, "geometry": {"type": "Point", "coordinates": [73.0347210107422, 18.9904507628536]}, "properties": {"FID": 104, "OBJECTID_1": 31, "NAME": "Targhar", "N_TYPE": "Proposed Suburban Station", "N_REGION": "HARBOUR", "For_Labell": "Targhar", "_source": "MCGM ArcGIS FeatureServer (official)"}}, {"type": "Feature", "id": 105, "geometry": {"type": "Point", "coordinates": [73.0240407796519, 18.974619535869]}, "properties": {"FID": 105, "OBJECTID_1": 32, "NAME": "Bamandongri", "N_TYPE": "Proposed Suburban Station", "N_REGION": "HARBOUR", "For_Labell": " ", "_source": "MCGM ArcGIS FeatureServer (official)"}}, {"type": "Feature", "id": 106, "geometry": {"type": "Point", "coordinates": [73.0140802808399, 18.9596615707448]}, "properties": {"FID": 106, "OBJECTID_1": 33, "NAME": "Kharkopar", "N_TYPE": "Proposed Suburban Station", "N_REGION": "HARBOUR", "For_Labell": "Kharkopar", "_source": "MCGM ArcGIS FeatureServer (official)"}}]}