{"type": "FeatureCollection", "features": [{"type": "Feature", "geometry": {"type": "MultiLineString", "coordinates": [[[72.9250625, 19.2160101], [72.9324329, 19.2078528], [72.9326842, 19.2066938], [72.9353378, 19.2049319], [72.9365433, 19.2039855]], [[72.9101687, 19.2075954], [72.911116, 19.207805], [72.9133, 19.2080792], [72.9134645, 19.208264], [72.9148605, 19.2101727], [72.9167179, 19.2153834], [72.9172118, 19.2161664], [72.920089, 19.2169335], [72.922291, 19.2163945], [72.9250625, 19.2160101]], [[72.9150651, 19.230718], [72.9122595, 19.2286626], [72.9109748, 19.2260409], [72.9099107, 19.2184912], [72.9082449, 19.2168704], [72.9074513, 19.2104661], [72.9101687, 19.2075954]], [[72.898711, 19.2479658], [72.8978491, 19.2489629], [72.9008961, 19.2491249], [72.9031491, 19.2479094], [72.9057983, 19.2473224], [72.9055343, 19.2396691], [72.9106378, 19.2353286], [72.9150651, 19.230718]], [[72.8936264, 19.2494376], [72.898711, 19.2479658]], [[72.8885364, 19.2498137], [72.8920984, 19.2496516], [72.8936264, 19.2494376]], [[72.8761072, 19.2604404], [72.8773009, 19.2592412], [72.8776541, 19.2587862], [72.8779285, 19.2580991], [72.8786543, 19.2568068], [72.8802656, 19.2557367], [72.8813989, 19.2545677], [72.8818276, 19.2542582], [72.8838943, 19.253679], [72.8848471, 19.2532787], [72.8862754, 19.2520177], [72.8885364, 19.2498137]], [[72.8349639, 19.2495204], [72.8359457, 19.2500224], [72.8382966, 19.2517142], [72.8385994, 19.2520386], [72.8396637, 19.2537592], [72.8399697, 19.2554048], [72.8378874, 19.2583945], [72.8370033, 19.2598217], [72.8364424, 19.2619035], [72.836956, 19.2633961], [72.8375498, 19.2643701], [72.8387302, 19.2659733], [72.8394364, 19.2665102], [72.8404661, 19.2671219], [72.8415339, 19.2674166], [72.8424861, 19.26745], [72.8455619, 19.2669346], [72.8470762, 19.2673419], [72.8476344, 19.2678557], [72.8500483, 19.2694771], [72.8503883, 19.2693816], [72.8512451, 19.2680992], [72.8523637, 19.2675557], [72.8532493, 19.2673865], [72.856719, 19.2690769], [72.858087, 19.2694244], [72.8602195, 19.2685354], [72.8613235, 19.2676355], [72.8618978, 19.2677064], [72.8626067, 19.2685064], [72.8631849, 19.2683227], [72.863792, 19.2674414], [72.8647359, 19.2671717], [72.8650022, 19.2669407], [72.8655508, 19.2670606], [72.8660166, 19.2669612], [72.8661856, 19.2665813], [72.8661442, 19.2659496], [72.8657345, 19.2651714], [72.8659344, 19.2646601], [72.867127, 19.2629578], [72.8681192, 19.2620146], [72.8688528, 19.2611411], [72.8698154, 19.2606111], [72.8699104, 19.2606659], [72.8699802, 19.2609879], [72.870105, 19.2610773], [72.8708005, 19.2612049], [72.8710933, 19.2611647], [72.8710914, 19.2610987], [72.8718697, 19.2612518], [72.8722669, 19.2611665], [72.8724717, 19.2612029], [72.8732121, 19.2608472], [72.8738031, 19.2606913], [72.873848, 19.2605825], [72.8750591, 19.2607267], [72.8757415, 19.2604458], [72.8758872, 19.2605394], [72.8761072, 19.2604404]], [[72.7837151, 19.2648545], [72.7845016, 19.2647592], [72.7883112, 19.263206], [72.7899323, 19.2614429], [72.7913211, 19.2615103], [72.7922692, 19.2617733], [72.7961021, 19.2622252], [72.7994004, 19.2622061], [72.7997222, 19.2622689], [72.7998405, 19.2619511], [72.800221, 19.2618718], [72.8005748, 19.2612783], [72.8008568, 19.2611692], [72.800891, 19.2610829], [72.800617, 19.2604946], [72.8008502, 19.2595392], [72.8008065, 19.2588232], [72.8016629, 19.2590609], [72.8026057, 19.2588224], [72.803537, 19.2582459], [72.8056192, 19.2566634], [72.8069093, 19.2557931], [72.8078436, 19.2549919], [72.8111887, 19.2518386], [72.8127312, 19.2501156], [72.8139689, 19.2490674], [72.816248, 19.2473748], [72.8166833, 19.2471423], [72.8173733, 19.2469172], [72.8210644, 19.2461315], [72.8223129, 19.2459865], [72.8258867, 19.2451259], [72.8272035, 19.244973], [72.828421, 19.2464999], [72.8288427, 19.2469583], [72.8291765, 19.2471886], [72.830697, 19.2479598], [72.8332963, 19.2488437], [72.8349639, 19.2495204]], [[72.7837151, 19.2648545], [72.7837549, 19.2643921], [72.7839303, 19.2638848], [72.7842515, 19.26371], [72.784455, 19.2632715], [72.7844265, 19.2629023], [72.7841154, 19.262087], [72.7830168, 19.260357], [72.7824765, 19.2600031], [72.7820635, 19.2600994], [72.7814412, 19.2600538], [72.7812749, 19.2599272], [72.7812105, 19.2597195], [72.7817523, 19.2587928], [72.7818382, 19.2578103], [72.7817202, 19.257466], [72.7821949, 19.2569386], [72.7825302, 19.2556175], [72.7828494, 19.2527966], [72.7828842, 19.2506898], [72.7827823, 19.249839], [72.7818784, 19.2458937], [72.7809826, 19.243569], [72.7805319, 19.2415305], [72.7809638, 19.2410012], [72.7810013, 19.2406948], [72.7810094, 19.2404492], [72.7807509, 19.2396291], [72.780143, 19.2385575], [72.7800035, 19.238441], [72.7791157, 19.23817], [72.7787456, 19.2377547], [72.7786732, 19.2373951], [72.7786437, 19.2369747], [72.7787322, 19.2366531], [72.779333, 19.2359313], [72.7795836, 19.2353341], [72.7797702, 19.2344954], [72.7798748, 19.2333836], [72.7802273, 19.2321573]], [[72.7802273, 19.2321573], [72.7806017, 19.2312728], [72.7805936, 19.2308309], [72.7797675, 19.2298938], [72.77797, 19.2271975], [72.7775493, 19.2267129], [72.7766642, 19.226252], [72.7763611, 19.2259126], [72.7761868, 19.2254846], [72.7760124, 19.2244665], [72.7761412, 19.2239169], [72.7761573, 19.2233394], [72.7765086, 19.2228988], [72.7765059, 19.2220554], [72.7769726, 19.2216603], [72.7774581, 19.2214349], [72.7780563, 19.2203458], [72.7783659, 19.2201107], [72.778751, 19.2201255], [72.7788582, 19.2199887], [72.778818, 19.2191909], [72.779156, 19.2183475], [72.7796575, 19.2177194], [72.7803791, 19.2176333]], [[72.7803791, 19.2176333], [72.7806687, 19.2174889], [72.7816424, 19.2152727], [72.7817282, 19.2147991], [72.7816558, 19.2134567], [72.781586, 19.2126791], [72.7813339, 19.2114761], [72.7808619, 19.2104199], [72.7801651, 19.2100939], [72.7801122, 19.2099918], [72.7803375, 19.2099411], [72.7804863, 19.2098044], [72.7804971, 19.2092066], [72.7802128, 19.2088925], [72.7795851, 19.2088014], [72.7793491, 19.2086696], [72.7791989, 19.2084316], [72.7793169, 19.208001], [72.7792939, 19.207298], [72.7793974, 19.2063951], [72.779811, 19.205834], [72.7804011, 19.2056374], [72.7809423, 19.2056783], [72.7813661, 19.2058911], [72.7822539, 19.2057897], [72.7825275, 19.2059012], [72.7825999, 19.2060506], [72.7827689, 19.2061291], [72.7833503, 19.2060842], [72.7841315, 19.2058049], [72.7849143, 19.2051012], [72.7852308, 19.2046972], [72.7857927, 19.2036029], [72.7859071, 19.203082], [72.7859044, 19.2024285], [72.7858132, 19.201932], [72.7856764, 19.2015217], [72.7853327, 19.2009382], [72.7847108, 19.2007998], [72.7832571, 19.2010708], [72.7828252, 19.2010607], [72.7825516, 19.2008631], [72.7823853, 19.2005592], [72.7819991, 19.1980464], [72.782042, 19.1971345], [72.7817899, 19.1950878], [72.7823478, 19.1936642], [72.7824819, 19.1934869], [72.7826321, 19.1934261], [72.7830827, 19.1936084], [72.7832544, 19.1935831], [72.7834958, 19.1934514], [72.7837801, 19.1930816], [72.784, 19.1929853], [72.7850246, 19.1930056], [72.7852714, 19.1932943], [72.7855182, 19.193421], [72.7862048, 19.1934261], [72.7866983, 19.1937655], [72.787621, 19.19411], [72.7878705, 19.1940695], [72.7889299, 19.193421], [72.7895361, 19.1932639], [72.7901208, 19.1932639], [72.7910703, 19.1935679], [72.7916819, 19.1940036], [72.7922291, 19.1948041], [72.7922881, 19.1951435], [72.7925134, 19.1953867], [72.7928299, 19.1955285], [72.7930123, 19.1962074], [72.7932537, 19.1965114], [72.7936774, 19.1966988], [72.7938193, 19.1970985], [72.796595, 19.1971296], [72.7967566, 19.1965266], [72.796534, 19.1936338], [72.7957106, 19.1912653], [72.7956086, 19.1907156], [72.7958473, 19.1880229], [72.7958313, 19.1869143], [72.7961236, 19.1857708], [72.7961918, 19.1828478], [72.7960485, 19.1813883], [72.7956676, 19.1801773], [72.7950818, 19.1772895], [72.7948008, 19.1752546], [72.7940637, 19.172187], [72.7939832, 19.1720806], [72.7930713, 19.1718932], [72.7926582, 19.1715892], [72.7916819, 19.1712877], [72.7908517, 19.1716069], [72.790617, 19.1716272], [72.7904266, 19.1714954], [72.7904212, 19.1713231], [72.7909309, 19.1710014], [72.790955, 19.1708468], [72.7906036, 19.1703579], [72.7901423, 19.1699272], [72.7898401, 19.1697622], [72.7894878, 19.1697043], [72.7891606, 19.1698867], [72.7888951, 19.1699069], [72.7886644, 19.1698183], [72.7883077, 19.1693141], [72.7881896, 19.1686757], [72.7877082, 19.1685439], [72.7876371, 19.1676927], [72.7872723, 19.1672012], [72.7861297, 19.166507], [72.7854538, 19.166355], [72.7847242, 19.1664715], [72.7843273, 19.1669883], [72.7842061, 19.1673441], [72.7828655, 19.1675913], [72.7821225, 19.1680068], [72.7819347, 19.1680321], [72.7816987, 19.1678953], [72.7816611, 19.1675812], [72.7812749, 19.1674545], [72.7811285, 19.1672472], [72.7811301, 19.1667983], [72.7810013, 19.1665171], [72.7811032, 19.1660205], [72.7809396, 19.1652275], [72.7807277, 19.1646423], [72.7807143, 19.1642926], [72.780819, 19.1640251], [72.7811972, 19.1636394], [72.7826053, 19.1629347], [72.7832115, 19.1624482], [72.7836621, 19.1616881], [72.7838176, 19.1612371], [72.7838713, 19.1606392], [72.7837318, 19.1598994], [72.783528, 19.1596511], [72.7828655, 19.1595573], [72.7823693, 19.1592001], [72.781696, 19.158549], [72.7815109, 19.1581334], [72.7815565, 19.1579231], [72.7820393, 19.1576647], [72.7827662, 19.1575507], [72.7828909, 19.1574164], [72.7832745, 19.1578877], [72.7836648, 19.1576318], [72.7839453, 19.1572389], [72.7841526, 19.1566268], [72.784306, 19.155891], [72.7842629, 19.154789], [72.7843487, 19.1545432], [72.784684, 19.1542721], [72.7859044, 19.1535804], [72.7869639, 19.1527329], [72.7873823, 19.1523237], [72.7878597, 19.1516826], [72.7884029, 19.1507616], [72.7888548, 19.1496429], [72.7891445, 19.1481277], [72.7892144, 19.1471343], [72.7888177, 19.1448706]], [[72.7888177, 19.1448706], [72.7882969, 19.1445753], [72.7879697, 19.1440989], [72.7876071, 19.1429394], [72.7875003, 19.1421376], [72.787621, 19.141864], [72.7877672, 19.1418539], [72.788132, 19.1416157], [72.7881803, 19.1410709], [72.7880703, 19.140217], [72.7883854, 19.1392059], [72.788423, 19.1385775], [72.7883506, 19.1380682], [72.7884149, 19.1373713], [72.7882607, 19.1358081], [72.7879831, 19.1351186], [72.7878946, 19.1334702], [72.7876291, 19.1330939], [72.7873635, 19.1330002], [72.7869987, 19.1332029], [72.7867305, 19.1335234], [72.7863215, 19.1335298], [72.7860688, 19.1334581], [72.785958, 19.1333068], [72.786031, 19.132971], [72.7860052, 19.1325423], [72.7863289, 19.1322752], [72.7868063, 19.1322146], [72.7874645, 19.1325457], [72.7877649, 19.1323734], [72.7881092, 19.1319511], [72.7879965, 19.1319055], [72.7883506, 19.1310033], [72.7883023, 19.1307829], [72.7881833, 19.1305387], [72.7880653, 19.1305387], [72.7877176, 19.1307474], [72.7874842, 19.1307879], [72.7872928, 19.1303765], [72.786928, 19.130265], [72.7870568, 19.1294947], [72.787157, 19.1293688], [72.7878571, 19.1296957], [72.7882996, 19.1296831], [72.7884793, 19.1295842], [72.7885839, 19.1296451], [72.7885973, 19.1298554], [72.7886768, 19.1299305], [72.7889451, 19.1299989], [72.7890265, 19.1299086], [72.7891489, 19.1299609], [72.7890989, 19.1301544], [72.7892491, 19.1307296], [72.7895308, 19.1309932], [72.7897131, 19.1310489], [72.7902754, 19.1310759], [72.7907555, 19.1310024], [72.7909111, 19.1309061], [72.7913831, 19.1310151], [72.7915612, 19.1309602], [72.7917345, 19.1306502], [72.7915773, 19.1301975], [72.7918509, 19.1300759], [72.79217, 19.1302938], [72.7923729, 19.1301713], [72.7925526, 19.1304297], [72.7925955, 19.1302625], [72.7927253, 19.1302178], [72.7929603, 19.1303385], [72.7934253, 19.1303267], [72.7934709, 19.1307322], [72.7936479, 19.1308817], [72.7938706, 19.1309222], [72.7940771, 19.1308361], [72.7943051, 19.1310667], [72.7944355, 19.1310505], [72.7944919, 19.130896], [72.7945991, 19.1308783], [72.795208, 19.1319299], [72.7952854, 19.1329507], [72.7957991, 19.133156], [72.795842, 19.1329824], [72.7963355, 19.1330103], [72.7963006, 19.1333853], [72.7966064, 19.1337148], [72.7967342, 19.1340256], [72.7966162, 19.134725], [72.7964981, 19.1348263], [72.7965196, 19.1353534], [72.7966698, 19.1356372], [72.7965732, 19.1359413], [72.7958973, 19.1366508], [72.7958115, 19.1373299], [72.7956291, 19.1376239], [72.795833, 19.1379989], [72.7958544, 19.1383334], [72.7956291, 19.1388807], [72.7948352, 19.1396308], [72.7941269, 19.1405704], [72.7941076, 19.1409411], [72.7943024, 19.1410988], [72.7946569, 19.1412093], [72.7947275, 19.1411486], [72.7953726, 19.1411343], [72.7956757, 19.1409619], [72.7958742, 19.1409467], [72.79596, 19.1409974], [72.7959681, 19.1412305], [72.7962126, 19.1412647], [72.7962001, 19.1415429], [72.7964615, 19.1415675], [72.7965662, 19.1411773], [72.7965069, 19.1408712], [72.7970642, 19.1400075], [72.7971724, 19.1400979], [72.7972046, 19.1404095], [72.7973792, 19.1408153], [72.7975308, 19.1409145], [72.7979986, 19.1407697], [72.798261, 19.1405165]], [[72.798261, 19.1405165], [72.7984364, 19.1400306], [72.7983505, 19.1397678], [72.7984766, 19.1397171], [72.7985772, 19.1399047], [72.7984437, 19.1404184], [72.7985108, 19.1405514], [72.7989136, 19.1406884], [72.7990187, 19.1408616], [72.7992377, 19.140782], [72.7993771, 19.1409087], [72.7995773, 19.1413437], [72.7997097, 19.1412027], [72.7999806, 19.1410988], [72.8000638, 19.1412229], [72.7999592, 19.1414485], [72.8000423, 19.1418057], [72.8003374, 19.142049], [72.8003696, 19.1422973], [72.8005966, 19.1424257], [72.8007859, 19.1427067], [72.8006861, 19.142837], [72.8002804, 19.1428859], [72.7999619, 19.1427788], [72.7998831, 19.1429907], [72.8000601, 19.143158], [72.8001674, 19.1434316], [72.8004678, 19.1436546], [72.8021371, 19.1444308], [72.8023115, 19.1445208], [72.8023933, 19.1446627], [72.8025824, 19.1447096], [72.8026897, 19.1449363], [72.8025515, 19.1451606], [72.8026162, 19.1458698], [72.8042561, 19.1454495]], [[72.8042561, 19.1454495], [72.8035131, 19.1437847], [72.8034782, 19.1436175], [72.8037637, 19.1433295], [72.8036989, 19.1432475], [72.8033572, 19.1434715], [72.8032535, 19.143318], [72.8033366, 19.1431687], [72.8030358, 19.1423578], [72.8026979, 19.1419779], [72.8021741, 19.1416331], [72.8020526, 19.1414269], [72.8019983, 19.1405221], [72.8021639, 19.1403242], [72.8031372, 19.1399251], [72.804837, 19.1390089], [72.8052433, 19.138593], [72.8070375, 19.1372472], [72.8072807, 19.1369349], [72.8075259, 19.1368279], [72.809296, 19.1351845], [72.813094, 19.1301721], [72.8144807, 19.1281246], [72.8152531, 19.1265813], [72.8159881, 19.1255195], [72.8172702, 19.1233452], [72.8180301, 19.1223236], [72.8181674, 19.1218509], [72.8184868, 19.1213396], [72.8187074, 19.121061], [72.819177, 19.1208298], [72.8201857, 19.1179016], [72.820808, 19.1166244], [72.8221518, 19.1132841], [72.822994, 19.1104634]], [[72.822994, 19.1104634], [72.8242729, 19.1031371], [72.825844, 19.0981401], [72.8262448, 19.096478], [72.8265532, 19.093994], [72.8265318, 19.0901363], [72.8264567, 19.0890414], [72.8260196, 19.087305], [72.8254965, 19.0857816], [72.8251666, 19.0851632], [72.8245416, 19.0843774], [72.8238533, 19.083906], [72.8231058, 19.0840779], [72.8229351, 19.0841904], [72.8227198, 19.0845201], [72.8226138, 19.085674], [72.822521, 19.0856711], [72.8226213, 19.0844435], [72.8228666, 19.0841069], [72.8240561, 19.0835155], [72.8241317, 19.0833768], [72.8242618, 19.0826072], [72.824206, 19.0821331], [72.8240394, 19.0816771]], [[72.8240394, 19.0816771], [72.823626, 19.0811741], [72.8229487, 19.0806712], [72.8216268, 19.0822273], [72.8227213, 19.0808565], [72.8233212, 19.0797589], [72.823399, 19.0794623], [72.8235573, 19.0793914], [72.8234607, 19.0791582], [72.8230557, 19.0787602], [72.8225997, 19.0785346], [72.8221529, 19.0779941], [72.8208119, 19.0787949], [72.820766, 19.0787387], [72.8221203, 19.0778914], [72.821974, 19.0775788], [72.8212681, 19.0771186], [72.8206863, 19.0780105], [72.8201845, 19.0783416], [72.8198371, 19.078788], [72.8197917, 19.0786418], [72.8198606, 19.078494], [72.8206177, 19.077947], [72.8208006, 19.0776643], [72.8206948, 19.0775016], [72.8208183, 19.0772998], [72.8209591, 19.0773325], [72.8214026, 19.076816], [72.8211727, 19.0770437], [72.8210993, 19.0769905], [72.82119, 19.0761791], [72.8214534, 19.0757713], [72.8215311, 19.0753824], [72.8215644, 19.0749029], [72.8214222, 19.0739717], [72.8215349, 19.0729324], [72.8215107, 19.0724913], [72.8217868, 19.0711843], [72.822074, 19.0703467], [72.8223744, 19.0697839], [72.8223824, 19.0693042], [72.82224, 19.0688346], [72.8210007, 19.0692062], [72.820954, 19.0690698], [72.8221973, 19.0687471], [72.8221866, 19.0677027], [72.8223717, 19.0670816], [72.8228035, 19.0662527], [72.8229537, 19.0655936], [72.8228371, 19.0648089], [72.8226426, 19.0647493], [72.8225729, 19.0646454], [72.8225917, 19.0640813], [72.8223936, 19.0638047], [72.8178705, 19.064719], [72.8177809, 19.0644019], [72.8222873, 19.0635743], [72.8221706, 19.0630381], [72.8216985, 19.0623638], [72.8216663, 19.0614816], [72.8215563, 19.0611165], [72.8213699, 19.0608921], [72.8212197, 19.0603775], [72.8205035, 19.0589223], [72.8212032, 19.058594], [72.8210628, 19.0581402], [72.8210997, 19.0580325], [72.8213632, 19.0581174], [72.821508, 19.0580743], [72.8220257, 19.0576053], [72.8223368, 19.0575622], [72.8227043, 19.0571971], [72.8228988, 19.0572859], [72.82334, 19.0570095], [72.8233346, 19.0568954], [72.8232488, 19.0568599], [72.8232864, 19.0566495], [72.8234768, 19.0564822], [72.8238603, 19.0557191], [72.8239033, 19.0549661], [72.8238228, 19.0547608], [72.8231683, 19.0545884], [72.8227825, 19.0543997], [72.8223744, 19.0540484], [72.8219855, 19.0533867], [72.8215644, 19.0523751], [72.8214115, 19.0514725], [72.8211325, 19.0510517], [72.8209341, 19.0500426], [72.8206497, 19.0497232], [72.8184181, 19.0448223], [72.8181365, 19.0445764], [72.817804, 19.0430127], [72.8175685, 19.0428847], [72.8181053, 19.0423249], [72.8181164, 19.0418534], [72.8182404, 19.0416638], [72.8199644, 19.0422552], [72.820462, 19.0423402], [72.8212103, 19.0429258], [72.8215724, 19.043012], [72.8217494, 19.0428954], [72.8218111, 19.0427205], [72.8218979, 19.0418431], [72.8220686, 19.0416531], [72.8220928, 19.0411865], [72.8223315, 19.0405248], [72.8224616, 19.0404441], [72.822538, 19.0405806], [72.8224844, 19.0407276], [72.8225233, 19.0413095], [72.8227122, 19.0412891], [72.8227425, 19.0415428], [72.8228802, 19.0415259], [72.8228545, 19.0412854], [72.8230865, 19.0412575], [72.8230852, 19.0415719], [72.8232434, 19.0420029], [72.8234285, 19.042254], [72.8246087, 19.0425101], [72.8252658, 19.0427382], [72.8274438, 19.0440313], [72.828624, 19.0446255], [72.8292949, 19.0447873], [72.8297909, 19.0451052], [72.8299042, 19.0453877], [72.8299593, 19.0460812], [72.8319472, 19.0481677], [72.8330201, 19.0491527], [72.8334003, 19.0493275], [72.8338538, 19.0494068], [72.8350943, 19.0492922], [72.8359576, 19.0494115], [72.8368476, 19.0490538], [72.8374618, 19.0492541], [72.8381297, 19.0484251], [72.838127, 19.0482578]], [[72.838127, 19.0482578], [72.8384504, 19.0483201], [72.842162, 19.0509509], [72.8432184, 19.0510269]], [[72.8432184, 19.0510269], [72.8600583, 19.0522774], [72.8635585, 19.0523331]], [[72.8635585, 19.0523331], [72.8673767, 19.0523739]], [[72.8673767, 19.0523739], [72.8675257, 19.052585], [72.8679958, 19.0523663], [72.8685355, 19.0516883], [72.8688797, 19.0516823], [72.8688956, 19.0513873], [72.8697623, 19.0512998], [72.8702952, 19.0513405], [72.8709149, 19.051193], [72.8713518, 19.0508766], [72.8719925, 19.0499469], [72.8725514, 19.0500076], [72.8737027, 19.0498972], [72.8749758, 19.0494251], [72.8756593, 19.0489616], [72.8759547, 19.0488543], [72.8766932, 19.0490164], [72.8771277, 19.0484983], [72.8775355, 19.0481856], [72.8782318, 19.0478237]], [[72.8782318, 19.0478237], [72.8788416, 19.0478983], [72.8793204, 19.0477582], [72.8795718, 19.0475519], [72.8799872, 19.046915], [72.8800185, 19.0467832], [72.8797868, 19.0456349], [72.8799374, 19.0449487], [72.8800887, 19.0446488], [72.8800692, 19.0444321], [72.8802098, 19.0442852], [72.8803871, 19.0437975], [72.8807338, 19.042118], [72.8806859, 19.0415049], [72.8807821, 19.0413663], [72.8813816, 19.037515], [72.8812783, 19.0364933], [72.8808385, 19.034741], [72.8787844, 19.0306872], [72.8787476, 19.0303953], [72.8781304, 19.0286644], [72.8773778, 19.0255767], [72.8772822, 19.0246876], [72.8772976, 19.0238692], [72.8774511, 19.0231318], [72.8780772, 19.0217672], [72.8798635, 19.0193952], [72.8814802, 19.0178483], [72.8833055, 19.0164254], [72.8837499, 19.0159641], [72.8839504, 19.015618], [72.8842963, 19.0145194], [72.884546, 19.0116949], [72.8848346, 19.0102534], [72.884369, 19.0094658], [72.8839541, 19.0085518]], [[72.8839541, 19.0085518], [72.8842216, 19.0084409], [72.8836441, 19.0039417], [72.8838479, 19.0034801], [72.8835033, 19.0029155], [72.883691, 19.0025296], [72.8840464, 19.0024708], [72.8842771, 19.0026179], [72.8844058, 19.0025367], [72.884404, 19.0023481], [72.8846526, 19.0018114], [72.8853446, 19.0010379], [72.8855927, 19.0010671], [72.8857094, 19.0008743], [72.8855109, 19.0004204], [72.8855689, 18.9995036], [72.8857027, 18.9992703]], [[72.8857027, 18.9992703], [72.8860621, 18.9992259], [72.8871568, 18.9996303], [72.8876138, 18.999463], [72.888751, 18.9997394], [72.8891078, 18.9997546], [72.8898427, 18.999605], [72.8906098, 18.9996405], [72.891098, 18.9999144], [72.891275, 19.0003329], [72.891452, 19.000485], [72.891672, 19.0005205], [72.8918436, 19.000485], [72.8928199, 18.9997597], [72.8933054, 18.9997775], [72.8933778, 18.9998028], [72.8935531, 19.0010921], [72.8953045, 19.0012305], [72.895371, 19.001423], [72.8955165, 19.0014285], [72.8953575, 19.0009489], [72.8954534, 18.9997129], [72.89536, 18.9992023], [72.8928226, 18.9992043], [72.8919643, 18.9993108], [72.8915942, 18.9992081], [72.8917774, 18.9955702]], [[72.8917774, 18.9955702], [72.8945139, 18.9961551], [72.8946412, 18.9963461], [72.8949778, 18.99653], [72.8953318, 18.9965122], [72.895377, 18.9963263], [72.9028487, 18.997708], [72.9029587, 18.9975001], [72.9032108, 18.9973225], [72.9036346, 18.9972693], [72.9038465, 18.9964704], [72.9038504, 18.9939484], [72.9039025, 18.9938247], [72.9041737, 18.9937085], [72.904458, 18.9924937], [72.9050723, 18.992831], [72.9051138, 18.9929362], [72.9051009, 18.993027], [72.9048825, 18.993122], [72.9047665, 18.9932672], [72.9046196, 18.9936072], [72.9044031, 18.9944123], [72.9043803, 18.9952683]], [[72.9043803, 18.9952683], [72.904847, 18.995565], [72.9051916, 18.9956614], [72.9053204, 18.9959961], [72.9054089, 18.9959023], [72.9055319, 18.9959663], [72.9053441, 18.9962176], [72.9054537, 18.9962754], [72.9056374, 18.9960165], [72.9057183, 18.996044], [72.9055525, 18.9964483], [72.9046296, 18.9978102], [72.9048683, 18.9980376], [72.9055367, 18.9981438], [72.9059011, 18.9976002], [72.905826, 18.9975381], [72.9059789, 18.9973593], [72.9060553, 18.9974151], [72.9063183, 18.9970859], [72.9064174, 18.9971469], [72.9058534, 18.9979216], [72.9059413, 18.9979718], [72.9058461, 18.9981265], [72.9067813, 18.9981656], [72.9068989, 18.9982431], [72.9069525, 18.9987706], [72.907607, 18.9990699], [72.9082319, 18.9988569], [72.908543, 18.998441], [72.9088408, 18.998517], [72.9093611, 18.9988797], [72.9098064, 18.9989761], [72.9102355, 18.9987174], [72.913143, 18.9987225], [72.9135454, 18.9983776], [72.9140013, 18.9982], [72.91457, 18.9981848], [72.9171556, 18.9989558], [72.9194731, 18.9978449], [72.9225844, 19.0000666], [72.9235591, 19.0010123], [72.926647, 19.0024473], [72.9292416, 19.0039265], [72.9421323, 19.0134718], [72.9518473, 19.0203337], [72.9533069, 19.0214969], [72.9538857, 19.0221493], [72.9551625, 19.0232346], [72.9561549, 19.024368], [72.9576221, 19.0262926], [72.9587406, 19.0279459], [72.9608864, 19.0315516], [72.9619968, 19.0337524], [72.9626942, 19.0356389], [72.9635953, 19.0395638], [72.9638636, 19.0434127], [72.9631019, 19.0495533], [72.9629624, 19.052195], [72.9628283, 19.0528542], [72.9625748, 19.0564126]], [[72.9625748, 19.0564126], [72.9624045, 19.0578107], [72.9627039, 19.060747], [72.9618037, 19.0636796], [72.9616642, 19.0647038]], [[72.9616642, 19.0647038], [72.9615496, 19.0674003], [72.9614067, 19.0684252], [72.9608058, 19.0703721], [72.9604975, 19.0726181], [72.9605323, 19.0739616], [72.9604183, 19.0743596], [72.9603016, 19.0754774], [72.9603721, 19.0773984], [72.9602694, 19.0812773], [72.9603982, 19.083949], [72.960315, 19.0867632], [72.9604091, 19.0885498], [72.960366, 19.089708], [72.9607952, 19.0925367], [72.9610195, 19.0964513], [72.9612388, 19.096851], [72.9615829, 19.0990121]], [[72.9615829, 19.0990121], [72.962029, 19.1013064], [72.962957, 19.1050473], [72.9638748, 19.10777], [72.9644991, 19.1092582], [72.9645073, 19.1094369], [72.9658163, 19.1119815], [72.9667658, 19.1135224], [72.967726, 19.1155853], [72.9686701, 19.1177547], [72.96959, 19.1201298], [72.9691744, 19.1201926], [72.9685904, 19.1200399], [72.9680354, 19.120087], [72.9676226, 19.1202402], [72.9674384, 19.1204073], [72.968087, 19.1201566], [72.9685897, 19.1201267], [72.9696472, 19.1203628], [72.9700595, 19.1224278], [72.9697148, 19.1262942]], [[72.9613111, 19.1345277], [72.9663527, 19.1311402], [72.9697148, 19.1262942]], [[72.9817485, 19.1703648], [72.9796906, 19.168768], [72.9787714, 19.165497], [72.9774261, 19.1618647], [72.9768271, 19.1598554], [72.9761727, 19.1571816], [72.9763017, 19.1562668], [72.9762567, 19.1557834], [72.9756595, 19.1526554], [72.9730351, 19.1492978], [72.968074, 19.140654], [72.9670342, 19.1397327], [72.9656789, 19.1390777], [72.9613111, 19.1345277]], [[72.9365433, 19.2039855], [72.9411622, 19.2018562], [72.941367, 19.1956996], [72.941724, 19.1922445], [72.9416978, 19.1910551], [72.9411319, 19.1900811], [72.939847, 19.188974], [72.9407464, 19.1886481], [72.9413343, 19.1881573], [72.94194, 19.1873861], [72.9422479, 19.1876548], [72.9428767, 19.1878532], [72.9434392, 19.1875968], [72.9442546, 19.1879767], [72.9448792, 19.1880211], [72.9450318, 19.1879342], [72.9457593, 19.1879285], [72.9463521, 19.1877872], [72.9464482, 19.1878903], [72.9465788, 19.1878007], [72.9467275, 19.1880204], [72.9469571, 19.1879332], [72.946874, 19.1876567], [72.9472903, 19.1876354], [72.9475413, 19.1878151], [72.948139, 19.1875023], [72.9486387, 19.1875888], [72.9497703, 19.1887029], [72.9523677, 19.186394], [72.953303, 19.1847412], [72.9537316, 19.1849157], [72.9544135, 19.1847782], [72.9544595, 19.1851701], [72.9549813, 19.1851776], [72.955084, 19.1848693], [72.9554233, 19.1846512], [72.955528, 19.1843682], [72.9558557, 19.1842167], [72.9558877, 19.1837988], [72.9556915, 19.1835684], [72.9557866, 19.1833308], [72.9564213, 19.1830071], [72.9566637, 19.1827068], [72.957343, 19.1827011], [72.9575038, 19.1825905], [72.9576982, 19.1826659], [72.9580208, 19.1825524], [72.9581648, 19.1821675], [72.9583474, 19.1821528], [72.9586574, 19.1816866], [72.9585385, 19.1810504], [72.958622, 19.1808092], [72.95867, 19.1807584], [72.9588093, 19.180858], [72.9590187, 19.1808146], [72.9595604, 19.1802074], [72.9596001, 19.1800619], [72.9593925, 19.1797084], [72.959394, 19.1794204], [72.9597466, 19.1793144], [72.9597979, 19.178933], [72.9601734, 19.1789001], [72.9604985, 19.1791148], [72.9607781, 19.1789015], [72.9608763, 19.1790084], [72.9610622, 19.1788707], [72.9615821, 19.1794789], [72.9616685, 19.1794425], [72.9618567, 19.1790107], [72.9621528, 19.1786949], [72.9625495, 19.1784252], [72.9626225, 19.178107], [72.9625576, 19.1776151], [72.9633791, 19.1768267], [72.963784, 19.1766703], [72.9639722, 19.1768977], [72.964487, 19.1768812], [72.9657448, 19.1771438], [72.9662862, 19.1775204], [72.9667659, 19.1776556], [72.9669691, 19.1779506], [72.9677638, 19.1777923], [72.9680256, 19.1779136], [72.9679595, 19.1775312], [72.9681556, 19.1768995], [72.9685081, 19.1760117], [72.9686761, 19.1759134], [72.9690217, 19.1727562], [72.9720345, 19.172718], [72.9742464, 19.1742018], [72.9771448, 19.1721654], [72.9803131, 19.1703446], [72.9817485, 19.1703648]], [[72.7738226, 19.1330445], [72.7739485, 19.1332946], [72.7738139, 19.1333567], [72.7736833, 19.1336201], [72.7736583, 19.1335465], [72.7735802, 19.1335885], [72.7734035, 19.1338007], [72.7733787, 19.1335554], [72.7732289, 19.1334844], [72.7732633, 19.1333174], [72.7734305, 19.1333802], [72.7733562, 19.1332634], [72.7735736, 19.133], [72.7738226, 19.1330445]], [[72.7832087, 19.1348374], [72.7828928, 19.1351303], [72.7827557, 19.1349838], [72.7827021, 19.1351584], [72.7822431, 19.1353555], [72.7814802, 19.1353048], [72.7811106, 19.1350402], [72.7810868, 19.1348825], [72.7808603, 19.1346741], [72.7808364, 19.1342631], [72.7806517, 19.134325], [72.7805325, 19.1342405], [72.7803477, 19.1340265], [72.7802821, 19.1337619], [72.7803238, 19.1335986], [72.7806219, 19.1332213], [72.7808245, 19.1332776], [72.7809437, 19.13321], [72.7811345, 19.1326976], [72.7810987, 19.1325455], [72.7813788, 19.1323147], [72.781504, 19.1324329], [72.7818676, 19.1322471], [72.7818855, 19.1320218], [72.7822014, 19.1317009], [72.7822073, 19.1316108], [72.7828213, 19.1313517], [72.7829464, 19.1310533], [72.7832623, 19.1308224], [72.7835127, 19.1306816], [72.7836855, 19.130721], [72.7838524, 19.1305802], [72.7838286, 19.1307435], [72.783161, 19.1310138], [72.7831312, 19.1311434], [72.7827617, 19.1315657], [72.7823206, 19.1319148], [72.7821835, 19.1322978], [72.7823683, 19.1323653], [72.7825113, 19.1320894], [72.7829226, 19.1321288], [72.7832743, 19.1325624], [72.7832325, 19.1330636], [72.7833816, 19.133272], [72.7836379, 19.133379], [72.7837153, 19.1335535], [72.7837749, 19.1339759], [72.783316, 19.1344038], [72.7832087, 19.1348374]], [[72.8085748, 19.0745842], [72.8091594, 19.0749478], [72.8094668, 19.0749447], [72.8098174, 19.0748271], [72.8100783, 19.0748615], [72.8104637, 19.0746055], [72.8106244, 19.0746258], [72.8106819, 19.0747095], [72.8107037, 19.074912], [72.8102825, 19.0761644], [72.8097511, 19.0771466], [72.8098125, 19.0774358], [72.8101239, 19.0777625], [72.8100515, 19.0779399], [72.810117, 19.0786919], [72.8099371, 19.0787878], [72.8095716, 19.0785591], [72.8093787, 19.0783266], [72.809164, 19.0776825], [72.8090991, 19.0776587], [72.8090303, 19.0777742], [72.8093682, 19.0792579], [72.8093241, 19.0797001], [72.8092381, 19.0797537], [72.8091725, 19.0793317], [72.8088987, 19.07873], [72.8089278, 19.0779025], [72.8085961, 19.0771482], [72.8087111, 19.0769449], [72.8085665, 19.0761658], [72.8084263, 19.0760703], [72.8081218, 19.076092], [72.807888, 19.0759307], [72.807725, 19.0749755], [72.8077282, 19.0747739], [72.8078388, 19.0745925], [72.8082137, 19.0742937], [72.8084102, 19.0742595], [72.8085755, 19.0743523], [72.8085748, 19.0745842]]]}, "properties": {"osm_type": "relation", "osm_id": 7964375, "admin_level": "5", "boundary": "administrative", "name": "Mumbai Suburban District", "name:en": "Mumbai Suburban District", "name:kn": "ಮುಂಬೈ ಉಪನಗರ", "name:ko": "뭄바이 도시권", "name:mr": "मुंबई उपनगर जिल्हा", "ref:LGD:district": "483", "type": "boundary", "wikidata": "Q2085374", "wikipedia": "en:Mumbai Suburban district", "source_note": "Mumbai City District + Mumbai Suburban District == Greater Mumbai / MCGM jurisdiction"}}, {"type": "Feature", "geometry": {"type": "MultiLineString", "coordinates": [[[72.9053847, 18.9609037], [72.9051755, 18.9607274], [72.9048443, 18.9606843], [72.9047973, 18.9605802], [72.9044487, 18.9606884], [72.9040141, 18.9610419], [72.9036064, 18.9616495], [72.903589, 18.9617864], [72.903876, 18.9623902], [72.9037969, 18.9625804], [72.9035233, 18.9626315], [72.9033221, 18.9628024], [72.9026516, 18.962933], [72.9025523, 18.9630192], [72.9023431, 18.9637194], [72.9022372, 18.9636712], [72.9022734, 18.9633696], [72.9018872, 18.9633113], [72.9015934, 18.9635355], [72.901344, 18.9639033], [72.9012448, 18.963921], [72.9009417, 18.9637409], [72.9007834, 18.9637206], [72.9006922, 18.9638272], [72.9005393, 18.9636623], [72.9005232, 18.9635278], [72.900648, 18.9632783], [72.9006239, 18.9630678], [72.9000995, 18.9624193], [72.8998943, 18.9618223], [72.8999546, 18.9608923]], [[72.8999546, 18.9608923], [72.8994593, 18.9607105], [72.8992942, 18.9604749], [72.8988561, 18.9602364], [72.8983347, 18.9597789], [72.8982423, 18.9593431], [72.8986971, 18.9589555], [72.8987287, 18.9588332], [72.8986557, 18.9587189], [72.898823, 18.9585647], [72.8993416, 18.9586248], [72.9002798, 18.9582141], [72.901201, 18.9579715], [72.901544, 18.9575923], [72.9019651, 18.9573798], [72.9027482, 18.9584203]], [[72.9027482, 18.9584203], [72.9028246, 18.9585015], [72.9029266, 18.9584773], [72.9030137, 18.9583543], [72.9029641, 18.9579801], [72.9030566, 18.9575273], [72.9026597, 18.9566817], [72.9018965, 18.9553914]], [[72.9018965, 18.9553914], [72.9017611, 18.9551479], [72.901745, 18.9547432], [72.9018711, 18.9547179], [72.9020722, 18.9552417]], [[72.9020722, 18.9552417], [72.9025148, 18.9559647], [72.9026704, 18.9557884], [72.9027884, 18.9553677], [72.9030901, 18.9554624], [72.9037459, 18.957247], [72.9039578, 18.9573637], [72.9045452, 18.9573827], [72.9045533, 18.9570685], [72.9048403, 18.9569654], [72.9052828, 18.9578406], [72.9055792, 18.958249], [72.905881, 18.9581859]], [[72.905881, 18.9581859], [72.9059668, 18.9582608], [72.9067648, 18.9582329], [72.9068117, 18.9584054], [72.9067473, 18.958484], [72.9060231, 18.9585078], [72.9060405, 18.9589694], [72.9063021, 18.9591546], [72.9063329, 18.9592586], [72.9061733, 18.9596759], [72.9058394, 18.9601798], [72.9055028, 18.960521], [72.9053847, 18.9609037]], [[72.8095989, 18.9804], [72.8094036, 18.980162], [72.8060888, 18.9791435]], [[72.8097961, 18.9802474], [72.8089312, 18.9819517], [72.8089714, 18.9823841], [72.8091726, 18.9823587], [72.8091793, 18.9831399], [72.8086241, 18.9830715], [72.8085731, 18.9824361], [72.8086766, 18.9824299], [72.8086375, 18.982029], [72.8087045, 18.9818274], [72.8088708, 18.9818705], [72.8095989, 18.9804]], [[72.8105515, 18.980467], [72.8097961, 18.9802474]], [[72.8133891, 18.9868839], [72.8135182, 18.9863003], [72.8134888, 18.9860179], [72.8127616, 18.9849071], [72.8125665, 18.9843725], [72.8125425, 18.9841075], [72.812748, 18.9829278], [72.8127212, 18.9824876], [72.8125377, 18.9818901], [72.8121183, 18.9812684], [72.8116718, 18.9808529], [72.8113123, 18.9806639], [72.8105515, 18.980467]], [[72.8132603, 18.9871131], [72.8133891, 18.9868839]], [[72.8110204, 18.986933], [72.8113593, 18.9868409], [72.8115813, 18.9869007], [72.8120659, 18.9874738], [72.8123409, 18.9876414], [72.8126961, 18.9875389], [72.8132603, 18.9871131]], [[72.8123427, 18.992672], [72.8119753, 18.9923318], [72.811531, 18.9925192], [72.8111777, 18.9925585], [72.8110314, 18.9924867], [72.8105656, 18.9908119], [72.8096595, 18.9887617], [72.8096013, 18.9879419], [72.8098992, 18.9873429], [72.8101348, 18.9871272], [72.8104477, 18.9869938], [72.8110204, 18.986933]], [[72.8124058, 18.9937465], [72.8125647, 18.9935727], [72.8127883, 18.992753], [72.8123427, 18.992672]], [[72.8106341, 18.9966763], [72.8109956, 18.9953191], [72.8111324, 18.9935478], [72.8113918, 18.9934154], [72.8118072, 18.9934099], [72.8124058, 18.9937465]], [[72.8269446, 19.0193308], [72.8258286, 19.0186904], [72.8240347, 19.0178511], [72.8227553, 19.0175646], [72.8224844, 19.017524], [72.8223503, 19.017737], [72.8213283, 19.0178309], [72.8205237, 19.0180033], [72.82012, 19.0181808], [72.8195111, 19.0187564], [72.819196, 19.0191685], [72.8189841, 19.0196351], [72.8188607, 19.020288], [72.8187038, 19.0219819], [72.8184745, 19.022323], [72.8182827, 19.0223876], [72.8180346, 19.0226552], [72.8179166, 19.0229062], [72.8176296, 19.0231965], [72.8174204, 19.0237366]], [[72.8174204, 19.0237366], [72.817077, 19.0242463], [72.8167418, 19.0245734], [72.81609, 19.0249715], [72.8154174, 19.026015], [72.815583, 19.0261303], [72.8155348, 19.026214], [72.8153551, 19.0260771], [72.8150064, 19.0267769], [72.8149044, 19.0266958], [72.8150064, 19.0253037], [72.8153899, 19.0244669], [72.8158942, 19.0227731], [72.8158164, 19.0217638], [72.8158459, 19.0209549], [72.8160632, 19.0199001], [72.8159398, 19.0188781], [72.8160417, 19.0171183], [72.8161952, 19.0165525], [72.8164762, 19.0162231]], [[72.8164762, 19.0162231], [72.8175317, 19.0167937], [72.8178012, 19.0167088], [72.817816, 19.0164983], [72.8170221, 19.0162739], [72.816267, 19.0158606], [72.8161624, 19.015645]], [[72.8161624, 19.015645], [72.816503, 19.0141742], [72.8163836, 19.0141776], [72.8163517, 19.01349], [72.8161357, 19.0124695], [72.8158537, 19.011946], [72.815698, 19.0114269], [72.8153093, 19.01082], [72.814764, 19.010404], [72.8142518, 19.0096875], [72.8137247, 19.0095153], [72.8132566, 19.0096371], [72.8130206, 19.0099566], [72.8128394, 19.0100677], [72.8125807, 19.0100798], [72.8122638, 19.0099422], [72.8121503, 19.0095259], [72.8124091, 19.0085414], [72.8122875, 19.0084815]], [[72.8122875, 19.0084815], [72.8123382, 19.008327], [72.8121948, 19.0082012], [72.8122286, 19.0080742], [72.8122928, 19.0080143], [72.8124967, 19.0080566], [72.8124263, 19.0069259], [72.8120442, 19.0067357], [72.812091, 19.0066512], [72.8123763, 19.006627], [72.8123635, 19.0065545], [72.8122768, 19.0063399], [72.8121373, 19.0062702], [72.8121111, 19.0058794], [72.8117372, 19.00517], [72.810678, 19.0026458], [72.8102342, 19.000803], [72.8101619, 18.9998042], [72.8101973, 18.9987044], [72.8103186, 18.9978648], [72.8106341, 18.9966763]], [[72.838127, 19.0482578], [72.8381404, 19.048131], [72.8379929, 19.0480549], [72.8376308, 19.0481513], [72.8374431, 19.0483034], [72.8370461, 19.0482476], [72.8362782, 19.0474446], [72.8362208, 19.0472831], [72.8362895, 19.0467928], [72.8364735, 19.0462565], [72.8377065, 19.0440004], [72.8379069, 19.0432639], [72.8379594, 19.0426408], [72.8377743, 19.0425126], [72.8375825, 19.0420258], [72.8378373, 19.0396323], [72.8381002, 19.0381313], [72.838068, 19.0371475], [72.8378668, 19.0360319], [72.8378856, 19.0345968], [72.8378159, 19.033902], [72.8370702, 19.0314146], [72.8369442, 19.0312676], [72.8366867, 19.0313969], [72.8366384, 19.0312904], [72.8368074, 19.0311864], [72.836802, 19.0310089], [72.8365499, 19.0301899], [72.8361824, 19.0296169], [72.8354073, 19.0277253], [72.8347555, 19.0266476], [72.8344577, 19.0263839], [72.834321, 19.0263915], [72.8341064, 19.0258565], [72.8334787, 19.0249969], [72.833468, 19.0246875], [72.8327089, 19.024008], [72.8313357, 19.0225119], [72.8283798, 19.0202095], [72.8269446, 19.0193308]], [[72.838127, 19.0482578], [72.8384504, 19.0483201], [72.842162, 19.0509509], [72.8432184, 19.0510269]], [[72.8432184, 19.0510269], [72.8600583, 19.0522774], [72.8635585, 19.0523331]], [[72.8635585, 19.0523331], [72.8673767, 19.0523739]], [[72.8673767, 19.0523739], [72.8675257, 19.052585], [72.8679958, 19.0523663], [72.8685355, 19.0516883], [72.8688797, 19.0516823], [72.8688956, 19.0513873], [72.8697623, 19.0512998], [72.8702952, 19.0513405], [72.8709149, 19.051193], [72.8713518, 19.0508766], [72.8719925, 19.0499469], [72.8725514, 19.0500076], [72.8737027, 19.0498972], [72.8749758, 19.0494251], [72.8756593, 19.0489616], [72.8759547, 19.0488543], [72.8766932, 19.0490164], [72.8771277, 19.0484983], [72.8775355, 19.0481856], [72.8782318, 19.0478237]], [[72.8782318, 19.0478237], [72.8788416, 19.0478983], [72.8793204, 19.0477582], [72.8795718, 19.0475519], [72.8799872, 19.046915], [72.8800185, 19.0467832], [72.8797868, 19.0456349], [72.8799374, 19.0449487], [72.8800887, 19.0446488], [72.8800692, 19.0444321], [72.8802098, 19.0442852], [72.8803871, 19.0437975], [72.8807338, 19.042118], [72.8806859, 19.0415049], [72.8807821, 19.0413663], [72.8813816, 19.037515], [72.8812783, 19.0364933], [72.8808385, 19.034741], [72.8787844, 19.0306872], [72.8787476, 19.0303953], [72.8781304, 19.0286644], [72.8773778, 19.0255767], [72.8772822, 19.0246876], [72.8772976, 19.0238692], [72.8774511, 19.0231318], [72.8780772, 19.0217672], [72.8798635, 19.0193952], [72.8814802, 19.0178483], [72.8833055, 19.0164254], [72.8837499, 19.0159641], [72.8839504, 19.015618], [72.8842963, 19.0145194], [72.884546, 19.0116949], [72.8848346, 19.0102534], [72.884369, 19.0094658], [72.8839541, 19.0085518]], [[72.8702223, 19.0052781], [72.8709009, 19.0044641], [72.871191, 19.0043534], [72.8713133, 19.0044989], [72.8713113, 19.0053415], [72.8714347, 19.0058893], [72.8718799, 19.0065461], [72.8730628, 19.006574], [72.8732747, 19.0060947], [72.875289, 19.0059071], [72.8766864, 19.006006], [72.8784782, 19.0059045], [72.8787035, 19.0060567], [72.878902, 19.0069037], [72.8792775, 19.0070204], [72.8793901, 19.0067871], [72.879551, 19.0068073], [72.8803879, 19.0072232], [72.8811765, 19.0074616], [72.8820026, 19.007421], [72.8826141, 19.0078319], [72.8830647, 19.0084963], [72.88374, 19.008657], [72.8839541, 19.0085518]], [[72.8502774, 18.9799695], [72.856409, 18.9785795], [72.857692, 18.9783549], [72.8612014, 18.981601], [72.8570331, 18.9915975], [72.856938, 18.9915859], [72.8564545, 18.9927828], [72.8567362, 18.9929477], [72.8566423, 18.993465], [72.8570741, 18.993635], [72.8573263, 18.9934371], [72.8577983, 18.9934118], [72.8581456, 18.9939416], [72.8581604, 18.9942538], [72.8579861, 18.9945049], [72.8587317, 18.994827], [72.8590509, 18.99469], [72.8601614, 18.9946469], [72.861013, 18.9957248], [72.8619994, 18.9953168], [72.8620742, 18.9954745], [72.8610133, 18.9959317], [72.8600755, 18.9982939], [72.8607166, 19.0004597], [72.8609633, 19.001786], [72.8610948, 19.0021132], [72.8624305, 19.0019281], [72.8632861, 19.0019078], [72.8640479, 19.002065], [72.8643966, 19.0029881], [72.8649116, 19.0029019], [72.8653407, 19.0032722], [72.8657055, 19.0038605], [72.8658369, 19.0045579], [72.8659603, 19.0045858], [72.867642, 19.0038199], [72.8680792, 19.0039366], [72.8688678, 19.0047481], [72.8702223, 19.0052781]], [[72.8506789, 18.9703578], [72.85061, 18.9704629], [72.8504316, 18.9704286], [72.84983, 18.9716118], [72.8500367, 18.9720144], [72.8500977, 18.9724413], [72.8496848, 18.9727833], [72.8490449, 18.9727901], [72.8489486, 18.9729266], [72.8491398, 18.9733163], [72.8495287, 18.9730471], [72.8501332, 18.9731112], [72.8509342, 18.9726003], [72.8520396, 18.9721496], [72.8529784, 18.9721395], [72.8536382, 18.9723373], [72.8540503, 18.9726959], [72.8541324, 18.9737212], [72.8553362, 18.9745426], [72.8558658, 18.9753264], [72.8558788, 18.9756284], [72.8553365, 18.9766719], [72.8556313, 18.9777727], [72.8500736, 18.9790057], [72.8502774, 18.9799695]], [[72.8509755, 18.9676029], [72.851002, 18.9677041], [72.8507698, 18.9677567], [72.8508138, 18.9678495], [72.8522311, 18.9678004], [72.8522383, 18.9679616], [72.8521375, 18.9679684], [72.8521903, 18.968679], [72.852087, 18.9687562], [72.8507972, 18.9688317], [72.8506662, 18.9689049], [72.8507792, 18.970347], [72.8506789, 18.9703578]], [[72.8503531, 18.9662989], [72.8524986, 18.965819], [72.8526521, 18.9663229], [72.8525665, 18.9663453], [72.8526314, 18.9666086], [72.8527788, 18.9665895], [72.8527961, 18.9666544], [72.8529837, 18.9665357], [72.8530509, 18.9665879], [72.853207, 18.9665584], [72.853243, 18.9664744], [72.853339, 18.9665243], [72.8536007, 18.966429], [72.8535719, 18.9665243], [72.8527305, 18.9667252], [72.8528096, 18.9670431], [72.8509755, 18.9676029]], [[72.849456, 18.9639185], [72.8500285, 18.9658781], [72.8502568, 18.9658785], [72.8503531, 18.9662989]], [[72.849168, 18.9627218], [72.849456, 18.9639185]], [[72.8509637, 18.9587419], [72.850619, 18.9588255], [72.8503803, 18.9579291], [72.8495253, 18.9574359], [72.847972, 18.9579749], [72.849168, 18.9627218]], [[72.846812, 18.94803], [72.8464894, 18.9504897], [72.8461712, 18.9505691], [72.8464849, 18.9518188], [72.846686, 18.9519212], [72.8466794, 18.9520068], [72.8465701, 18.9520538], [72.8468893, 18.9534529], [72.8468716, 18.9540652], [72.847108, 18.9540464], [72.8471434, 18.95413], [72.8471169, 18.9541906], [72.8469067, 18.954202], [72.8469796, 18.9544774], [72.8471942, 18.9546796], [72.8479497, 18.9577642], [72.8490988, 18.957392], [72.849291, 18.9572123], [72.8490054, 18.9559078], [72.8493441, 18.9558415], [72.8496932, 18.9573837], [72.8503384, 18.9577326], [72.8507029, 18.9576679], [72.8509637, 18.9587419]], [[72.8320827, 18.9183468], [72.8336115, 18.9217861], [72.8337492, 18.9218822], [72.8341218, 18.9219454], [72.8344984, 18.9216417], [72.8349092, 18.9219519], [72.8346678, 18.9222945], [72.8349782, 18.9229279], [72.8343734, 18.9229324], [72.8342043, 18.9231274], [72.8349625, 18.9236755], [72.8377795, 18.920682], [72.8383201, 18.9203995], [72.8393447, 18.9203234], [72.840066, 18.9205525], [72.8403904, 18.9208099], [72.8405111, 18.920965], [72.840466, 18.9210519], [72.8444463, 18.9252994], [72.8445328, 18.9257715], [72.8444156, 18.9260187], [72.8443616, 18.9259624], [72.844394, 18.9255314], [72.8442074, 18.9252024], [72.8404252, 18.9212477], [72.840207, 18.9214185], [72.8402434, 18.9215476], [72.8400635, 18.921309], [72.8399063, 18.921415], [72.8400862, 18.9216537], [72.838789, 18.9242859], [72.8409202, 18.9250848], [72.8405541, 18.9260425], [72.8403226, 18.9259556], [72.8403983, 18.9257626], [72.8384454, 18.9250608], [72.8379833, 18.9262511], [72.8404968, 18.9274261], [72.8403752, 18.9276706], [72.8382342, 18.9267008], [72.8381123, 18.9269443], [72.8379805, 18.9268967], [72.837842, 18.9271641], [72.8379634, 18.9272361], [72.8377746, 18.9275975], [72.8368691, 18.9273109], [72.8367001, 18.9278552], [72.8365072, 18.9277678], [72.8364158, 18.9279062], [72.8364852, 18.9279934], [72.8363678, 18.9279695], [72.8362732, 18.9281161], [72.836798, 18.9284335], [72.8368609, 18.9285635], [72.8372332, 18.9286817], [72.8371587, 18.9288929], [72.8367482, 18.929179], [72.8369451, 18.9294016], [72.8375332, 18.9289565], [72.840088, 18.930883], [72.8398715, 18.9325257], [72.8402835, 18.9330119], [72.8409563, 18.9332969], [72.8412745, 18.9333178], [72.8420368, 18.9331632], [72.8422909, 18.9329667], [72.8429818, 18.9289474], [72.8440468, 18.9291512], [72.8440799, 18.929031], [72.8441959, 18.9290572], [72.8429451, 18.9358104], [72.8430869, 18.9358863], [72.8432402, 18.9358575], [72.8433241, 18.9354684], [72.8434132, 18.9353946], [72.8436319, 18.9354256], [72.8436929, 18.9355172], [72.846812, 18.94803]], [[72.8236431, 18.9089991], [72.8247547, 18.9078476], [72.8252766, 18.9076136], [72.8267866, 18.9104353], [72.8265687, 18.9105484], [72.82696, 18.9111765], [72.8294195, 18.9128818], [72.8312829, 18.915006], [72.8307912, 18.9153857], [72.830472, 18.9153629], [72.8299436, 18.9160848], [72.8314792, 18.9173763], [72.8318332, 18.917309], [72.832088, 18.9180919], [72.8328297, 18.9180499], [72.8328057, 18.9181873], [72.8320827, 18.9183468]], [[72.81804, 18.9022112], [72.818821, 18.9022767], [72.8174297, 18.9022937], [72.8174499, 18.902517], [72.8175934, 18.9025113], [72.8175974, 18.9027086], [72.8179166, 18.9027238], [72.8179206, 18.9028722], [72.8177623, 18.9028773], [72.8177624, 18.9029655], [72.8174204, 18.9029776], [72.8177717, 18.9041118], [72.817816, 18.9046149], [72.8175854, 18.9049346], [72.8176444, 18.9050513], [72.8178697, 18.9050513], [72.8180373, 18.9048706], [72.8182988, 18.9048534], [72.8186529, 18.9044982], [72.8187655, 18.9044423], [72.8189211, 18.9044931], [72.8186904, 18.9045692], [72.8183752, 18.9049365], [72.8174981, 18.9063144], [72.817525, 18.9068168], [72.8177154, 18.9069412], [72.8178468, 18.9073725], [72.8179982, 18.9075107], [72.8185345, 18.9069927], [72.8191594, 18.9075717], [72.8195543, 18.9072549], [72.8206052, 18.908278], [72.8203905, 18.9084856], [72.8201885, 18.9089261], [72.8202072, 18.9094279], [72.8204754, 18.9097172], [72.8207678, 18.9098948], [72.8210199, 18.9097102], [72.8221545, 18.9107753], [72.8224817, 18.9107778], [72.8225675, 18.9106636], [72.822597, 18.9101358], [72.8236431, 18.9089991]], [[72.8088641, 18.8935503], [72.8086388, 18.8929311], [72.8082901, 18.8925225], [72.8081077, 18.8921596], [72.8084511, 18.8925124], [72.8088587, 18.8927763], [72.8092423, 18.8928423], [72.8094649, 18.8930326], [72.8096098, 18.8932026], [72.8098109, 18.8937914], [72.8106505, 18.8945907], [72.8111413, 18.8948217], [72.8125066, 18.8947151], [72.8129303, 18.8948267], [72.813617, 18.8954104], [72.814663, 18.8966437], [72.8149366, 18.8977755], [72.81609, 18.8991255], [72.8163328, 18.8992733], [72.8166171, 18.8996184], [72.8170999, 18.900471], [72.8174593, 18.9009329], [72.8174767, 18.9021985], [72.81804, 18.9022112]], [[72.8046481, 18.899477], [72.8053021, 18.8981993], [72.8061497, 18.8969508], [72.8073031, 18.8956236], [72.8089768, 18.8941872], [72.8088641, 18.8935503]], [[72.8113908, 18.911808], [72.8108543, 18.9121303], [72.8091672, 18.9134472], [72.8087509, 18.9140286], [72.8085471, 18.9146867], [72.8144431, 18.9212825], [72.8143573, 18.9213383], [72.8060958, 18.9121484], [72.8053692, 18.9110366], [72.804392, 18.9092333], [72.8040013, 18.9081744], [72.8037223, 18.9070909], [72.8034916, 18.905203], [72.803597, 18.9033045], [72.8037787, 18.9021751], [72.8043702, 18.9000946], [72.8046481, 18.899477]], [[72.8154593, 18.9136424], [72.8153443, 18.9134256], [72.8155039, 18.9131427], [72.8149983, 18.9130691], [72.8150762, 18.9127213], [72.8149448, 18.9126705], [72.8148656, 18.912894], [72.8145692, 18.912856], [72.8143896, 18.9126984], [72.8144029, 18.9125629], [72.8142553, 18.9126402], [72.8140099, 18.9124348], [72.813916, 18.9124449], [72.813782, 18.9120935], [72.8136372, 18.9122112], [72.8133556, 18.9118928], [72.813255, 18.9119527], [72.8130565, 18.9119197], [72.8129251, 18.9116963], [72.8127507, 18.9118207], [72.8125281, 18.9118004], [72.8124504, 18.9116862], [72.8119835, 18.9116634], [72.8114726, 18.9119247], [72.8113908, 18.911808]], [[72.8208187, 18.919651], [72.8208429, 18.91975], [72.8206605, 18.9198413], [72.8184373, 18.9173784], [72.8170127, 18.9184023], [72.8168678, 18.9184255], [72.8165084, 18.9181463], [72.815744, 18.9171771], [72.8163796, 18.9161723], [72.8164515, 18.9154398], [72.8162938, 18.914962], [72.8156635, 18.9142109], [72.8153329, 18.914008], [72.815461, 18.9138075], [72.8154593, 18.9136424]], [[72.8209394, 18.9195622], [72.8225782, 18.9182935], [72.8225368, 18.9178823], [72.8228974, 18.9174968], [72.8224321, 18.9167851], [72.8219694, 18.9163144], [72.8216314, 18.9163867], [72.8207396, 18.9170033], [72.8202729, 18.917578], [72.819837, 18.9176516], [72.8196426, 18.9175691], [72.8194454, 18.917356], [72.8189036, 18.9178241], [72.8206336, 18.9197094], [72.8208187, 18.919651]], [[72.8247938, 18.9225828], [72.8249681, 18.922508], [72.8252149, 18.922135], [72.8249531, 18.9209029], [72.8249949, 18.9205923], [72.8256217, 18.9202534], [72.8255714, 18.9197504], [72.8253879, 18.9194708], [72.8252622, 18.919436], [72.8244144, 18.9199525], [72.8244754, 18.9197937], [72.8242654, 18.9194226], [72.8230691, 18.9179663], [72.8227124, 18.9181311], [72.8226534, 18.9183544], [72.8215134, 18.9192476], [72.820977, 18.9196231], [72.8209394, 18.9195622]], [[72.8181514, 18.9252657], [72.8183686, 18.9254774], [72.8185845, 18.9253588], [72.8198236, 18.924298], [72.8199886, 18.9242802], [72.8208818, 18.9235571], [72.8221169, 18.9235229], [72.8233749, 18.9226069], [72.824555, 18.9226399], [72.8247938, 18.9225828]], [[72.8234406, 18.9414418], [72.823745, 18.9399811], [72.8238711, 18.9387647], [72.8238469, 18.9364242], [72.8235331, 18.9344124], [72.8231268, 18.9329634], [72.8223288, 18.9310913], [72.8213927, 18.9294904], [72.8208482, 18.928648], [72.8179514, 18.9254233], [72.8179729, 18.9253142], [72.8181514, 18.9252657]], [[72.8187309, 18.9492881], [72.8197861, 18.9480232], [72.8214865, 18.9456497], [72.8227285, 18.943231], [72.8234406, 18.9414418]], [[72.7938221, 18.9392745], [72.7940798, 18.9393317], [72.7943967, 18.9396638], [72.7948093, 18.9406763], [72.7952921, 18.9419651], [72.7954182, 18.9431676], [72.7955577, 18.9435735], [72.7963167, 18.9446568], [72.7973923, 18.9458491], [72.7979698, 18.9472361], [72.7995703, 18.9483353], [72.8000692, 18.9485331], [72.8016605, 18.9489076], [72.8021559, 18.9492561], [72.8025475, 18.9498371], [72.8035694, 18.9507275], [72.8043094, 18.9510264], [72.8044076, 18.9511575], [72.8044385, 18.9515773], [72.8052083, 18.9526326], [72.8064448, 18.9531324], [72.8068203, 18.9534191], [72.807354, 18.9540086], [72.8076767, 18.9547243], [72.8078033, 18.9546697], [72.8082539, 18.9551466], [72.8100574, 18.9546936], [72.8125382, 18.9539079], [72.8148843, 18.9528283], [72.8160069, 18.9516966], [72.8176725, 18.9504839], [72.8187309, 18.9492881]], [[72.8046826, 18.977986], [72.8040779, 18.9770872], [72.8014608, 18.9718399], [72.800322, 18.9678155], [72.7991924, 18.9634299], [72.7987571, 18.9612979], [72.7987132, 18.960476], [72.7987895, 18.9600022], [72.7994709, 18.9590492], [72.7991143, 18.9589796], [72.7988981, 18.9593251], [72.798712, 18.9591832], [72.7984484, 18.9592759], [72.7985044, 18.9585944], [72.7980171, 18.9580284], [72.7970271, 18.9566073], [72.796255, 18.9562247], [72.7960351, 18.9559558], [72.7956408, 18.9552303], [72.7956247, 18.9549766], [72.7948067, 18.9539188], [72.7948791, 18.9538402], [72.7938116, 18.9527087], [72.7933234, 18.9523435], [72.7921486, 18.9499208], [72.7919367, 18.9491673], [72.7919421, 18.9489289], [72.7916763, 18.9488968], [72.7917855, 18.9482182], [72.7920332, 18.9482389], [72.7922022, 18.9478], [72.792331, 18.9467446], [72.7922264, 18.9463489], [72.7923551, 18.9457349], [72.7922854, 18.9454457], [72.7926019, 18.9452123], [72.7933046, 18.9442813], [72.7933368, 18.9440276], [72.793436, 18.9439895], [72.7933663, 18.9437891], [72.7935085, 18.9437485], [72.7930123, 18.9424953], [72.7930847, 18.9416885], [72.7926448, 18.9410289], [72.7922934, 18.9403084], [72.7922988, 18.9395397], [72.7925375, 18.9392911], [72.7927923, 18.939319], [72.7929935, 18.9392048], [72.7933878, 18.9391541], [72.7938221, 18.9392745]], [[72.8060888, 18.9791435], [72.8051102, 18.9784874], [72.8046826, 18.977986]]]}, "properties": {"osm_type": "relation", "osm_id": 7964376, "admin_level": "5", "boundary": "administrative", "name": "Mumbai City District", "name:en": "Mumbai City District", "name:kn": "ಮುಂಬೈ ನಗರ", "name:mr": "मुंबई शहर जिल्हा", "ref:LGD:district": "482", "type": "boundary", "wikidata": "Q2341660", "wikipedia": "en:Mumbai City district", "source_note": "Mumbai City District + Mumbai Suburban District == Greater Mumbai / MCGM jurisdiction"}}]}