{"type": "FeatureCollection", "features": [{"type": "Feature", "geometry": {"type": "Point", "coordinates": [72.8502510067114, 19.035763087248323]}, "properties": {"node_id": 0, "t_min": 0, "depth_m": 0.0, "depth_category": "0-15cm", "landcover_class": 50, "runoff_coeff": 0.85, "runoff_coeff_provenance": "ESTIMATED (literature-typical per-class assumption)", "inflow_m3s": 0.0, "capacity_m3s": 0.15, "surcharge_m3s": 0.0, "is_sink": false, "role": "headwater inlet", "provenance": "SIMULATED", "rainfall_scenario": "observed"}}, {"type": "Feature", "geometry": {"type": "Point", "coordinates": [72.84998255033557, 19.036031543624162]}, "properties": {"node_id": 1, "t_min": 0, "depth_m": 0.0, "depth_category": "0-15cm", "landcover_class": 50, "runoff_coeff": 0.85, "runoff_coeff_provenance": "ESTIMATED (literature-typical per-class assumption)", "inflow_m3s": 0.0, "capacity_m3s": 0.15, "surcharge_m3s": 0.0, "is_sink": true, "role": "sink / potential surcharge & ponding point", "provenance": "SIMULATED", "rainfall_scenario": "observed"}}, {"type": "Feature", "geometry": {"type": "Point", "coordinates": [72.85186174496644, 19.03415234899329]}, "properties": {"node_id": 2, "t_min": 0, "depth_m": 0.0, "depth_category": "0-15cm", "landcover_class": 50, "runoff_coeff": 0.85, "runoff_coeff_provenance": "ESTIMATED (literature-typical per-class assumption)", "inflow_m3s": 0.0, "capacity_m3s": 0.125, "surcharge_m3s": 0.0, "is_sink": false, "role": "headwater inlet", "provenance": "SIMULATED", "rainfall_scenario": "observed"}}, {"type": "Feature", "geometry": {"type": "Point", "coordinates": [72.85186174496644, 19.03388389261745]}, "properties": {"node_id": 3, "t_min": 0, "depth_m": 0.0, "depth_category": "0-15cm", "landcover_class": 50, "runoff_coeff": 0.85, "runoff_coeff_provenance": "ESTIMATED (literature-typical per-class assumption)", "inflow_m3s": 0.0, "capacity_m3s": 0.125, "surcharge_m3s": 0.0, "is_sink": true, "role": "sink / potential surcharge & ponding point", "provenance": "SIMULATED", "rainfall_scenario": "observed"}}, {"type": "Feature", "geometry": {"type": "Point", "coordinates": [72.85078791946309, 19.033346979865772]}, "properties": {"node_id": 4, "t_min": 0, "depth_m": 0.0, "depth_category": "0-15cm", "landcover_class": 50, "runoff_coeff": 0.85, "runoff_coeff_provenance": "ESTIMATED (literature-typical per-class assumption)", "inflow_m3s": 0.0, "capacity_m3s": 0.125, "surcharge_m3s": 0.0, "is_sink": false, "role": "headwater inlet", "provenance": "SIMULATED", "rainfall_scenario": "observed"}}, {"type": "Feature", "geometry": {"type": "Point", "coordinates": [72.85105637583892, 19.033346979865772]}, "properties": {"node_id": 5, "t_min": 0, "depth_m": 0.0, "depth_category": "0-15cm", "landcover_class": 50, "runoff_coeff": 0.85, "runoff_coeff_provenance": "ESTIMATED (literature-typical per-class assumption)", "inflow_m3s": 0.0, "capacity_m3s": 0.175, "surcharge_m3s": 0.0, "is_sink": false, "role": "junction", "provenance": "SIMULATED", "rainfall_scenario": "observed"}}, {"type": "Feature", "geometry": {"type": "Point", "coordinates": [72.85132483221476, 19.033346979865772]}, "properties": {"node_id": 6, "t_min": 0, "depth_m": 0.0, "depth_category": "0-15cm", "landcover_class": 50, "runoff_coeff": 0.85, "runoff_coeff_provenance": "ESTIMATED (literature-typical per-class assumption)", "inflow_m3s": 0.0, "capacity_m3s": 0.175, "surcharge_m3s": 0.0, "is_sink": true, "role": "sink / potential surcharge & ponding point", "provenance": "SIMULATED", "rainfall_scenario": "observed"}}, {"type": "Feature", "geometry": {"type": "Point", "coordinates": [72.84917718120805, 19.033078523489934]}, "properties": {"node_id": 7, "t_min": 0, "depth_m": 0.0, "depth_category": "0-15cm", "landcover_class": 10, "runoff_coeff": 0.15, "runoff_coeff_provenance": "ESTIMATED (literature-typical per-class assumption)", "inflow_m3s": 0.0, "capacity_m3s": 0.125, "surcharge_m3s": 0.0, "is_sink": false, "role": "headwater inlet", "provenance": "SIMULATED", "rainfall_scenario": "observed"}}, {"type": "Feature", "geometry": {"type": "Point", "coordinates": [72.84890872483221, 19.033078523489934]}, "properties": {"node_id": 8, "t_min": 0, "depth_m": 0.0, "depth_category": "0-15cm", "landcover_class": 10, "runoff_coeff": 0.15, "runoff_coeff_provenance": "ESTIMATED (literature-typical per-class assumption)", "inflow_m3s": 0.0, "capacity_m3s": 0.125, "surcharge_m3s": 0.0, "is_sink": true, "role": "sink / potential surcharge & ponding point", "provenance": "SIMULATED", "rainfall_scenario": "observed"}}, {"type": "Feature", "geometry": {"type": "Point", "coordinates": [72.84729798657717, 19.0314677852349]}, "properties": {"node_id": 9, "t_min": 0, "depth_m": 0.0, "depth_category": "0-15cm", "landcover_class": 50, "runoff_coeff": 0.85, "runoff_coeff_provenance": "ESTIMATED (literature-typical per-class assumption)", "inflow_m3s": 0.0, "capacity_m3s": 0.125, "surcharge_m3s": 0.0, "is_sink": false, "role": "headwater inlet", "provenance": "SIMULATED", "rainfall_scenario": "observed"}}, {"type": "Feature", "geometry": {"type": "Point", "coordinates": [72.84756644295302, 19.03119932885906]}, "properties": {"node_id": 10, "t_min": 0, "depth_m": 0.0, "depth_category": "0-15cm", "landcover_class": 50, "runoff_coeff": 0.85, "runoff_coeff_provenance": "ESTIMATED (literature-typical per-class assumption)", "inflow_m3s": 0.0, "capacity_m3s": 0.125, "surcharge_m3s": 0.0, "is_sink": true, "role": "sink / potential surcharge & ponding point", "provenance": "SIMULATED", "rainfall_scenario": "observed"}}, {"type": "Feature", "geometry": {"type": "Point", "coordinates": [72.8467610738255, 19.030393959731544]}, "properties": {"node_id": 11, "t_min": 0, "depth_m": 0.0, "depth_category": "0-15cm", "landcover_class": 50, "runoff_coeff": 0.85, "runoff_coeff_provenance": "ESTIMATED (literature-typical per-class assumption)", "inflow_m3s": 0.0, "capacity_m3s": 0.15, "surcharge_m3s": 0.0, "is_sink": false, "role": "headwater inlet", "provenance": "SIMULATED", "rainfall_scenario": "observed"}}, {"type": "Feature", "geometry": {"type": "Point", "coordinates": [72.84702953020134, 19.030393959731544]}, "properties": {"node_id": 12, "t_min": 0, "depth_m": 0.0, "depth_category": "0-15cm", "landcover_class": 50, "runoff_coeff": 0.85, "runoff_coeff_provenance": "ESTIMATED (literature-typical per-class assumption)", "inflow_m3s": 0.0, "capacity_m3s": 0.1875, "surcharge_m3s": 0.0, "is_sink": false, "role": "junction", "provenance": "SIMULATED", "rainfall_scenario": "observed"}}, {"type": "Feature", "geometry": {"type": "Point", "coordinates": [72.84729798657717, 19.030393959731544]}, "properties": {"node_id": 13, "t_min": 0, "depth_m": 0.0, "depth_category": "0-15cm", "landcover_class": 50, "runoff_coeff": 0.85, "runoff_coeff_provenance": "ESTIMATED (literature-typical per-class assumption)", "inflow_m3s": 0.0, "capacity_m3s": 0.1875, "surcharge_m3s": 0.0, "is_sink": true, "role": "sink / potential surcharge & ponding point", "provenance": "SIMULATED", "rainfall_scenario": "observed"}}, {"type": "Feature", "geometry": {"type": "Point", "coordinates": [72.83629127516778, 19.027977852348993]}, "properties": {"node_id": 14, "t_min": 0, "depth_m": 0.0, "depth_category": "0-15cm", "landcover_class": 50, "runoff_coeff": 0.85, "runoff_coeff_provenance": "ESTIMATED (literature-typical per-class assumption)", "inflow_m3s": 0.0, "capacity_m3s": 0.175, "surcharge_m3s": 0.0, "is_sink": false, "role": "headwater inlet", "provenance": "SIMULATED", "rainfall_scenario": "observed"}}, {"type": "Feature", "geometry": {"type": "Point", "coordinates": [72.83602281879195, 19.027977852348993]}, "properties": {"node_id": 15, "t_min": 0, "depth_m": 0.0, "depth_category": "0-15cm", "landcover_class": 50, "runoff_coeff": 0.85, "runoff_coeff_provenance": "ESTIMATED (literature-typical per-class assumption)", "inflow_m3s": 0.0, "capacity_m3s": 0.175, "surcharge_m3s": 0.0, "is_sink": true, "role": "sink / potential surcharge & ponding point", "provenance": "SIMULATED", "rainfall_scenario": "observed"}}, {"type": "Feature", "geometry": {"type": "Point", "coordinates": [72.86072080536913, 19.027440939597316]}, "properties": {"node_id": 16, "t_min": 0, "depth_m": 0.0, "depth_category": "0-15cm", "landcover_class": 50, "runoff_coeff": 0.85, "runoff_coeff_provenance": "ESTIMATED (literature-typical per-class assumption)", "inflow_m3s": 0.0, "capacity_m3s": 0.15, "surcharge_m3s": 0.0, "is_sink": false, "role": "headwater inlet", "provenance": "SIMULATED", "rainfall_scenario": "observed"}}, {"type": "Feature", "geometry": {"type": "Point", "coordinates": [72.86098926174496, 19.027172483221477]}, "properties": {"node_id": 17, "t_min": 0, "depth_m": 0.0, "depth_category": "0-15cm", "landcover_class": 50, "runoff_coeff": 0.85, "runoff_coeff_provenance": "ESTIMATED (literature-typical per-class assumption)", "inflow_m3s": 0.0, "capacity_m3s": 0.2125, "surcharge_m3s": 0.0, "is_sink": false, "role": "junction", "provenance": "SIMULATED", "rainfall_scenario": "observed"}}, {"type": "Feature", "geometry": {"type": "Point", "coordinates": [72.86125771812081, 19.027172483221477]}, "properties": {"node_id": 18, "t_min": 0, "depth_m": 0.0, "depth_category": "0-15cm", "landcover_class": 10, "runoff_coeff": 0.15, "runoff_coeff_provenance": "ESTIMATED (literature-typical per-class assumption)", "inflow_m3s": 0.0, "capacity_m3s": 0.2125, "surcharge_m3s": 0.0, "is_sink": true, "role": "sink / potential surcharge & ponding point", "provenance": "SIMULATED", "rainfall_scenario": "observed"}}, {"type": "Feature", "geometry": {"type": "Point", "coordinates": [72.84971409395973, 19.025830201342284]}, "properties": {"node_id": 19, "t_min": 0, "depth_m": 0.0, "depth_category": "0-15cm", "landcover_class": 50, "runoff_coeff": 0.85, "runoff_coeff_provenance": "ESTIMATED (literature-typical per-class assumption)", "inflow_m3s": 0.0, "capacity_m3s": 0.1625, "surcharge_m3s": 0.0, "is_sink": false, "role": "headwater inlet", "provenance": "SIMULATED", "rainfall_scenario": "observed"}}, {"type": "Feature", "geometry": {"type": "Point", "coordinates": [72.8494456375839, 19.025830201342284]}, "properties": {"node_id": 20, "t_min": 0, "depth_m": 0.0, "depth_category": "0-15cm", "landcover_class": 50, "runoff_coeff": 0.85, "runoff_coeff_provenance": "ESTIMATED (literature-typical per-class assumption)", "inflow_m3s": 0.0, "capacity_m3s": 0.1625, "surcharge_m3s": 0.0, "is_sink": true, "role": "sink / potential surcharge & ponding point", "provenance": "SIMULATED", "rainfall_scenario": "observed"}}, {"type": "Feature", "geometry": {"type": "Point", "coordinates": [72.83387516778524, 19.025024832214765]}, "properties": {"node_id": 21, "t_min": 0, "depth_m": 0.0, "depth_category": "0-15cm", "landcover_class": 10, "runoff_coeff": 0.15, "runoff_coeff_provenance": "ESTIMATED (literature-typical per-class assumption)", "inflow_m3s": 0.0, "capacity_m3s": 0.175, "surcharge_m3s": 0.0, "is_sink": false, "role": "junction", "provenance": "SIMULATED", "rainfall_scenario": "observed"}}, {"type": "Feature", "geometry": {"type": "Point", "coordinates": [72.83360671140939, 19.025024832214765]}, "properties": {"node_id": 22, "t_min": 0, "depth_m": 0.0, "depth_category": "0-15cm", "landcover_class": 80, "runoff_coeff": 1.0, "runoff_coeff_provenance": "ESTIMATED (literature-typical per-class assumption)", "inflow_m3s": 0.0, "capacity_m3s": 0.175, "surcharge_m3s": 0.0, "is_sink": true, "role": "sink / potential surcharge & ponding point", "provenance": "SIMULATED", "rainfall_scenario": "observed"}}, {"type": "Feature", "geometry": {"type": "Point", "coordinates": [72.85374093959732, 19.025024832214765]}, "properties": {"node_id": 23, "t_min": 0, "depth_m": 0.0, "depth_category": "0-15cm", "landcover_class": 50, "runoff_coeff": 0.85, "runoff_coeff_provenance": "ESTIMATED (literature-typical per-class assumption)", "inflow_m3s": 0.0, "capacity_m3s": 0.125, "surcharge_m3s": 0.0, "is_sink": false, "role": "headwater inlet", "provenance": "SIMULATED", "rainfall_scenario": "observed"}}, {"type": "Feature", "geometry": {"type": "Point", "coordinates": [72.85347248322148, 19.025024832214765]}, "properties": {"node_id": 24, "t_min": 0, "depth_m": 0.0, "depth_category": "0-15cm", "landcover_class": 50, "runoff_coeff": 0.85, "runoff_coeff_provenance": "ESTIMATED (literature-typical per-class assumption)", "inflow_m3s": 0.0, "capacity_m3s": 0.125, "surcharge_m3s": 0.0, "is_sink": true, "role": "sink / potential surcharge & ponding point", "provenance": "SIMULATED", "rainfall_scenario": "observed"}}, {"type": "Feature", "geometry": {"type": "Point", "coordinates": [72.83414362416107, 19.024756375838926]}, "properties": {"node_id": 25, "t_min": 0, "depth_m": 0.0, "depth_category": "0-15cm", "landcover_class": 10, "runoff_coeff": 0.15, "runoff_coeff_provenance": "ESTIMATED (literature-typical per-class assumption)", "inflow_m3s": 0.0, "capacity_m3s": 0.1625, "surcharge_m3s": 0.0, "is_sink": false, "role": "headwater inlet", "provenance": "SIMULATED", "rainfall_scenario": "observed"}}, {"type": "Feature", "geometry": {"type": "Point", "coordinates": [72.85535167785235, 19.024487919463088]}, "properties": {"node_id": 26, "t_min": 0, "depth_m": 0.0, "depth_category": "0-15cm", "landcover_class": 50, "runoff_coeff": 0.85, "runoff_coeff_provenance": "ESTIMATED (literature-typical per-class assumption)", "inflow_m3s": 0.0, "capacity_m3s": 0.1375, "surcharge_m3s": 0.0, "is_sink": false, "role": "junction", "provenance": "SIMULATED", "rainfall_scenario": "observed"}}, {"type": "Feature", "geometry": {"type": "Point", "coordinates": [72.85562013422819, 19.024487919463088]}, "properties": {"node_id": 27, "t_min": 0, "depth_m": 0.0, "depth_category": "0-15cm", "landcover_class": 50, "runoff_coeff": 0.85, "runoff_coeff_provenance": "ESTIMATED (literature-typical per-class assumption)", "inflow_m3s": 0.0, "capacity_m3s": 0.2125, "surcharge_m3s": 0.0, "is_sink": false, "role": "junction", "provenance": "SIMULATED", "rainfall_scenario": "observed"}}, {"type": "Feature", "geometry": {"type": "Point", "coordinates": [72.85562013422819, 19.024756375838926]}, "properties": {"node_id": 28, "t_min": 0, "depth_m": 0.0, "depth_category": "0-15cm", "landcover_class": 50, "runoff_coeff": 0.85, "runoff_coeff_provenance": "ESTIMATED (literature-typical per-class assumption)", "inflow_m3s": 0.0, "capacity_m3s": 0.2125, "surcharge_m3s": 0.0, "is_sink": true, "role": "sink / potential surcharge & ponding point", "provenance": "SIMULATED", "rainfall_scenario": "observed"}}, {"type": "Feature", "geometry": {"type": "Point", "coordinates": [72.85186174496644, 19.02421946308725]}, "properties": {"node_id": 29, "t_min": 0, "depth_m": 0.0, "depth_category": "0-15cm", "landcover_class": 50, "runoff_coeff": 0.85, "runoff_coeff_provenance": "ESTIMATED (literature-typical per-class assumption)", "inflow_m3s": 0.0, "capacity_m3s": 0.1875, "surcharge_m3s": 0.0, "is_sink": false, "role": "headwater inlet", "provenance": "SIMULATED", "rainfall_scenario": "observed"}}, {"type": "Feature", "geometry": {"type": "Point", "coordinates": [72.85213020134228, 19.02395100671141]}, "properties": {"node_id": 30, "t_min": 0, "depth_m": 0.0, "depth_category": "0-15cm", "landcover_class": 50, "runoff_coeff": 0.85, "runoff_coeff_provenance": "ESTIMATED (literature-typical per-class assumption)", "inflow_m3s": 0.0, "capacity_m3s": 0.1875, "surcharge_m3s": 0.0, "is_sink": true, "role": "sink / potential surcharge & ponding point", "provenance": "SIMULATED", "rainfall_scenario": "observed"}}, {"type": "Feature", "geometry": {"type": "Point", "coordinates": [72.8550832214765, 19.02421946308725]}, "properties": {"node_id": 31, "t_min": 0, "depth_m": 0.0, "depth_category": "0-15cm", "landcover_class": 50, "runoff_coeff": 0.85, "runoff_coeff_provenance": "ESTIMATED (literature-typical per-class assumption)", "inflow_m3s": 0.0, "capacity_m3s": 0.125, "surcharge_m3s": 0.0, "is_sink": false, "role": "headwater inlet", "provenance": "SIMULATED", "rainfall_scenario": "observed"}}, {"type": "Feature", "geometry": {"type": "Point", "coordinates": [72.85857315436242, 19.02395100671141]}, "properties": {"node_id": 32, "t_min": 0, "depth_m": 0.0, "depth_category": "0-15cm", "landcover_class": 50, "runoff_coeff": 0.85, "runoff_coeff_provenance": "ESTIMATED (literature-typical per-class assumption)", "inflow_m3s": 0.0, "capacity_m3s": 0.15, "surcharge_m3s": 0.0, "is_sink": false, "role": "headwater inlet", "provenance": "SIMULATED", "rainfall_scenario": "observed"}}, {"type": "Feature", "geometry": {"type": "Point", "coordinates": [72.85884161073825, 19.02395100671141]}, "properties": {"node_id": 33, "t_min": 0, "depth_m": 0.0, "depth_category": "0-15cm", "landcover_class": 50, "runoff_coeff": 0.85, "runoff_coeff_provenance": "ESTIMATED (literature-typical per-class assumption)", "inflow_m3s": 0.0, "capacity_m3s": 0.15, "surcharge_m3s": 0.0, "is_sink": true, "role": "sink / potential surcharge & ponding point", "provenance": "SIMULATED", "rainfall_scenario": "observed"}}, {"type": "Feature", "geometry": {"type": "Point", "coordinates": [72.85320402684563, 19.02368255033557]}, "properties": {"node_id": 34, "t_min": 0, "depth_m": 0.0, "depth_category": "0-15cm", "landcover_class": 50, "runoff_coeff": 0.85, "runoff_coeff_provenance": "ESTIMATED (literature-typical per-class assumption)", "inflow_m3s": 0.0, "capacity_m3s": 0.125, "surcharge_m3s": 0.0, "is_sink": false, "role": "headwater inlet", "provenance": "SIMULATED", "rainfall_scenario": "observed"}}, {"type": "Feature", "geometry": {"type": "Point", "coordinates": [72.8529355704698, 19.02368255033557]}, "properties": {"node_id": 35, "t_min": 0, "depth_m": 0.0, "depth_category": "0-15cm", "landcover_class": 50, "runoff_coeff": 0.85, "runoff_coeff_provenance": "ESTIMATED (literature-typical per-class assumption)", "inflow_m3s": 0.0, "capacity_m3s": 0.125, "surcharge_m3s": 0.0, "is_sink": true, "role": "sink / potential surcharge & ponding point", "provenance": "SIMULATED", "rainfall_scenario": "observed"}}, {"type": "Feature", "geometry": {"type": "Point", "coordinates": [72.84864026845638, 19.023145637583895]}, "properties": {"node_id": 36, "t_min": 0, "depth_m": 0.0, "depth_category": "0-15cm", "landcover_class": 50, "runoff_coeff": 0.85, "runoff_coeff_provenance": "ESTIMATED (literature-typical per-class assumption)", "inflow_m3s": 0.0, "capacity_m3s": 0.225, "surcharge_m3s": 0.0, "is_sink": false, "role": "junction", "provenance": "SIMULATED", "rainfall_scenario": "observed"}}, {"type": "Feature", "geometry": {"type": "Point", "coordinates": [72.84864026845638, 19.023414093959733]}, "properties": {"node_id": 37, "t_min": 0, "depth_m": 0.0, "depth_category": "0-15cm", "landcover_class": 30, "runoff_coeff": 0.25, "runoff_coeff_provenance": "ESTIMATED (literature-typical per-class assumption)", "inflow_m3s": 0.0, "capacity_m3s": 0.225, "surcharge_m3s": 0.0, "is_sink": true, "role": "sink / potential surcharge & ponding point", "provenance": "SIMULATED", "rainfall_scenario": "observed"}}, {"type": "Feature", "geometry": {"type": "Point", "coordinates": [72.84864026845638, 19.022877181208056]}, "properties": {"node_id": 38, "t_min": 0, "depth_m": 0.0, "depth_category": "0-15cm", "landcover_class": 10, "runoff_coeff": 0.15, "runoff_coeff_provenance": "ESTIMATED (literature-typical per-class assumption)", "inflow_m3s": 0.0, "capacity_m3s": 0.1875, "surcharge_m3s": 0.0, "is_sink": false, "role": "junction", "provenance": "SIMULATED", "rainfall_scenario": "observed"}}, {"type": "Feature", "geometry": {"type": "Point", "coordinates": [72.84864026845638, 19.022608724832217]}, "properties": {"node_id": 39, "t_min": 0, "depth_m": 0.0, "depth_category": "0-15cm", "landcover_class": 10, "runoff_coeff": 0.15, "runoff_coeff_provenance": "ESTIMATED (literature-typical per-class assumption)", "inflow_m3s": 0.0, "capacity_m3s": 0.1375, "surcharge_m3s": 0.0, "is_sink": false, "role": "headwater inlet", "provenance": "SIMULATED", "rainfall_scenario": "observed"}}, {"type": "Feature", "geometry": {"type": "Point", "coordinates": [72.85320402684563, 19.022608724832217]}, "properties": {"node_id": 40, "t_min": 0, "depth_m": 0.0, "depth_category": "0-15cm", "landcover_class": 50, "runoff_coeff": 0.85, "runoff_coeff_provenance": "ESTIMATED (literature-typical per-class assumption)", "inflow_m3s": 0.0, "capacity_m3s": 0.1375, "surcharge_m3s": 0.0, "is_sink": false, "role": "headwater inlet", "provenance": "SIMULATED", "rainfall_scenario": "observed"}}, {"type": "Feature", "geometry": {"type": "Point", "coordinates": [72.8529355704698, 19.022877181208056]}, "properties": {"node_id": 41, "t_min": 0, "depth_m": 0.0, "depth_category": "0-15cm", "landcover_class": 50, "runoff_coeff": 0.85, "runoff_coeff_provenance": "ESTIMATED (literature-typical per-class assumption)", "inflow_m3s": 0.0, "capacity_m3s": 0.1375, "surcharge_m3s": 0.0, "is_sink": true, "role": "sink / potential surcharge & ponding point", "provenance": "SIMULATED", "rainfall_scenario": "observed"}}, {"type": "Feature", "geometry": {"type": "Point", "coordinates": [72.85830469798658, 19.022071812080537]}, "properties": {"node_id": 42, "t_min": 0, "depth_m": 0.0, "depth_category": "0-15cm", "landcover_class": 10, "runoff_coeff": 0.15, "runoff_coeff_provenance": "ESTIMATED (literature-typical per-class assumption)", "inflow_m3s": 0.0, "capacity_m3s": 0.15, "surcharge_m3s": 0.0, "is_sink": false, "role": "junction", "provenance": "SIMULATED", "rainfall_scenario": "observed"}}, {"type": "Feature", "geometry": {"type": "Point", "coordinates": [72.85830469798658, 19.022340268456375]}, "properties": {"node_id": 43, "t_min": 0, "depth_m": 0.0, "depth_category": "0-15cm", "landcover_class": 50, "runoff_coeff": 0.85, "runoff_coeff_provenance": "ESTIMATED (literature-typical per-class assumption)", "inflow_m3s": 0.0, "capacity_m3s": 0.15, "surcharge_m3s": 0.0, "is_sink": true, "role": "sink / potential surcharge & ponding point", "provenance": "SIMULATED", "rainfall_scenario": "observed"}}, {"type": "Feature", "geometry": {"type": "Point", "coordinates": [72.85803624161073, 19.021803355704698]}, "properties": {"node_id": 44, "t_min": 0, "depth_m": 0.0, "depth_category": "0-15cm", "landcover_class": 10, "runoff_coeff": 0.15, "runoff_coeff_provenance": "ESTIMATED (literature-typical per-class assumption)", "inflow_m3s": 0.0, "capacity_m3s": 0.125, "surcharge_m3s": 0.0, "is_sink": false, "role": "headwater inlet", "provenance": "SIMULATED", "rainfall_scenario": "observed"}}, {"type": "Feature", "geometry": {"type": "Point", "coordinates": [72.8467610738255, 19.02126644295302]}, "properties": {"node_id": 45, "t_min": 0, "depth_m": 0.0, "depth_category": "0-15cm", "landcover_class": 10, "runoff_coeff": 0.15, "runoff_coeff_provenance": "ESTIMATED (literature-typical per-class assumption)", "inflow_m3s": 0.0, "capacity_m3s": 0.2375, "surcharge_m3s": 0.0, "is_sink": false, "role": "junction", "provenance": "SIMULATED", "rainfall_scenario": "observed"}}, {"type": "Feature", "geometry": {"type": "Point", "coordinates": [72.84649261744966, 19.02126644295302]}, "properties": {"node_id": 46, "t_min": 0, "depth_m": 0.0, "depth_category": "0-15cm", "landcover_class": 50, "runoff_coeff": 0.85, "runoff_coeff_provenance": "ESTIMATED (literature-typical per-class assumption)", "inflow_m3s": 0.0, "capacity_m3s": 0.2375, "surcharge_m3s": 0.0, "is_sink": true, "role": "sink / potential surcharge & ponding point", "provenance": "SIMULATED", "rainfall_scenario": "observed"}}, {"type": "Feature", "geometry": {"type": "Point", "coordinates": [72.84702953020134, 19.020997986577182]}, "properties": {"node_id": 47, "t_min": 0, "depth_m": 0.0, "depth_category": "0-15cm", "landcover_class": 50, "runoff_coeff": 0.85, "runoff_coeff_provenance": "ESTIMATED (literature-typical per-class assumption)", "inflow_m3s": 0.0, "capacity_m3s": 0.225, "surcharge_m3s": 0.0, "is_sink": false, "role": "junction", "provenance": "SIMULATED", "rainfall_scenario": "observed"}}, {"type": "Feature", "geometry": {"type": "Point", "coordinates": [72.85427785234899, 19.020997986577182]}, "properties": {"node_id": 48, "t_min": 0, "depth_m": 0.0, "depth_category": "0-15cm", "landcover_class": 10, "runoff_coeff": 0.15, "runoff_coeff_provenance": "ESTIMATED (literature-typical per-class assumption)", "inflow_m3s": 0.0, "capacity_m3s": 0.125, "surcharge_m3s": 0.0, "is_sink": false, "role": "headwater inlet", "provenance": "SIMULATED", "rainfall_scenario": "observed"}}, {"type": "Feature", "geometry": {"type": "Point", "coordinates": [72.85400939597315, 19.020729530201343]}, "properties": {"node_id": 49, "t_min": 0, "depth_m": 0.0, "depth_category": "0-15cm", "landcover_class": 10, "runoff_coeff": 0.15, "runoff_coeff_provenance": "ESTIMATED (literature-typical per-class assumption)", "inflow_m3s": 0.0, "capacity_m3s": 0.15, "surcharge_m3s": 0.0, "is_sink": false, "role": "junction", "provenance": "SIMULATED", "rainfall_scenario": "observed"}}, {"type": "Feature", "geometry": {"type": "Point", "coordinates": [72.8357543624161, 19.020729530201343]}, "properties": {"node_id": 50, "t_min": 0, "depth_m": 0.0, "depth_category": "0-15cm", "landcover_class": 50, "runoff_coeff": 0.85, "runoff_coeff_provenance": "ESTIMATED (literature-typical per-class assumption)", "inflow_m3s": 0.0, "capacity_m3s": 0.175, "surcharge_m3s": 0.0, "is_sink": false, "role": "headwater inlet", "provenance": "SIMULATED", "rainfall_scenario": "observed"}}, {"type": "Feature", "geometry": {"type": "Point", "coordinates": [72.83602281879195, 19.020729530201343]}, "properties": {"node_id": 51, "t_min": 0, "depth_m": 0.0, "depth_category": "0-15cm", "landcover_class": 10, "runoff_coeff": 0.15, "runoff_coeff_provenance": "ESTIMATED (literature-typical per-class assumption)", "inflow_m3s": 0.0, "capacity_m3s": 0.1875, "surcharge_m3s": 0.0, "is_sink": false, "role": "junction", "provenance": "SIMULATED", "rainfall_scenario": "observed"}}, {"type": "Feature", "geometry": {"type": "Point", "coordinates": [72.83629127516778, 19.020729530201343]}, "properties": {"node_id": 52, "t_min": 0, "depth_m": 0.0, "depth_category": "0-15cm", "landcover_class": 50, "runoff_coeff": 0.85, "runoff_coeff_provenance": "ESTIMATED (literature-typical per-class assumption)", "inflow_m3s": 0.0, "capacity_m3s": 0.1875, "surcharge_m3s": 0.0, "is_sink": true, "role": "sink / potential surcharge & ponding point", "provenance": "SIMULATED", "rainfall_scenario": "observed"}}, {"type": "Feature", "geometry": {"type": "Point", "coordinates": [72.84729798657717, 19.020729530201343]}, "properties": {"node_id": 53, "t_min": 0, "depth_m": 0.0, "depth_category": "0-15cm", "landcover_class": 50, "runoff_coeff": 0.85, "runoff_coeff_provenance": "ESTIMATED (literature-typical per-class assumption)", "inflow_m3s": 0.0, "capacity_m3s": 0.175, "surcharge_m3s": 0.0, "is_sink": false, "role": "junction", "provenance": "SIMULATED", "rainfall_scenario": "observed"}}, {"type": "Feature", "geometry": {"type": "Point", "coordinates": [72.84756644295302, 19.020729530201343]}, "properties": {"node_id": 54, "t_min": 0, "depth_m": 0.0, "depth_category": "0-15cm", "landcover_class": 50, "runoff_coeff": 0.85, "runoff_coeff_provenance": "ESTIMATED (literature-typical per-class assumption)", "inflow_m3s": 0.0, "capacity_m3s": 0.125, "surcharge_m3s": 0.0, "is_sink": false, "role": "headwater inlet", "provenance": "SIMULATED", "rainfall_scenario": "observed"}}, {"type": "Feature", "geometry": {"type": "Point", "coordinates": [72.85400939597315, 19.020461073825505]}, "properties": {"node_id": 55, "t_min": 0, "depth_m": 0.0, "depth_category": "0-15cm", "landcover_class": 10, "runoff_coeff": 0.15, "runoff_coeff_provenance": "ESTIMATED (literature-typical per-class assumption)", "inflow_m3s": 0.0, "capacity_m3s": 0.15, "surcharge_m3s": 0.0, "is_sink": true, "role": "sink / potential surcharge & ponding point", "provenance": "SIMULATED", "rainfall_scenario": "observed"}}, {"type": "Feature", "geometry": {"type": "Point", "coordinates": [72.85105637583892, 19.020461073825505]}, "properties": {"node_id": 56, "t_min": 0, "depth_m": 0.0, "depth_category": "0-15cm", "landcover_class": 10, "runoff_coeff": 0.15, "runoff_coeff_provenance": "ESTIMATED (literature-typical per-class assumption)", "inflow_m3s": 0.0, "capacity_m3s": 0.1375, "surcharge_m3s": 0.0, "is_sink": false, "role": "headwater inlet", "provenance": "SIMULATED", "rainfall_scenario": "observed"}}, {"type": "Feature", "geometry": {"type": "Point", "coordinates": [72.85078791946309, 19.020729530201343]}, "properties": {"node_id": 57, "t_min": 0, "depth_m": 0.0, "depth_category": "0-15cm", "landcover_class": 50, "runoff_coeff": 0.85, "runoff_coeff_provenance": "ESTIMATED (literature-typical per-class assumption)", "inflow_m3s": 0.0, "capacity_m3s": 0.1375, "surcharge_m3s": 0.0, "is_sink": true, "role": "sink / potential surcharge & ponding point", "provenance": "SIMULATED", "rainfall_scenario": "observed"}}, {"type": "Feature", "geometry": {"type": "Point", "coordinates": [72.85803624161073, 19.020192617449666]}, "properties": {"node_id": 58, "t_min": 0, "depth_m": 0.0, "depth_category": "0-15cm", "landcover_class": 10, "runoff_coeff": 0.15, "runoff_coeff_provenance": "ESTIMATED (literature-typical per-class assumption)", "inflow_m3s": 0.0, "capacity_m3s": 0.1375, "surcharge_m3s": 0.0, "is_sink": false, "role": "headwater inlet", "provenance": "SIMULATED", "rainfall_scenario": "observed"}}, {"type": "Feature", "geometry": {"type": "Point", "coordinates": [72.85830469798658, 19.020192617449666]}, "properties": {"node_id": 59, "t_min": 0, "depth_m": 0.0, "depth_category": "0-15cm", "landcover_class": 10, "runoff_coeff": 0.15, "runoff_coeff_provenance": "ESTIMATED (literature-typical per-class assumption)", "inflow_m3s": 0.0, "capacity_m3s": 0.175, "surcharge_m3s": 0.0, "is_sink": false, "role": "junction", "provenance": "SIMULATED", "rainfall_scenario": "observed"}}, {"type": "Feature", "geometry": {"type": "Point", "coordinates": [72.85857315436242, 19.020192617449666]}, "properties": {"node_id": 60, "t_min": 0, "depth_m": 0.0, "depth_category": "0-15cm", "landcover_class": 10, "runoff_coeff": 0.15, "runoff_coeff_provenance": "ESTIMATED (literature-typical per-class assumption)", "inflow_m3s": 0.0, "capacity_m3s": 0.275, "surcharge_m3s": 0.0, "is_sink": false, "role": "junction", "provenance": "SIMULATED", "rainfall_scenario": "observed"}}, {"type": "Feature", "geometry": {"type": "Point", "coordinates": [72.85884161073825, 19.019924161073828]}, "properties": {"node_id": 61, "t_min": 0, "depth_m": 0.0, "depth_category": "0-15cm", "landcover_class": 10, "runoff_coeff": 0.15, "runoff_coeff_provenance": "ESTIMATED (literature-typical per-class assumption)", "inflow_m3s": 0.0, "capacity_m3s": 0.275, "surcharge_m3s": 0.0, "is_sink": true, "role": "sink / potential surcharge & ponding point", "provenance": "SIMULATED", "rainfall_scenario": "observed"}}, {"type": "Feature", "geometry": {"type": "Point", "coordinates": [72.84837181208053, 19.01965570469799]}, "properties": {"node_id": 62, "t_min": 0, "depth_m": 0.0, "depth_category": "0-15cm", "landcover_class": 50, "runoff_coeff": 0.85, "runoff_coeff_provenance": "ESTIMATED (literature-typical per-class assumption)", "inflow_m3s": 0.0, "capacity_m3s": 0.1375, "surcharge_m3s": 0.0, "is_sink": false, "role": "headwater inlet", "provenance": "SIMULATED", "rainfall_scenario": "observed"}}, {"type": "Feature", "geometry": {"type": "Point", "coordinates": [72.84864026845638, 19.01965570469799]}, "properties": {"node_id": 63, "t_min": 0, "depth_m": 0.0, "depth_category": "0-15cm", "landcover_class": 50, "runoff_coeff": 0.85, "runoff_coeff_provenance": "ESTIMATED (literature-typical per-class assumption)", "inflow_m3s": 0.0, "capacity_m3s": 0.1625, "surcharge_m3s": 0.0, "is_sink": false, "role": "junction", "provenance": "SIMULATED", "rainfall_scenario": "observed"}}, {"type": "Feature", "geometry": {"type": "Point", "coordinates": [72.84890872483221, 19.01965570469799]}, "properties": {"node_id": 64, "t_min": 0, "depth_m": 0.0, "depth_category": "0-15cm", "landcover_class": 50, "runoff_coeff": 0.85, "runoff_coeff_provenance": "ESTIMATED (literature-typical per-class assumption)", "inflow_m3s": 0.0, "capacity_m3s": 0.1625, "surcharge_m3s": 0.0, "is_sink": true, "role": "sink / potential surcharge & ponding point", "provenance": "SIMULATED", "rainfall_scenario": "observed"}}, {"type": "Feature", "geometry": {"type": "Point", "coordinates": [72.86152617449665, 19.01965570469799]}, "properties": {"node_id": 65, "t_min": 0, "depth_m": 0.0, "depth_category": "0-15cm", "landcover_class": 10, "runoff_coeff": 0.15, "runoff_coeff_provenance": "ESTIMATED (literature-typical per-class assumption)", "inflow_m3s": 0.0, "capacity_m3s": 0.15, "surcharge_m3s": 0.0, "is_sink": false, "role": "junction", "provenance": "SIMULATED", "rainfall_scenario": "observed"}}, {"type": "Feature", "geometry": {"type": "Point", "coordinates": [72.86152617449665, 19.01938724832215]}, "properties": {"node_id": 66, "t_min": 0, "depth_m": 0.0, "depth_category": "0-15cm", "landcover_class": 10, "runoff_coeff": 0.15, "runoff_coeff_provenance": "ESTIMATED (literature-typical per-class assumption)", "inflow_m3s": 0.0, "capacity_m3s": 0.15, "surcharge_m3s": 0.0, "is_sink": true, "role": "sink / potential surcharge & ponding point", "provenance": "SIMULATED", "rainfall_scenario": "observed"}}, {"type": "Feature", "geometry": {"type": "Point", "coordinates": [72.86179463087248, 19.01965570469799]}, "properties": {"node_id": 67, "t_min": 0, "depth_m": 0.0, "depth_category": "0-15cm", "landcover_class": 10, "runoff_coeff": 0.15, "runoff_coeff_provenance": "ESTIMATED (literature-typical per-class assumption)", "inflow_m3s": 0.0, "capacity_m3s": 0.1375, "surcharge_m3s": 0.0, "is_sink": false, "role": "junction", "provenance": "SIMULATED", "rainfall_scenario": "observed"}}, {"type": "Feature", "geometry": {"type": "Point", "coordinates": [72.86206308724832, 19.01965570469799]}, "properties": {"node_id": 68, "t_min": 0, "depth_m": 0.0, "depth_category": "0-15cm", "landcover_class": 50, "runoff_coeff": 0.85, "runoff_coeff_provenance": "ESTIMATED (literature-typical per-class assumption)", "inflow_m3s": 0.0, "capacity_m3s": 0.125, "surcharge_m3s": 0.0, "is_sink": false, "role": "headwater inlet", "provenance": "SIMULATED", "rainfall_scenario": "observed"}}, {"type": "Feature", "geometry": {"type": "Point", "coordinates": [72.85723087248321, 19.01938724832215]}, "properties": {"node_id": 69, "t_min": 0, "depth_m": 0.0, "depth_category": "0-15cm", "landcover_class": 10, "runoff_coeff": 0.15, "runoff_coeff_provenance": "ESTIMATED (literature-typical per-class assumption)", "inflow_m3s": 0.0, "capacity_m3s": 0.175, "surcharge_m3s": 0.0, "is_sink": false, "role": "headwater inlet", "provenance": "SIMULATED", "rainfall_scenario": "observed"}}, {"type": "Feature", "geometry": {"type": "Point", "coordinates": [72.85749932885906, 19.01938724832215]}, "properties": {"node_id": 70, "t_min": 0, "depth_m": 0.0, "depth_category": "0-15cm", "landcover_class": 10, "runoff_coeff": 0.15, "runoff_coeff_provenance": "ESTIMATED (literature-typical per-class assumption)", "inflow_m3s": 0.0, "capacity_m3s": 0.175, "surcharge_m3s": 0.0, "is_sink": true, "role": "sink / potential surcharge & ponding point", "provenance": "SIMULATED", "rainfall_scenario": "observed"}}, {"type": "Feature", "geometry": {"type": "Point", "coordinates": [72.8494456375839, 19.01885033557047]}, "properties": {"node_id": 71, "t_min": 0, "depth_m": 0.0, "depth_category": "0-15cm", "landcover_class": 50, "runoff_coeff": 0.85, "runoff_coeff_provenance": "ESTIMATED (literature-typical per-class assumption)", "inflow_m3s": 0.0, "capacity_m3s": 0.15, "surcharge_m3s": 0.0, "is_sink": false, "role": "junction", "provenance": "SIMULATED", "rainfall_scenario": "observed"}}, {"type": "Feature", "geometry": {"type": "Point", "coordinates": [72.84917718120805, 19.01885033557047]}, "properties": {"node_id": 72, "t_min": 0, "depth_m": 0.0, "depth_category": "0-15cm", "landcover_class": 50, "runoff_coeff": 0.85, "runoff_coeff_provenance": "ESTIMATED (literature-typical per-class assumption)", "inflow_m3s": 0.0, "capacity_m3s": 0.15, "surcharge_m3s": 0.0, "is_sink": true, "role": "sink / potential surcharge & ponding point", "provenance": "SIMULATED", "rainfall_scenario": "observed"}}, {"type": "Feature", "geometry": {"type": "Point", "coordinates": [72.84971409395973, 19.01885033557047]}, "properties": {"node_id": 73, "t_min": 0, "depth_m": 0.0, "depth_category": "0-15cm", "landcover_class": 50, "runoff_coeff": 0.85, "runoff_coeff_provenance": "ESTIMATED (literature-typical per-class assumption)", "inflow_m3s": 0.0, "capacity_m3s": 0.125, "surcharge_m3s": 0.0, "is_sink": false, "role": "headwater inlet", "provenance": "SIMULATED", "rainfall_scenario": "observed"}}, {"type": "Feature", "geometry": {"type": "Point", "coordinates": [72.8529355704698, 19.017508053691277]}, "properties": {"node_id": 74, "t_min": 0, "depth_m": 0.0, "depth_category": "0-15cm", "landcover_class": 50, "runoff_coeff": 0.85, "runoff_coeff_provenance": "ESTIMATED (literature-typical per-class assumption)", "inflow_m3s": 0.0, "capacity_m3s": 0.125, "surcharge_m3s": 0.0, "is_sink": false, "role": "headwater inlet", "provenance": "SIMULATED", "rainfall_scenario": "observed"}}, {"type": "Feature", "geometry": {"type": "Point", "coordinates": [72.85320402684563, 19.017239597315438]}, "properties": {"node_id": 75, "t_min": 0, "depth_m": 0.0, "depth_category": "0-15cm", "landcover_class": 10, "runoff_coeff": 0.15, "runoff_coeff_provenance": "ESTIMATED (literature-typical per-class assumption)", "inflow_m3s": 0.0, "capacity_m3s": 0.15, "surcharge_m3s": 0.0, "is_sink": false, "role": "junction", "provenance": "SIMULATED", "rainfall_scenario": "observed"}}, {"type": "Feature", "geometry": {"type": "Point", "coordinates": [72.85320402684563, 19.0169711409396]}, "properties": {"node_id": 76, "t_min": 0, "depth_m": 0.0, "depth_category": "0-15cm", "landcover_class": 50, "runoff_coeff": 0.85, "runoff_coeff_provenance": "ESTIMATED (literature-typical per-class assumption)", "inflow_m3s": 0.0, "capacity_m3s": 0.15, "surcharge_m3s": 0.0, "is_sink": true, "role": "sink / potential surcharge & ponding point", "provenance": "SIMULATED", "rainfall_scenario": "observed"}}, {"type": "Feature", "geometry": {"type": "Point", "coordinates": [72.84622416107382, 19.01670268456376]}, "properties": {"node_id": 77, "t_min": 0, "depth_m": 0.0, "depth_category": "0-15cm", "landcover_class": 10, "runoff_coeff": 0.15, "runoff_coeff_provenance": "ESTIMATED (literature-typical per-class assumption)", "inflow_m3s": 0.0, "capacity_m3s": 0.15, "surcharge_m3s": 0.0, "is_sink": false, "role": "headwater inlet", "provenance": "SIMULATED", "rainfall_scenario": "observed"}}, {"type": "Feature", "geometry": {"type": "Point", "coordinates": [72.84649261744966, 19.016434228187922]}, "properties": {"node_id": 78, "t_min": 0, "depth_m": 0.0, "depth_category": "0-15cm", "landcover_class": 50, "runoff_coeff": 0.85, "runoff_coeff_provenance": "ESTIMATED (literature-typical per-class assumption)", "inflow_m3s": 0.0, "capacity_m3s": 0.15, "surcharge_m3s": 0.0, "is_sink": true, "role": "sink / potential surcharge & ponding point", "provenance": "SIMULATED", "rainfall_scenario": "observed"}}, {"type": "Feature", "geometry": {"type": "Point", "coordinates": [72.82313691275168, 19.012407382550336]}, "properties": {"node_id": 79, "t_min": 0, "depth_m": 0.0, "depth_category": "0-15cm", "landcover_class": 60, "runoff_coeff": 0.4, "runoff_coeff_provenance": "ESTIMATED (literature-typical per-class assumption)", "inflow_m3s": 0.0, "capacity_m3s": 0.1375, "surcharge_m3s": 0.0, "is_sink": false, "role": "headwater inlet", "provenance": "SIMULATED", "rainfall_scenario": "observed"}}, {"type": "Feature", "geometry": {"type": "Point", "coordinates": [72.82286845637583, 19.012138926174497]}, "properties": {"node_id": 80, "t_min": 0, "depth_m": 0.0, "depth_category": "0-15cm", "landcover_class": 50, "runoff_coeff": 0.85, "runoff_coeff_provenance": "ESTIMATED (literature-typical per-class assumption)", "inflow_m3s": 0.0, "capacity_m3s": 0.2, "surcharge_m3s": 0.0, "is_sink": false, "role": "junction", "provenance": "SIMULATED", "rainfall_scenario": "observed"}}, {"type": "Feature", "geometry": {"type": "Point", "coordinates": [72.82286845637583, 19.01187046979866]}, "properties": {"node_id": 81, "t_min": 0, "depth_m": 0.0, "depth_category": "0-15cm", "landcover_class": 50, "runoff_coeff": 0.85, "runoff_coeff_provenance": "ESTIMATED (literature-typical per-class assumption)", "inflow_m3s": 0.0, "capacity_m3s": 0.2, "surcharge_m3s": 0.0, "is_sink": true, "role": "sink / potential surcharge & ponding point", "provenance": "SIMULATED", "rainfall_scenario": "observed"}}, {"type": "Feature", "geometry": {"type": "Point", "coordinates": [72.82394228187918, 19.010528187919466]}, "properties": {"node_id": 82, "t_min": 0, "depth_m": 0.0, "depth_category": "0-15cm", "landcover_class": 50, "runoff_coeff": 0.85, "runoff_coeff_provenance": "ESTIMATED (literature-typical per-class assumption)", "inflow_m3s": 0.0, "capacity_m3s": 0.125, "surcharge_m3s": 0.0, "is_sink": false, "role": "headwater inlet", "provenance": "SIMULATED", "rainfall_scenario": "observed"}}, {"type": "Feature", "geometry": {"type": "Point", "coordinates": [72.82394228187918, 19.010259731543627]}, "properties": {"node_id": 83, "t_min": 0, "depth_m": 0.0, "depth_category": "0-15cm", "landcover_class": 50, "runoff_coeff": 0.85, "runoff_coeff_provenance": "ESTIMATED (literature-typical per-class assumption)", "inflow_m3s": 0.0, "capacity_m3s": 0.125, "surcharge_m3s": 0.0, "is_sink": true, "role": "sink / potential surcharge & ponding point", "provenance": "SIMULATED", "rainfall_scenario": "observed"}}, {"type": "Feature", "geometry": {"type": "Point", "coordinates": [72.8274322147651, 19.00891744966443]}, "properties": {"node_id": 84, "t_min": 0, "depth_m": 0.0, "depth_category": "0-15cm", "landcover_class": 50, "runoff_coeff": 0.85, "runoff_coeff_provenance": "ESTIMATED (literature-typical per-class assumption)", "inflow_m3s": 0.0, "capacity_m3s": 0.125, "surcharge_m3s": 0.0, "is_sink": false, "role": "headwater inlet", "provenance": "SIMULATED", "rainfall_scenario": "observed"}}, {"type": "Feature", "geometry": {"type": "Point", "coordinates": [72.82716375838926, 19.00891744966443]}, "properties": {"node_id": 85, "t_min": 0, "depth_m": 0.0, "depth_category": "0-15cm", "landcover_class": 10, "runoff_coeff": 0.15, "runoff_coeff_provenance": "ESTIMATED (literature-typical per-class assumption)", "inflow_m3s": 0.0, "capacity_m3s": 0.125, "surcharge_m3s": 0.0, "is_sink": true, "role": "sink / potential surcharge & ponding point", "provenance": "SIMULATED", "rainfall_scenario": "observed"}}, {"type": "Feature", "geometry": {"type": "Point", "coordinates": [72.8494456375839, 19.008380536912753]}, "properties": {"node_id": 86, "t_min": 0, "depth_m": 0.0, "depth_category": "0-15cm", "landcover_class": 50, "runoff_coeff": 0.85, "runoff_coeff_provenance": "ESTIMATED (literature-typical per-class assumption)", "inflow_m3s": 0.0, "capacity_m3s": 0.1375, "surcharge_m3s": 0.0, "is_sink": false, "role": "headwater inlet", "provenance": "SIMULATED", "rainfall_scenario": "observed"}}, {"type": "Feature", "geometry": {"type": "Point", "coordinates": [72.84971409395973, 19.008380536912753]}, "properties": {"node_id": 87, "t_min": 0, "depth_m": 0.0, "depth_category": "0-15cm", "landcover_class": 10, "runoff_coeff": 0.15, "runoff_coeff_provenance": "ESTIMATED (literature-typical per-class assumption)", "inflow_m3s": 0.0, "capacity_m3s": 0.1375, "surcharge_m3s": 0.0, "is_sink": true, "role": "sink / potential surcharge & ponding point", "provenance": "SIMULATED", "rainfall_scenario": "observed"}}, {"type": "Feature", "geometry": {"type": "Point", "coordinates": [72.8467610738255, 19.008112080536915]}, "properties": {"node_id": 88, "t_min": 0, "depth_m": 0.0, "depth_category": "0-15cm", "landcover_class": 10, "runoff_coeff": 0.15, "runoff_coeff_provenance": "ESTIMATED (literature-typical per-class assumption)", "inflow_m3s": 0.0, "capacity_m3s": 0.125, "surcharge_m3s": 0.0, "is_sink": false, "role": "headwater inlet", "provenance": "SIMULATED", "rainfall_scenario": "observed"}}, {"type": "Feature", "geometry": {"type": "Point", "coordinates": [72.8467610738255, 19.008380536912753]}, "properties": {"node_id": 89, "t_min": 0, "depth_m": 0.0, "depth_category": "0-15cm", "landcover_class": 50, "runoff_coeff": 0.85, "runoff_coeff_provenance": "ESTIMATED (literature-typical per-class assumption)", "inflow_m3s": 0.0, "capacity_m3s": 0.125, "surcharge_m3s": 0.0, "is_sink": true, "role": "sink / potential surcharge & ponding point", "provenance": "SIMULATED", "rainfall_scenario": "observed"}}, {"type": "Feature", "geometry": {"type": "Point", "coordinates": [72.84917718120805, 19.0073067114094]}, "properties": {"node_id": 90, "t_min": 0, "depth_m": 0.0, "depth_category": "0-15cm", "landcover_class": 50, "runoff_coeff": 0.85, "runoff_coeff_provenance": "ESTIMATED (literature-typical per-class assumption)", "inflow_m3s": 0.0, "capacity_m3s": 0.3, "surcharge_m3s": 0.0, "is_sink": false, "role": "junction", "provenance": "SIMULATED", "rainfall_scenario": "observed"}}, {"type": "Feature", "geometry": {"type": "Point", "coordinates": [72.8494456375839, 19.0073067114094]}, "properties": {"node_id": 91, "t_min": 0, "depth_m": 0.0, "depth_category": "0-15cm", "landcover_class": 50, "runoff_coeff": 0.85, "runoff_coeff_provenance": "ESTIMATED (literature-typical per-class assumption)", "inflow_m3s": 0.0, "capacity_m3s": 0.3, "surcharge_m3s": 0.0, "is_sink": true, "role": "sink / potential surcharge & ponding point", "provenance": "SIMULATED", "rainfall_scenario": "observed"}}, {"type": "Feature", "geometry": {"type": "Point", "coordinates": [72.83629127516778, 19.007038255033557]}, "properties": {"node_id": 92, "t_min": 0, "depth_m": 0.0, "depth_category": "0-15cm", "landcover_class": 50, "runoff_coeff": 0.85, "runoff_coeff_provenance": "ESTIMATED (literature-typical per-class assumption)", "inflow_m3s": 0.0, "capacity_m3s": 0.125, "surcharge_m3s": 0.0, "is_sink": false, "role": "headwater inlet", "provenance": "SIMULATED", "rainfall_scenario": "observed"}}, {"type": "Feature", "geometry": {"type": "Point", "coordinates": [72.83602281879195, 19.007038255033557]}, "properties": {"node_id": 93, "t_min": 0, "depth_m": 0.0, "depth_category": "0-15cm", "landcover_class": 50, "runoff_coeff": 0.85, "runoff_coeff_provenance": "ESTIMATED (literature-typical per-class assumption)", "inflow_m3s": 0.0, "capacity_m3s": 0.125, "surcharge_m3s": 0.0, "is_sink": true, "role": "sink / potential surcharge & ponding point", "provenance": "SIMULATED", "rainfall_scenario": "observed"}}, {"type": "Feature", "geometry": {"type": "Point", "coordinates": [72.84890872483221, 19.007038255033557]}, "properties": {"node_id": 94, "t_min": 0, "depth_m": 0.0, "depth_category": "0-15cm", "landcover_class": 50, "runoff_coeff": 0.85, "runoff_coeff_provenance": "ESTIMATED (literature-typical per-class assumption)", "inflow_m3s": 0.0, "capacity_m3s": 0.1375, "surcharge_m3s": 0.0, "is_sink": false, "role": "headwater inlet", "provenance": "SIMULATED", "rainfall_scenario": "observed"}}, {"type": "Feature", "geometry": {"type": "Point", "coordinates": [72.8502510067114, 19.005695973154364]}, "properties": {"node_id": 95, "t_min": 0, "depth_m": 0.0, "depth_category": "0-15cm", "landcover_class": 50, "runoff_coeff": 0.85, "runoff_coeff_provenance": "ESTIMATED (literature-typical per-class assumption)", "inflow_m3s": 0.0, "capacity_m3s": 0.125, "surcharge_m3s": 0.0, "is_sink": false, "role": "headwater inlet", "provenance": "SIMULATED", "rainfall_scenario": "observed"}}, {"type": "Feature", "geometry": {"type": "Point", "coordinates": [72.85051946308725, 19.005964429530202]}, "properties": {"node_id": 96, "t_min": 0, "depth_m": 0.0, "depth_category": "0-15cm", "landcover_class": 50, "runoff_coeff": 0.85, "runoff_coeff_provenance": "ESTIMATED (literature-typical per-class assumption)", "inflow_m3s": 0.0, "capacity_m3s": 0.125, "surcharge_m3s": 0.0, "is_sink": true, "role": "sink / potential surcharge & ponding point", "provenance": "SIMULATED", "rainfall_scenario": "observed"}}, {"type": "Feature", "geometry": {"type": "Point", "coordinates": [72.85535167785235, 19.005427516778525]}, "properties": {"node_id": 97, "t_min": 0, "depth_m": 0.0, "depth_category": "0-15cm", "landcover_class": 10, "runoff_coeff": 0.15, "runoff_coeff_provenance": "ESTIMATED (literature-typical per-class assumption)", "inflow_m3s": 0.0, "capacity_m3s": 0.125, "surcharge_m3s": 0.0, "is_sink": false, "role": "headwater inlet", "provenance": "SIMULATED", "rainfall_scenario": "observed"}}, {"type": "Feature", "geometry": {"type": "Point", "coordinates": [72.85562013422819, 19.005159060402686]}, "properties": {"node_id": 98, "t_min": 0, "depth_m": 0.0, "depth_category": "0-15cm", "landcover_class": 40, "runoff_coeff": 0.3, "runoff_coeff_provenance": "ESTIMATED (literature-typical per-class assumption)", "inflow_m3s": 0.0, "capacity_m3s": 0.125, "surcharge_m3s": 0.0, "is_sink": true, "role": "sink / potential surcharge & ponding point", "provenance": "SIMULATED", "rainfall_scenario": "observed"}}, {"type": "Feature", "geometry": {"type": "Point", "coordinates": [72.82635838926174, 19.005159060402686]}, "properties": {"node_id": 99, "t_min": 0, "depth_m": 0.0, "depth_category": "0-15cm", "landcover_class": 50, "runoff_coeff": 0.85, "runoff_coeff_provenance": "ESTIMATED (literature-typical per-class assumption)", "inflow_m3s": 0.0, "capacity_m3s": 0.1625, "surcharge_m3s": 0.0, "is_sink": false, "role": "headwater inlet", "provenance": "SIMULATED", "rainfall_scenario": "observed"}}, {"type": "Feature", "geometry": {"type": "Point", "coordinates": [72.82662684563758, 19.005159060402686]}, "properties": {"node_id": 100, "t_min": 0, "depth_m": 0.0, "depth_category": "0-15cm", "landcover_class": 60, "runoff_coeff": 0.4, "runoff_coeff_provenance": "ESTIMATED (literature-typical per-class assumption)", "inflow_m3s": 0.0, "capacity_m3s": 0.1625, "surcharge_m3s": 0.0, "is_sink": true, "role": "sink / potential surcharge & ponding point", "provenance": "SIMULATED", "rainfall_scenario": "observed"}}, {"type": "Feature", "geometry": {"type": "Point", "coordinates": [72.85266711409396, 19.00435369127517]}, "properties": {"node_id": 101, "t_min": 0, "depth_m": 0.0, "depth_category": "0-15cm", "landcover_class": 10, "runoff_coeff": 0.15, "runoff_coeff_provenance": "ESTIMATED (literature-typical per-class assumption)", "inflow_m3s": 0.0, "capacity_m3s": 0.125, "surcharge_m3s": 0.0, "is_sink": false, "role": "headwater inlet", "provenance": "SIMULATED", "rainfall_scenario": "observed"}}, {"type": "Feature", "geometry": {"type": "Point", "coordinates": [72.8529355704698, 19.00435369127517]}, "properties": {"node_id": 102, "t_min": 0, "depth_m": 0.0, "depth_category": "0-15cm", "landcover_class": 10, "runoff_coeff": 0.15, "runoff_coeff_provenance": "ESTIMATED (literature-typical per-class assumption)", "inflow_m3s": 0.0, "capacity_m3s": 0.125, "surcharge_m3s": 0.0, "is_sink": true, "role": "sink / potential surcharge & ponding point", "provenance": "SIMULATED", "rainfall_scenario": "observed"}}, {"type": "Feature", "geometry": {"type": "Point", "coordinates": [72.84890872483221, 19.004085234899332]}, "properties": {"node_id": 103, "t_min": 0, "depth_m": 0.0, "depth_category": "0-15cm", "landcover_class": 50, "runoff_coeff": 0.85, "runoff_coeff_provenance": "ESTIMATED (literature-typical per-class assumption)", "inflow_m3s": 0.0, "capacity_m3s": 0.375, "surcharge_m3s": 0.0, "is_sink": false, "role": "junction", "provenance": "SIMULATED", "rainfall_scenario": "observed"}}, {"type": "Feature", "geometry": {"type": "Point", "coordinates": [72.84864026845638, 19.00435369127517]}, "properties": {"node_id": 104, "t_min": 0, "depth_m": 0.0, "depth_category": "0-15cm", "landcover_class": 60, "runoff_coeff": 0.4, "runoff_coeff_provenance": "ESTIMATED (literature-typical per-class assumption)", "inflow_m3s": 0.0, "capacity_m3s": 0.375, "surcharge_m3s": 0.0, "is_sink": true, "role": "sink / potential surcharge & ponding point", "provenance": "SIMULATED", "rainfall_scenario": "observed"}}, {"type": "Feature", "geometry": {"type": "Point", "coordinates": [72.84917718120805, 19.00381677852349]}, "properties": {"node_id": 105, "t_min": 0, "depth_m": 0.0, "depth_category": "0-15cm", "landcover_class": 60, "runoff_coeff": 0.4, "runoff_coeff_provenance": "ESTIMATED (literature-typical per-class assumption)", "inflow_m3s": 0.0, "capacity_m3s": 0.3625, "surcharge_m3s": 0.0, "is_sink": false, "role": "junction", "provenance": "SIMULATED", "rainfall_scenario": "observed"}}, {"type": "Feature", "geometry": {"type": "Point", "coordinates": [72.8494456375839, 19.00381677852349]}, "properties": {"node_id": 106, "t_min": 0, "depth_m": 0.0, "depth_category": "0-15cm", "landcover_class": 80, "runoff_coeff": 1.0, "runoff_coeff_provenance": "ESTIMATED (literature-typical per-class assumption)", "inflow_m3s": 0.0, "capacity_m3s": 0.3125, "surcharge_m3s": 0.0, "is_sink": false, "role": "junction", "provenance": "SIMULATED", "rainfall_scenario": "observed"}}, {"type": "Feature", "geometry": {"type": "Point", "coordinates": [72.85132483221476, 19.00381677852349]}, "properties": {"node_id": 107, "t_min": 0, "depth_m": 0.0, "depth_category": "0-15cm", "landcover_class": 10, "runoff_coeff": 0.15, "runoff_coeff_provenance": "ESTIMATED (literature-typical per-class assumption)", "inflow_m3s": 0.0, "capacity_m3s": 0.3375, "surcharge_m3s": 0.0, "is_sink": false, "role": "junction", "provenance": "SIMULATED", "rainfall_scenario": "observed"}}, {"type": "Feature", "geometry": {"type": "Point", "coordinates": [72.85132483221476, 19.004085234899332]}, "properties": {"node_id": 108, "t_min": 0, "depth_m": 0.0, "depth_category": "0-15cm", "landcover_class": 10, "runoff_coeff": 0.15, "runoff_coeff_provenance": "ESTIMATED (literature-typical per-class assumption)", "inflow_m3s": 0.0, "capacity_m3s": 0.3375, "surcharge_m3s": 0.0, "is_sink": true, "role": "sink / potential surcharge & ponding point", "provenance": "SIMULATED", "rainfall_scenario": "observed"}}, {"type": "Feature", "geometry": {"type": "Point", "coordinates": [72.84971409395973, 19.00354832214765]}, "properties": {"node_id": 109, "t_min": 0, "depth_m": 0.0, "depth_category": "0-15cm", "landcover_class": 80, "runoff_coeff": 1.0, "runoff_coeff_provenance": "ESTIMATED (literature-typical per-class assumption)", "inflow_m3s": 0.0, "capacity_m3s": 0.3, "surcharge_m3s": 0.0, "is_sink": false, "role": "junction", "provenance": "SIMULATED", "rainfall_scenario": "observed"}}, {"type": "Feature", "geometry": {"type": "Point", "coordinates": [72.85132483221476, 19.00354832214765]}, "properties": {"node_id": 110, "t_min": 0, "depth_m": 0.0, "depth_category": "0-15cm", "landcover_class": 10, "runoff_coeff": 0.15, "runoff_coeff_provenance": "ESTIMATED (literature-typical per-class assumption)", "inflow_m3s": 0.0, "capacity_m3s": 0.3, "surcharge_m3s": 0.0, "is_sink": false, "role": "junction", "provenance": "SIMULATED", "rainfall_scenario": "observed"}}, {"type": "Feature", "geometry": {"type": "Point", "coordinates": [72.84139194630872, 19.003279865771812]}, "properties": {"node_id": 111, "t_min": 0, "depth_m": 0.0, "depth_category": "0-15cm", "landcover_class": 10, "runoff_coeff": 0.15, "runoff_coeff_provenance": "ESTIMATED (literature-typical per-class assumption)", "inflow_m3s": 0.0, "capacity_m3s": 0.175, "surcharge_m3s": 0.0, "is_sink": false, "role": "junction", "provenance": "SIMULATED", "rainfall_scenario": "observed"}}, {"type": "Feature", "geometry": {"type": "Point", "coordinates": [72.84139194630872, 19.00354832214765]}, "properties": {"node_id": 112, "t_min": 0, "depth_m": 0.0, "depth_category": "0-15cm", "landcover_class": 50, "runoff_coeff": 0.85, "runoff_coeff_provenance": "ESTIMATED (literature-typical per-class assumption)", "inflow_m3s": 0.0, "capacity_m3s": 0.175, "surcharge_m3s": 0.0, "is_sink": true, "role": "sink / potential surcharge & ponding point", "provenance": "SIMULATED", "rainfall_scenario": "observed"}}, {"type": "Feature", "geometry": {"type": "Point", "coordinates": [72.84971409395973, 19.003279865771812]}, "properties": {"node_id": 113, "t_min": 0, "depth_m": 0.0, "depth_category": "0-15cm", "landcover_class": 80, "runoff_coeff": 1.0, "runoff_coeff_provenance": "ESTIMATED (literature-typical per-class assumption)", "inflow_m3s": 0.0, "capacity_m3s": 0.2, "surcharge_m3s": 0.0, "is_sink": false, "role": "junction", "provenance": "SIMULATED", "rainfall_scenario": "observed"}}, {"type": "Feature", "geometry": {"type": "Point", "coordinates": [72.85132483221476, 19.003279865771812]}, "properties": {"node_id": 114, "t_min": 0, "depth_m": 0.0, "depth_category": "0-15cm", "landcover_class": 10, "runoff_coeff": 0.15, "runoff_coeff_provenance": "ESTIMATED (literature-typical per-class assumption)", "inflow_m3s": 0.0, "capacity_m3s": 0.2875, "surcharge_m3s": 0.0, "is_sink": false, "role": "junction", "provenance": "SIMULATED", "rainfall_scenario": "observed"}}, {"type": "Feature", "geometry": {"type": "Point", "coordinates": [72.84166040268457, 19.003011409395974]}, "properties": {"node_id": 115, "t_min": 0, "depth_m": 0.0, "depth_category": "0-15cm", "landcover_class": 10, "runoff_coeff": 0.15, "runoff_coeff_provenance": "ESTIMATED (literature-typical per-class assumption)", "inflow_m3s": 0.0, "capacity_m3s": 0.125, "surcharge_m3s": 0.0, "is_sink": false, "role": "headwater inlet", "provenance": "SIMULATED", "rainfall_scenario": "observed"}}, {"type": "Feature", "geometry": {"type": "Point", "coordinates": [72.84971409395973, 19.003011409395974]}, "properties": {"node_id": 116, "t_min": 0, "depth_m": 0.0, "depth_category": "0-15cm", "landcover_class": 50, "runoff_coeff": 0.85, "runoff_coeff_provenance": "ESTIMATED (literature-typical per-class assumption)", "inflow_m3s": 0.0, "capacity_m3s": 0.175, "surcharge_m3s": 0.0, "is_sink": false, "role": "headwater inlet", "provenance": "SIMULATED", "rainfall_scenario": "observed"}}, {"type": "Feature", "geometry": {"type": "Point", "coordinates": [72.85132483221476, 19.003011409395974]}, "properties": {"node_id": 117, "t_min": 0, "depth_m": 0.0, "depth_category": "0-15cm", "landcover_class": 10, "runoff_coeff": 0.15, "runoff_coeff_provenance": "ESTIMATED (literature-typical per-class assumption)", "inflow_m3s": 0.0, "capacity_m3s": 0.1875, "surcharge_m3s": 0.0, "is_sink": false, "role": "headwater inlet", "provenance": "SIMULATED", "rainfall_scenario": "observed"}}, {"type": "Feature", "geometry": {"type": "Point", "coordinates": [72.84864026845638, 19.00166912751678]}, "properties": {"node_id": 118, "t_min": 0, "depth_m": 0.0, "depth_category": "0-15cm", "landcover_class": 50, "runoff_coeff": 0.85, "runoff_coeff_provenance": "ESTIMATED (literature-typical per-class assumption)", "inflow_m3s": 0.0, "capacity_m3s": 0.175, "surcharge_m3s": 0.0, "is_sink": false, "role": "junction", "provenance": "SIMULATED", "rainfall_scenario": "observed"}}, {"type": "Feature", "geometry": {"type": "Point", "coordinates": [72.84837181208053, 19.001400671140942]}, "properties": {"node_id": 119, "t_min": 0, "depth_m": 0.0, "depth_category": "0-15cm", "landcover_class": 50, "runoff_coeff": 0.85, "runoff_coeff_provenance": "ESTIMATED (literature-typical per-class assumption)", "inflow_m3s": 0.0, "capacity_m3s": 0.2375, "surcharge_m3s": 0.0, "is_sink": false, "role": "junction", "provenance": "SIMULATED", "rainfall_scenario": "observed"}}, {"type": "Feature", "geometry": {"type": "Point", "coordinates": [72.84890872483221, 19.00166912751678]}, "properties": {"node_id": 120, "t_min": 0, "depth_m": 0.0, "depth_category": "0-15cm", "landcover_class": 50, "runoff_coeff": 0.85, "runoff_coeff_provenance": "ESTIMATED (literature-typical per-class assumption)", "inflow_m3s": 0.0, "capacity_m3s": 0.125, "surcharge_m3s": 0.0, "is_sink": false, "role": "headwater inlet", "provenance": "SIMULATED", "rainfall_scenario": "observed"}}, {"type": "Feature", "geometry": {"type": "Point", "coordinates": [72.84756644295302, 19.001400671140942]}, "properties": {"node_id": 121, "t_min": 0, "depth_m": 0.0, "depth_category": "0-15cm", "landcover_class": 60, "runoff_coeff": 0.4, "runoff_coeff_provenance": "ESTIMATED (literature-typical per-class assumption)", "inflow_m3s": 0.0, "capacity_m3s": 0.55, "surcharge_m3s": 0.0, "is_sink": false, "role": "junction", "provenance": "SIMULATED", "rainfall_scenario": "observed"}}, {"type": "Feature", "geometry": {"type": "Point", "coordinates": [72.84729798657717, 19.001400671140942]}, "properties": {"node_id": 122, "t_min": 0, "depth_m": 0.0, "depth_category": "0-15cm", "landcover_class": 60, "runoff_coeff": 0.4, "runoff_coeff_provenance": "ESTIMATED (literature-typical per-class assumption)", "inflow_m3s": 0.0, "capacity_m3s": 0.55, "surcharge_m3s": 0.0, "is_sink": true, "role": "sink / potential surcharge & ponding point", "provenance": "SIMULATED", "rainfall_scenario": "observed"}}, {"type": "Feature", "geometry": {"type": "Point", "coordinates": [72.8481033557047, 19.001400671140942]}, "properties": {"node_id": 123, "t_min": 0, "depth_m": 0.0, "depth_category": "0-15cm", "landcover_class": 50, "runoff_coeff": 0.85, "runoff_coeff_provenance": "ESTIMATED (literature-typical per-class assumption)", "inflow_m3s": 0.0, "capacity_m3s": 0.2625, "surcharge_m3s": 0.0, "is_sink": false, "role": "junction", "provenance": "SIMULATED", "rainfall_scenario": "observed"}}, {"type": "Feature", "geometry": {"type": "Point", "coordinates": [72.84783489932886, 19.001132214765104]}, "properties": {"node_id": 124, "t_min": 0, "depth_m": 0.0, "depth_category": "0-15cm", "landcover_class": 50, "runoff_coeff": 0.85, "runoff_coeff_provenance": "ESTIMATED (literature-typical per-class assumption)", "inflow_m3s": 0.0, "capacity_m3s": 0.4625, "surcharge_m3s": 0.0, "is_sink": false, "role": "junction", "provenance": "SIMULATED", "rainfall_scenario": "observed"}}, {"type": "Feature", "geometry": {"type": "Point", "coordinates": [72.8481033557047, 19.001132214765104]}, "properties": {"node_id": 125, "t_min": 0, "depth_m": 0.0, "depth_category": "0-15cm", "landcover_class": 50, "runoff_coeff": 0.85, "runoff_coeff_provenance": "ESTIMATED (literature-typical per-class assumption)", "inflow_m3s": 0.0, "capacity_m3s": 0.1625, "surcharge_m3s": 0.0, "is_sink": false, "role": "headwater inlet", "provenance": "SIMULATED", "rainfall_scenario": "observed"}}, {"type": "Feature", "geometry": {"type": "Point", "coordinates": [72.85051946308725, 19.001132214765104]}, "properties": {"node_id": 126, "t_min": 0, "depth_m": 0.0, "depth_category": "0-15cm", "landcover_class": 10, "runoff_coeff": 0.15, "runoff_coeff_provenance": "ESTIMATED (literature-typical per-class assumption)", "inflow_m3s": 0.0, "capacity_m3s": 0.1375, "surcharge_m3s": 0.0, "is_sink": false, "role": "headwater inlet", "provenance": "SIMULATED", "rainfall_scenario": "observed"}}, {"type": "Feature", "geometry": {"type": "Point", "coordinates": [72.85078791946309, 19.001132214765104]}, "properties": {"node_id": 127, "t_min": 0, "depth_m": 0.0, "depth_category": "0-15cm", "landcover_class": 10, "runoff_coeff": 0.15, "runoff_coeff_provenance": "ESTIMATED (literature-typical per-class assumption)", "inflow_m3s": 0.0, "capacity_m3s": 0.1375, "surcharge_m3s": 0.0, "is_sink": true, "role": "sink / potential surcharge & ponding point", "provenance": "SIMULATED", "rainfall_scenario": "observed"}}, {"type": "Feature", "geometry": {"type": "Point", "coordinates": [72.84488187919463, 19.000595302013423]}, "properties": {"node_id": 128, "t_min": 0, "depth_m": 0.0, "depth_category": "0-15cm", "landcover_class": 50, "runoff_coeff": 0.85, "runoff_coeff_provenance": "ESTIMATED (literature-typical per-class assumption)", "inflow_m3s": 0.0, "capacity_m3s": 0.3, "surcharge_m3s": 0.0, "is_sink": false, "role": "junction", "provenance": "SIMULATED", "rainfall_scenario": "observed"}}, {"type": "Feature", "geometry": {"type": "Point", "coordinates": [72.8446134228188, 19.000595302013423]}, "properties": {"node_id": 129, "t_min": 0, "depth_m": 0.0, "depth_category": "0-15cm", "landcover_class": 50, "runoff_coeff": 0.85, "runoff_coeff_provenance": "ESTIMATED (literature-typical per-class assumption)", "inflow_m3s": 0.0, "capacity_m3s": 0.3, "surcharge_m3s": 0.0, "is_sink": true, "role": "sink / potential surcharge & ponding point", "provenance": "SIMULATED", "rainfall_scenario": "observed"}}, {"type": "Feature", "geometry": {"type": "Point", "coordinates": [72.8502510067114, 19.000595302013423]}, "properties": {"node_id": 130, "t_min": 0, "depth_m": 0.0, "depth_category": "0-15cm", "landcover_class": 50, "runoff_coeff": 0.85, "runoff_coeff_provenance": "ESTIMATED (literature-typical per-class assumption)", "inflow_m3s": 0.0, "capacity_m3s": 0.125, "surcharge_m3s": 0.0, "is_sink": false, "role": "headwater inlet", "provenance": "SIMULATED", "rainfall_scenario": "observed"}}, {"type": "Feature", "geometry": {"type": "Point", "coordinates": [72.85051946308725, 19.000595302013423]}, "properties": {"node_id": 131, "t_min": 0, "depth_m": 0.0, "depth_category": "0-15cm", "landcover_class": 50, "runoff_coeff": 0.85, "runoff_coeff_provenance": "ESTIMATED (literature-typical per-class assumption)", "inflow_m3s": 0.0, "capacity_m3s": 0.125, "surcharge_m3s": 0.0, "is_sink": true, "role": "sink / potential surcharge & ponding point", "provenance": "SIMULATED", "rainfall_scenario": "observed"}}, {"type": "Feature", "geometry": {"type": "Point", "coordinates": [72.84515033557047, 19.000326845637584]}, "properties": {"node_id": 132, "t_min": 0, "depth_m": 0.0, "depth_category": "0-15cm", "landcover_class": 50, "runoff_coeff": 0.85, "runoff_coeff_provenance": "ESTIMATED (literature-typical per-class assumption)", "inflow_m3s": 0.0, "capacity_m3s": 0.25, "surcharge_m3s": 0.0, "is_sink": false, "role": "junction", "provenance": "SIMULATED", "rainfall_scenario": "observed"}}, {"type": "Feature", "geometry": {"type": "Point", "coordinates": [72.8467610738255, 19.000326845637584]}, "properties": {"node_id": 133, "t_min": 0, "depth_m": 0.0, "depth_category": "0-15cm", "landcover_class": 10, "runoff_coeff": 0.15, "runoff_coeff_provenance": "ESTIMATED (literature-typical per-class assumption)", "inflow_m3s": 0.0, "capacity_m3s": 0.1375, "surcharge_m3s": 0.0, "is_sink": false, "role": "headwater inlet", "provenance": "SIMULATED", "rainfall_scenario": "observed"}}, {"type": "Feature", "geometry": {"type": "Point", "coordinates": [72.84649261744966, 19.000326845637584]}, "properties": {"node_id": 134, "t_min": 0, "depth_m": 0.0, "depth_category": "0-15cm", "landcover_class": 50, "runoff_coeff": 0.85, "runoff_coeff_provenance": "ESTIMATED (literature-typical per-class assumption)", "inflow_m3s": 0.0, "capacity_m3s": 0.1375, "surcharge_m3s": 0.0, "is_sink": true, "role": "sink / potential surcharge & ponding point", "provenance": "SIMULATED", "rainfall_scenario": "observed"}}, {"type": "Feature", "geometry": {"type": "Point", "coordinates": [72.8454187919463, 19.000058389261746]}, "properties": {"node_id": 135, "t_min": 0, "depth_m": 0.0, "depth_category": "0-15cm", "landcover_class": 10, "runoff_coeff": 0.15, "runoff_coeff_provenance": "ESTIMATED (literature-typical per-class assumption)", "inflow_m3s": 0.0, "capacity_m3s": 0.225, "surcharge_m3s": 0.0, "is_sink": false, "role": "junction", "provenance": "SIMULATED", "rainfall_scenario": "observed"}}, {"type": "Feature", "geometry": {"type": "Point", "coordinates": [72.8454187919463, 18.999789932885907]}, "properties": {"node_id": 136, "t_min": 0, "depth_m": 0.0, "depth_category": "0-15cm", "landcover_class": 50, "runoff_coeff": 0.85, "runoff_coeff_provenance": "ESTIMATED (literature-typical per-class assumption)", "inflow_m3s": 0.0, "capacity_m3s": 0.2125, "surcharge_m3s": 0.0, "is_sink": false, "role": "headwater inlet", "provenance": "SIMULATED", "rainfall_scenario": "observed"}}, {"type": "Feature", "geometry": {"type": "Point", "coordinates": [72.85642550335571, 18.99952147651007]}, "properties": {"node_id": 137, "t_min": 0, "depth_m": 0.0, "depth_category": "0-15cm", "landcover_class": 50, "runoff_coeff": 0.85, "runoff_coeff_provenance": "ESTIMATED (literature-typical per-class assumption)", "inflow_m3s": 0.0, "capacity_m3s": 0.125, "surcharge_m3s": 0.0, "is_sink": false, "role": "headwater inlet", "provenance": "SIMULATED", "rainfall_scenario": "observed"}}, {"type": "Feature", "geometry": {"type": "Point", "coordinates": [72.85642550335571, 18.99925302013423]}, "properties": {"node_id": 138, "t_min": 0, "depth_m": 0.0, "depth_category": "0-15cm", "landcover_class": 50, "runoff_coeff": 0.85, "runoff_coeff_provenance": "ESTIMATED (literature-typical per-class assumption)", "inflow_m3s": 0.0, "capacity_m3s": 0.125, "surcharge_m3s": 0.0, "is_sink": true, "role": "sink / potential surcharge & ponding point", "provenance": "SIMULATED", "rainfall_scenario": "observed"}}, {"type": "Feature", "geometry": {"type": "Point", "coordinates": [72.84407651006711, 18.99925302013423]}, "properties": {"node_id": 139, "t_min": 0, "depth_m": 0.0, "depth_category": "0-15cm", "landcover_class": 50, "runoff_coeff": 0.85, "runoff_coeff_provenance": "ESTIMATED (literature-typical per-class assumption)", "inflow_m3s": 0.0, "capacity_m3s": 0.175, "surcharge_m3s": 0.0, "is_sink": false, "role": "headwater inlet", "provenance": "SIMULATED", "rainfall_scenario": "observed"}}, {"type": "Feature", "geometry": {"type": "Point", "coordinates": [72.84380805369128, 18.99952147651007]}, "properties": {"node_id": 140, "t_min": 0, "depth_m": 0.0, "depth_category": "0-15cm", "landcover_class": 50, "runoff_coeff": 0.85, "runoff_coeff_provenance": "ESTIMATED (literature-typical per-class assumption)", "inflow_m3s": 0.0, "capacity_m3s": 0.175, "surcharge_m3s": 0.0, "is_sink": true, "role": "sink / potential surcharge & ponding point", "provenance": "SIMULATED", "rainfall_scenario": "observed"}}, {"type": "Feature", "geometry": {"type": "Point", "coordinates": [72.84327114093959, 18.99898456375839]}, "properties": {"node_id": 141, "t_min": 0, "depth_m": 0.0, "depth_category": "0-15cm", "landcover_class": 50, "runoff_coeff": 0.85, "runoff_coeff_provenance": "ESTIMATED (literature-typical per-class assumption)", "inflow_m3s": 0.0, "capacity_m3s": 0.2, "surcharge_m3s": 0.0, "is_sink": false, "role": "junction", "provenance": "SIMULATED", "rainfall_scenario": "observed"}}, {"type": "Feature", "geometry": {"type": "Point", "coordinates": [72.84300268456376, 18.99898456375839]}, "properties": {"node_id": 142, "t_min": 0, "depth_m": 0.0, "depth_category": "0-15cm", "landcover_class": 50, "runoff_coeff": 0.85, "runoff_coeff_provenance": "ESTIMATED (literature-typical per-class assumption)", "inflow_m3s": 0.0, "capacity_m3s": 0.2, "surcharge_m3s": 0.0, "is_sink": true, "role": "sink / potential surcharge & ponding point", "provenance": "SIMULATED", "rainfall_scenario": "observed"}}, {"type": "Feature", "geometry": {"type": "Point", "coordinates": [72.84353959731543, 18.99898456375839]}, "properties": {"node_id": 143, "t_min": 0, "depth_m": 0.0, "depth_category": "0-15cm", "landcover_class": 50, "runoff_coeff": 0.85, "runoff_coeff_provenance": "ESTIMATED (literature-typical per-class assumption)", "inflow_m3s": 0.0, "capacity_m3s": 0.1625, "surcharge_m3s": 0.0, "is_sink": false, "role": "junction", "provenance": "SIMULATED", "rainfall_scenario": "observed"}}, {"type": "Feature", "geometry": {"type": "Point", "coordinates": [72.84890872483221, 18.99898456375839]}, "properties": {"node_id": 144, "t_min": 0, "depth_m": 0.0, "depth_category": "0-15cm", "landcover_class": 50, "runoff_coeff": 0.85, "runoff_coeff_provenance": "ESTIMATED (literature-typical per-class assumption)", "inflow_m3s": 0.0, "capacity_m3s": 0.125, "surcharge_m3s": 0.0, "is_sink": false, "role": "headwater inlet", "provenance": "SIMULATED", "rainfall_scenario": "observed"}}, {"type": "Feature", "geometry": {"type": "Point", "coordinates": [72.84917718120805, 18.998716107382553]}, "properties": {"node_id": 145, "t_min": 0, "depth_m": 0.0, "depth_category": "0-15cm", "landcover_class": 50, "runoff_coeff": 0.85, "runoff_coeff_provenance": "ESTIMATED (literature-typical per-class assumption)", "inflow_m3s": 0.0, "capacity_m3s": 0.2625, "surcharge_m3s": 0.0, "is_sink": false, "role": "junction", "provenance": "SIMULATED", "rainfall_scenario": "observed"}}, {"type": "Feature", "geometry": {"type": "Point", "coordinates": [72.85669395973154, 18.99898456375839]}, "properties": {"node_id": 146, "t_min": 0, "depth_m": 0.0, "depth_category": "0-15cm", "landcover_class": 10, "runoff_coeff": 0.15, "runoff_coeff_provenance": "ESTIMATED (literature-typical per-class assumption)", "inflow_m3s": 0.0, "capacity_m3s": 0.125, "surcharge_m3s": 0.0, "is_sink": false, "role": "headwater inlet", "provenance": "SIMULATED", "rainfall_scenario": "observed"}}, {"type": "Feature", "geometry": {"type": "Point", "coordinates": [72.8397812080537, 18.998716107382553]}, "properties": {"node_id": 147, "t_min": 0, "depth_m": 0.0, "depth_category": "0-15cm", "landcover_class": 10, "runoff_coeff": 0.15, "runoff_coeff_provenance": "ESTIMATED (literature-typical per-class assumption)", "inflow_m3s": 0.0, "capacity_m3s": 0.175, "surcharge_m3s": 0.0, "is_sink": false, "role": "junction", "provenance": "SIMULATED", "rainfall_scenario": "observed"}}, {"type": "Feature", "geometry": {"type": "Point", "coordinates": [72.83951275167784, 18.99898456375839]}, "properties": {"node_id": 148, "t_min": 0, "depth_m": 0.0, "depth_category": "0-15cm", "landcover_class": 50, "runoff_coeff": 0.85, "runoff_coeff_provenance": "ESTIMATED (literature-typical per-class assumption)", "inflow_m3s": 0.0, "capacity_m3s": 0.175, "surcharge_m3s": 0.0, "is_sink": true, "role": "sink / potential surcharge & ponding point", "provenance": "SIMULATED", "rainfall_scenario": "observed"}}, {"type": "Feature", "geometry": {"type": "Point", "coordinates": [72.84004966442953, 18.998716107382553]}, "properties": {"node_id": 149, "t_min": 0, "depth_m": 0.0, "depth_category": "0-15cm", "landcover_class": 50, "runoff_coeff": 0.85, "runoff_coeff_provenance": "ESTIMATED (literature-typical per-class assumption)", "inflow_m3s": 0.0, "capacity_m3s": 0.1375, "surcharge_m3s": 0.0, "is_sink": false, "role": "junction", "provenance": "SIMULATED", "rainfall_scenario": "observed"}}, {"type": "Feature", "geometry": {"type": "Point", "coordinates": [72.84031812080536, 18.998716107382553]}, "properties": {"node_id": 150, "t_min": 0, "depth_m": 0.0, "depth_category": "0-15cm", "landcover_class": 50, "runoff_coeff": 0.85, "runoff_coeff_provenance": "ESTIMATED (literature-typical per-class assumption)", "inflow_m3s": 0.0, "capacity_m3s": 0.125, "surcharge_m3s": 0.0, "is_sink": false, "role": "headwater inlet", "provenance": "SIMULATED", "rainfall_scenario": "observed"}}, {"type": "Feature", "geometry": {"type": "Point", "coordinates": [72.84380805369128, 18.998716107382553]}, "properties": {"node_id": 151, "t_min": 0, "depth_m": 0.0, "depth_category": "0-15cm", "landcover_class": 50, "runoff_coeff": 0.85, "runoff_coeff_provenance": "ESTIMATED (literature-typical per-class assumption)", "inflow_m3s": 0.0, "capacity_m3s": 0.15, "surcharge_m3s": 0.0, "is_sink": false, "role": "headwater inlet", "provenance": "SIMULATED", "rainfall_scenario": "observed"}}, {"type": "Feature", "geometry": {"type": "Point", "coordinates": [72.84649261744966, 18.998716107382553]}, "properties": {"node_id": 152, "t_min": 0, "depth_m": 0.0, "depth_category": "0-15cm", "landcover_class": 10, "runoff_coeff": 0.15, "runoff_coeff_provenance": "ESTIMATED (literature-typical per-class assumption)", "inflow_m3s": 0.0, "capacity_m3s": 0.175, "surcharge_m3s": 0.0, "is_sink": false, "role": "junction", "provenance": "SIMULATED", "rainfall_scenario": "observed"}}, {"type": "Feature", "geometry": {"type": "Point", "coordinates": [72.84649261744966, 18.998447651006714]}, "properties": {"node_id": 153, "t_min": 0, "depth_m": 0.0, "depth_category": "0-15cm", "landcover_class": 50, "runoff_coeff": 0.85, "runoff_coeff_provenance": "ESTIMATED (literature-typical per-class assumption)", "inflow_m3s": 0.0, "capacity_m3s": 0.175, "surcharge_m3s": 0.0, "is_sink": true, "role": "sink / potential surcharge & ponding point", "provenance": "SIMULATED", "rainfall_scenario": "observed"}}, {"type": "Feature", "geometry": {"type": "Point", "coordinates": [72.8467610738255, 18.998716107382553]}, "properties": {"node_id": 154, "t_min": 0, "depth_m": 0.0, "depth_category": "0-15cm", "landcover_class": 10, "runoff_coeff": 0.15, "runoff_coeff_provenance": "ESTIMATED (literature-typical per-class assumption)", "inflow_m3s": 0.0, "capacity_m3s": 0.1625, "surcharge_m3s": 0.0, "is_sink": false, "role": "junction", "provenance": "SIMULATED", "rainfall_scenario": "observed"}}, {"type": "Feature", "geometry": {"type": "Point", "coordinates": [72.84702953020134, 18.998716107382553]}, "properties": {"node_id": 155, "t_min": 0, "depth_m": 0.0, "depth_category": "0-15cm", "landcover_class": 50, "runoff_coeff": 0.85, "runoff_coeff_provenance": "ESTIMATED (literature-typical per-class assumption)", "inflow_m3s": 0.0, "capacity_m3s": 0.15, "surcharge_m3s": 0.0, "is_sink": false, "role": "headwater inlet", "provenance": "SIMULATED", "rainfall_scenario": "observed"}}, {"type": "Feature", "geometry": {"type": "Point", "coordinates": [72.84917718120805, 18.998447651006714]}, "properties": {"node_id": 156, "t_min": 0, "depth_m": 0.0, "depth_category": "0-15cm", "landcover_class": 50, "runoff_coeff": 0.85, "runoff_coeff_provenance": "ESTIMATED (literature-typical per-class assumption)", "inflow_m3s": 0.0, "capacity_m3s": 0.2625, "surcharge_m3s": 0.0, "is_sink": true, "role": "sink / potential surcharge & ponding point", "provenance": "SIMULATED", "rainfall_scenario": "observed"}}, {"type": "Feature", "geometry": {"type": "Point", "coordinates": [72.82394228187918, 18.998179194630875]}, "properties": {"node_id": 157, "t_min": 0, "depth_m": 0.0, "depth_category": "0-15cm", "landcover_class": 50, "runoff_coeff": 0.85, "runoff_coeff_provenance": "ESTIMATED (literature-typical per-class assumption)", "inflow_m3s": 0.0, "capacity_m3s": 0.15, "surcharge_m3s": 0.0, "is_sink": false, "role": "headwater inlet", "provenance": "SIMULATED", "rainfall_scenario": "observed"}}, {"type": "Feature", "geometry": {"type": "Point", "coordinates": [72.82367382550335, 18.997910738255037]}, "properties": {"node_id": 158, "t_min": 0, "depth_m": 0.0, "depth_category": "0-15cm", "landcover_class": 30, "runoff_coeff": 0.25, "runoff_coeff_provenance": "ESTIMATED (literature-typical per-class assumption)", "inflow_m3s": 0.0, "capacity_m3s": 0.2, "surcharge_m3s": 0.0, "is_sink": false, "role": "junction", "provenance": "SIMULATED", "rainfall_scenario": "observed"}}, {"type": "Feature", "geometry": {"type": "Point", "coordinates": [72.82340536912751, 18.997910738255037]}, "properties": {"node_id": 159, "t_min": 0, "depth_m": 0.0, "depth_category": "0-15cm", "landcover_class": 10, "runoff_coeff": 0.15, "runoff_coeff_provenance": "ESTIMATED (literature-typical per-class assumption)", "inflow_m3s": 0.0, "capacity_m3s": 0.2, "surcharge_m3s": 0.0, "is_sink": true, "role": "sink / potential surcharge & ponding point", "provenance": "SIMULATED", "rainfall_scenario": "observed"}}, {"type": "Feature", "geometry": {"type": "Point", "coordinates": [72.83199597315436, 18.997910738255037]}, "properties": {"node_id": 160, "t_min": 0, "depth_m": 0.0, "depth_category": "0-15cm", "landcover_class": 50, "runoff_coeff": 0.85, "runoff_coeff_provenance": "ESTIMATED (literature-typical per-class assumption)", "inflow_m3s": 0.0, "capacity_m3s": 0.15, "surcharge_m3s": 0.0, "is_sink": false, "role": "headwater inlet", "provenance": "SIMULATED", "rainfall_scenario": "observed"}}, {"type": "Feature", "geometry": {"type": "Point", "coordinates": [72.83199597315436, 18.998179194630875]}, "properties": {"node_id": 161, "t_min": 0, "depth_m": 0.0, "depth_category": "0-15cm", "landcover_class": 50, "runoff_coeff": 0.85, "runoff_coeff_provenance": "ESTIMATED (literature-typical per-class assumption)", "inflow_m3s": 0.0, "capacity_m3s": 0.15, "surcharge_m3s": 0.0, "is_sink": true, "role": "sink / potential surcharge & ponding point", "provenance": "SIMULATED", "rainfall_scenario": "observed"}}, {"type": "Feature", "geometry": {"type": "Point", "coordinates": [72.84890872483221, 18.997910738255037]}, "properties": {"node_id": 162, "t_min": 0, "depth_m": 0.0, "depth_category": "0-15cm", "landcover_class": 50, "runoff_coeff": 0.85, "runoff_coeff_provenance": "ESTIMATED (literature-typical per-class assumption)", "inflow_m3s": 0.0, "capacity_m3s": 0.175, "surcharge_m3s": 0.0, "is_sink": false, "role": "headwater inlet", "provenance": "SIMULATED", "rainfall_scenario": "observed"}}, {"type": "Feature", "geometry": {"type": "Point", "coordinates": [72.84917718120805, 18.998179194630875]}, "properties": {"node_id": 163, "t_min": 0, "depth_m": 0.0, "depth_category": "0-15cm", "landcover_class": 50, "runoff_coeff": 0.85, "runoff_coeff_provenance": "ESTIMATED (literature-typical per-class assumption)", "inflow_m3s": 0.0, "capacity_m3s": 0.175, "surcharge_m3s": 0.0, "is_sink": true, "role": "sink / potential surcharge & ponding point", "provenance": "SIMULATED", "rainfall_scenario": "observed"}}, {"type": "Feature", "geometry": {"type": "Point", "coordinates": [72.8454187919463, 18.997373825503356]}, "properties": {"node_id": 164, "t_min": 0, "depth_m": 0.0, "depth_category": "0-15cm", "landcover_class": 10, "runoff_coeff": 0.15, "runoff_coeff_provenance": "ESTIMATED (literature-typical per-class assumption)", "inflow_m3s": 0.0, "capacity_m3s": 0.2125, "surcharge_m3s": 0.0, "is_sink": false, "role": "headwater inlet", "provenance": "SIMULATED", "rainfall_scenario": "observed"}}, {"type": "Feature", "geometry": {"type": "Point", "coordinates": [72.84515033557047, 18.997105369127517]}, "properties": {"node_id": 165, "t_min": 0, "depth_m": 0.0, "depth_category": "0-15cm", "landcover_class": 10, "runoff_coeff": 0.15, "runoff_coeff_provenance": "ESTIMATED (literature-typical per-class assumption)", "inflow_m3s": 0.0, "capacity_m3s": 0.2125, "surcharge_m3s": 0.0, "is_sink": true, "role": "sink / potential surcharge & ponding point", "provenance": "SIMULATED", "rainfall_scenario": "observed"}}, {"type": "Feature", "geometry": {"type": "Point", "coordinates": [72.82447919463087, 18.997105369127517]}, "properties": {"node_id": 166, "t_min": 0, "depth_m": 0.0, "depth_category": "0-15cm", "landcover_class": 10, "runoff_coeff": 0.15, "runoff_coeff_provenance": "ESTIMATED (literature-typical per-class assumption)", "inflow_m3s": 0.0, "capacity_m3s": 0.125, "surcharge_m3s": 0.0, "is_sink": false, "role": "headwater inlet", "provenance": "SIMULATED", "rainfall_scenario": "observed"}}, {"type": "Feature", "geometry": {"type": "Point", "coordinates": [72.82421073825503, 18.99683691275168]}, "properties": {"node_id": 167, "t_min": 0, "depth_m": 0.0, "depth_category": "0-15cm", "landcover_class": 50, "runoff_coeff": 0.85, "runoff_coeff_provenance": "ESTIMATED (literature-typical per-class assumption)", "inflow_m3s": 0.0, "capacity_m3s": 0.125, "surcharge_m3s": 0.0, "is_sink": true, "role": "sink / potential surcharge & ponding point", "provenance": "SIMULATED", "rainfall_scenario": "observed"}}, {"type": "Feature", "geometry": {"type": "Point", "coordinates": [72.84729798657717, 18.997105369127517]}, "properties": {"node_id": 168, "t_min": 0, "depth_m": 0.0, "depth_category": "0-15cm", "landcover_class": 50, "runoff_coeff": 0.85, "runoff_coeff_provenance": "ESTIMATED (literature-typical per-class assumption)", "inflow_m3s": 0.0, "capacity_m3s": 0.1625, "surcharge_m3s": 0.0, "is_sink": false, "role": "headwater inlet", "provenance": "SIMULATED", "rainfall_scenario": "observed"}}, {"type": "Feature", "geometry": {"type": "Point", "coordinates": [72.84756644295302, 18.997105369127517]}, "properties": {"node_id": 169, "t_min": 0, "depth_m": 0.0, "depth_category": "0-15cm", "landcover_class": 10, "runoff_coeff": 0.15, "runoff_coeff_provenance": "ESTIMATED (literature-typical per-class assumption)", "inflow_m3s": 0.0, "capacity_m3s": 0.175, "surcharge_m3s": 0.0, "is_sink": false, "role": "junction", "provenance": "SIMULATED", "rainfall_scenario": "observed"}}, {"type": "Feature", "geometry": {"type": "Point", "coordinates": [72.84783489932886, 18.997105369127517]}, "properties": {"node_id": 170, "t_min": 0, "depth_m": 0.0, "depth_category": "0-15cm", "landcover_class": 50, "runoff_coeff": 0.85, "runoff_coeff_provenance": "ESTIMATED (literature-typical per-class assumption)", "inflow_m3s": 0.0, "capacity_m3s": 0.25, "surcharge_m3s": 0.0, "is_sink": false, "role": "junction", "provenance": "SIMULATED", "rainfall_scenario": "observed"}}, {"type": "Feature", "geometry": {"type": "Point", "coordinates": [72.8481033557047, 18.99683691275168]}, "properties": {"node_id": 171, "t_min": 0, "depth_m": 0.0, "depth_category": "0-15cm", "landcover_class": 50, "runoff_coeff": 0.85, "runoff_coeff_provenance": "ESTIMATED (literature-typical per-class assumption)", "inflow_m3s": 0.0, "capacity_m3s": 0.325, "surcharge_m3s": 0.0, "is_sink": false, "role": "junction", "provenance": "SIMULATED", "rainfall_scenario": "observed"}}, {"type": "Feature", "geometry": {"type": "Point", "coordinates": [72.84864026845638, 18.997105369127517]}, "properties": {"node_id": 172, "t_min": 0, "depth_m": 0.0, "depth_category": "0-15cm", "landcover_class": 50, "runoff_coeff": 0.85, "runoff_coeff_provenance": "ESTIMATED (literature-typical per-class assumption)", "inflow_m3s": 0.0, "capacity_m3s": 0.3625, "surcharge_m3s": 0.0, "is_sink": false, "role": "junction", "provenance": "SIMULATED", "rainfall_scenario": "observed"}}, {"type": "Feature", "geometry": {"type": "Point", "coordinates": [72.84890872483221, 18.997105369127517]}, "properties": {"node_id": 173, "t_min": 0, "depth_m": 0.0, "depth_category": "0-15cm", "landcover_class": 50, "runoff_coeff": 0.85, "runoff_coeff_provenance": "ESTIMATED (literature-typical per-class assumption)", "inflow_m3s": 0.0, "capacity_m3s": 0.375, "surcharge_m3s": 0.0, "is_sink": false, "role": "junction", "provenance": "SIMULATED", "rainfall_scenario": "observed"}}, {"type": "Feature", "geometry": {"type": "Point", "coordinates": [72.84917718120805, 18.99683691275168]}, "properties": {"node_id": 174, "t_min": 0, "depth_m": 0.0, "depth_category": "0-15cm", "landcover_class": 50, "runoff_coeff": 0.85, "runoff_coeff_provenance": "ESTIMATED (literature-typical per-class assumption)", "inflow_m3s": 0.0, "capacity_m3s": 0.4, "surcharge_m3s": 0.0, "is_sink": false, "role": "junction", "provenance": "SIMULATED", "rainfall_scenario": "observed"}}, {"type": "Feature", "geometry": {"type": "Point", "coordinates": [72.84837181208053, 18.99683691275168]}, "properties": {"node_id": 175, "t_min": 0, "depth_m": 0.0, "depth_category": "0-15cm", "landcover_class": 50, "runoff_coeff": 0.85, "runoff_coeff_provenance": "ESTIMATED (literature-typical per-class assumption)", "inflow_m3s": 0.0, "capacity_m3s": 0.3375, "surcharge_m3s": 0.0, "is_sink": false, "role": "junction", "provenance": "SIMULATED", "rainfall_scenario": "observed"}}, {"type": "Feature", "geometry": {"type": "Point", "coordinates": [72.8494456375839, 18.99683691275168]}, "properties": {"node_id": 176, "t_min": 0, "depth_m": 0.0, "depth_category": "0-15cm", "landcover_class": 50, "runoff_coeff": 0.85, "runoff_coeff_provenance": "ESTIMATED (literature-typical per-class assumption)", "inflow_m3s": 0.0, "capacity_m3s": 0.4, "surcharge_m3s": 0.0, "is_sink": true, "role": "sink / potential surcharge & ponding point", "provenance": "SIMULATED", "rainfall_scenario": "observed"}}, {"type": "Feature", "geometry": {"type": "Point", "coordinates": [72.84595570469799, 18.9963]}, "properties": {"node_id": 177, "t_min": 0, "depth_m": 0.0, "depth_category": "0-15cm", "landcover_class": 50, "runoff_coeff": 0.85, "runoff_coeff_provenance": "ESTIMATED (literature-typical per-class assumption)", "inflow_m3s": 0.0, "capacity_m3s": 0.1375, "surcharge_m3s": 0.0, "is_sink": false, "role": "headwater inlet", "provenance": "SIMULATED", "rainfall_scenario": "observed"}}, {"type": "Feature", "geometry": {"type": "Point", "coordinates": [72.84568724832215, 18.9963]}, "properties": {"node_id": 178, "t_min": 0, "depth_m": 0.0, "depth_category": "0-15cm", "landcover_class": 10, "runoff_coeff": 0.15, "runoff_coeff_provenance": "ESTIMATED (literature-typical per-class assumption)", "inflow_m3s": 0.0, "capacity_m3s": 0.1375, "surcharge_m3s": 0.0, "is_sink": true, "role": "sink / potential surcharge & ponding point", "provenance": "SIMULATED", "rainfall_scenario": "observed"}}]}