{"type": "FeatureCollection", "features": [{"type": "Feature", "id": 1, "geometry": {"type": "Point", "coordinates": [72.841174799947, 19.001362100094]}, "properties": {"OBJECTID_1": 1, "OBJECTID": 1, "Ward": "F/S", "Latitude": 19.0013621, "Longitude": 72.8411748, "Unique_ID": "HA-1753872574465", "Hospital_Type": "Major Hospital", "Hospital_Name": "KEM Hospital, Parel", "Hospital_Address": "Acharya Dhonde Marg, Parel Mumbai", "OPD_Time": "08:00 - 16:00", "LabRoutine__Yes_No_": "Yes", "Lab_Time__Routine_Start_": "20:00", "Lab_Time__Routine_End_": "16:00", "Lab_Emergency__24_7_": "Yes", "General_Speciality": "ANC, Anesthesia, Anesthesiology, ART, Ayurvedic, Chest TB, Casualty, Dermatology, Diet Consultation, Diabetes OPD, Dental, ENT, Ophthalmology, Gen.Surgery, General Medicine, Gynecologic & Obs, IPD Services, Immunization OPD, Leprosy, Medicine, Medicine with ICU, NCD OPD, NTEP(TB), OBGY, OPD-Medicine, Pathology, Psychiatry, PT, Radiology, School Clinic, Skin & V.D, Surgery, TB Chest, Trauma ward, Medical, Pediatrics, Psychiatric & De Addiction, Chest Medicine, Obst & Gyn., Anesthesia (Pain Clinic), Pediatric Surgery, Orthopedics", "Super_speciality": "Cardiac, Rheumatology, Neuro Medicine, Hematology, G.I.C.Surgery, Clinical Pharmacology, Nephrology, Endocrinology, G.I.Medical, Neurosurgery, Neurology, Neonatology, Plastic Surgery, Thoracic Surgery, Cardiology, Urology, Ayurvedic, Pediatric Surgery", "ICUs": "EMS, ICU, IPCU, PICU, SICU", "Diagnostic": "Biochemistry, Blood group testing, Blood sugar testing, CT scan, Dengue test, ECG, Haematology, Histopathology, ICTC, IN-House pathology laboratory, Laboratory, Microbiology, MRI, MP test, School clinic, Ultrasonography (USG), UPT (Urine pregnancy test), VDRL, Widal test, X-ray", "Photo_OPD_URL": "https://drive.google.com/file/d/1aRUD1IJa8OcYyN6DKbRajHJ5Sag6UxZW/view?usp=drivesdk", "Photo_IPD_URL": "https://drive.google.com/file/d/1aIoJoTY00gqxU729V-rH5K-S2jJV2Qvf/view?usp=drivesdk", "User_Name": "KEM Hospital", "Mobile": "2224137000", "Time_stamp": 1753872574000, "FRONT_PHOTO_URL": "https://mcgm.maps.arcgis.com/sharing/rest/content/items/b221c210ac9942129f961b2391de4248/data", "GlobalID": "{9d215dc4-d904-42ed-bc3b-142024973bd4}", "CreationDate": 1756087566000, "Creator": "amrit.kumar", "EditDate": 1756087566000, "Editor": "amrit.kumar", "_source": "MCGM ArcGIS FeatureServer (official)", "amenity": "hospital", "name": "KEM Hospital, Parel", "susceptibility_score": 0.676, "susceptibility_provenance": "MODELLED"}}, {"type": "Feature", "id": 1, "geometry": {"type": "Point", "coordinates": [72.823631709, 19.0132933080001]}, "properties": {"OBJECTID": 1, "FEATUREID": "FB13148100015", "NAME": "Worli Fire Station", "TYPE": 1, "SUBTYPE": null, "LOCATION": "Dr Annie Besant Road, Adarsh Nagar, Prabhadevi, Mumbai - 400030", "BRD_LINE_NO": "24300178", "CNTRL_ROOM_NO": null, "TYPE_CONSTRUCT": null, "YEAR_CONSTRUCT": null, "NO_FLOOR": null, "NO_ROOMS": null, "NO_COM_TOILET": null, "NO_GEN_TOILET": null, "NO_LAD_TOILET": null, "BATHROOM_FAC": null, "RAMP_DISABLED": null, "OPEN_SPACE": null, "REMARKS": null, "EDUPDATEUSER": "Sonawane Chandrakala Laxman", "EDUPDATETIME": 1683113224000, "CREATED_USER": "DMMASTER", "CREATED_DATE": 1529055514000, "LAST_EDITED_USER": "DMMASTER", "LAST_EDITED_DATE": 1566147667000, "HEIGHT_TO_MSL": null, "SYMMETRIC": null, "GROUND": null, "NO_HALL_AUD": null, "SEAT_CAPACITY": null, "WATER_TANK_CAPA": null, "NO_BASEMENT": null, "NO_WATER_TANK": null, "NO_ELEVATOR": null, "PAS": null, "CCTV_SERVE": null, "STRUCTURAL_AUDIT": null, "FIRE_EXTING_SYS": null, "FIRE_AUDIT": null, "CENTRALIZED_AC": null, "DISPLAY_BOARD": null, "HAZ_MAT": null, "ALT_ELEC": null, "WARD": "G/S", "ELEVATOR_CONTACT_LIST": null, "ELEVATOR_INTERCOM": null, "WORKING_HRS": null, "EMPLOYEE_QTY": null, "EMPLOYEE_MALE": null, "EMPLOYEE_FEMALE": null, "EMPLOYEE_DIF_ABLE": null, "WORKING_HRS_STR": null, "WORKING_HRS_STP": null, "_source": "MCGM ArcGIS FeatureServer (official)", "amenity": "fire_station", "name": "Worli Fire Station", "susceptibility_score": 0.667, "susceptibility_provenance": "MODELLED"}}, {"type": "Feature", "id": 2, "geometry": {"type": "Point", "coordinates": [72.8410774170001, 19.033071502]}, "properties": {"OBJECTID": 2, "FEATUREID": "FB15167300013", "NAME": "Shivaji Park Fire Station", "TYPE": 1, "SUBTYPE": null, "LOCATION": "P N Kotnis Road, Opp Gokul Niwas Society, Mahim West, Mahim, Mumbai- 400016.", "BRD_LINE_NO": "24457203", "CNTRL_ROOM_NO": "101", "TYPE_CONSTRUCT": null, "YEAR_CONSTRUCT": null, "NO_FLOOR": null, "NO_ROOMS": null, "NO_COM_TOILET": null, "NO_GEN_TOILET": null, "NO_LAD_TOILET": null, "BATHROOM_FAC": null, "RAMP_DISABLED": null, "OPEN_SPACE": null, "REMARKS": "Shri. Mahesh Jadhav", "EDUPDATEUSER": "PATIL SIDDHI KAPIL", "EDUPDATETIME": 1683118853000, "CREATED_USER": "DMMASTER", "CREATED_DATE": 1529055514000, "LAST_EDITED_USER": "DMMASTER", "LAST_EDITED_DATE": 1566130246000, "HEIGHT_TO_MSL": null, "SYMMETRIC": null, "GROUND": null, "NO_HALL_AUD": null, "SEAT_CAPACITY": null, "WATER_TANK_CAPA": null, "NO_BASEMENT": null, "NO_WATER_TANK": null, "NO_ELEVATOR": null, "PAS": null, "CCTV_SERVE": null, "STRUCTURAL_AUDIT": null, "FIRE_EXTING_SYS": null, "FIRE_AUDIT": null, "CENTRALIZED_AC": null, "DISPLAY_BOARD": null, "HAZ_MAT": null, "ALT_ELEC": null, "WARD": "G/N", "ELEVATOR_CONTACT_LIST": null, "ELEVATOR_INTERCOM": null, "WORKING_HRS": null, "EMPLOYEE_QTY": null, "EMPLOYEE_MALE": null, "EMPLOYEE_FEMALE": null, "EMPLOYEE_DIF_ABLE": null, "WORKING_HRS_STR": null, "WORKING_HRS_STP": null, "_source": "MCGM ArcGIS FeatureServer (official)", "amenity": "fire_station", "name": "Shivaji Park Fire Station", "susceptibility_score": 0.5161, "susceptibility_provenance": "MODELLED"}}, {"type": "Feature", "id": 11, "geometry": {"type": "Point", "coordinates": [72.8455960000001, 19.014301]}, "properties": {"OBJECTID": 11, "FEATUREID": "FB16141200011", "NAME": "Dadar Fire Station", "TYPE": 1, "SUBTYPE": null, "LOCATION": "Dr. Babasaheb Ambedkar Road, Old BDD Chawl, Dadar East, Mumbai - 400014.", "BRD_LINE_NO": "24134200", "CNTRL_ROOM_NO": null, "TYPE_CONSTRUCT": null, "YEAR_CONSTRUCT": null, "NO_FLOOR": null, "NO_ROOMS": null, "NO_COM_TOILET": null, "NO_GEN_TOILET": null, "NO_LAD_TOILET": null, "BATHROOM_FAC": null, "RAMP_DISABLED": null, "OPEN_SPACE": null, "REMARKS": "mahafireservice.gov.in", "EDUPDATEUSER": "Sonawane Chandrakala Laxman", "EDUPDATETIME": 1683113198000, "CREATED_USER": "DMMASTER", "CREATED_DATE": 1529055514000, "LAST_EDITED_USER": "DMMASTER", "LAST_EDITED_DATE": 1566147316000, "HEIGHT_TO_MSL": null, "SYMMETRIC": null, "GROUND": null, "NO_HALL_AUD": null, "SEAT_CAPACITY": null, "WATER_TANK_CAPA": null, "NO_BASEMENT": null, "NO_WATER_TANK": null, "NO_ELEVATOR": null, "PAS": null, "CCTV_SERVE": null, "STRUCTURAL_AUDIT": null, "FIRE_EXTING_SYS": null, "FIRE_AUDIT": null, "CENTRALIZED_AC": null, "DISPLAY_BOARD": null, "HAZ_MAT": null, "ALT_ELEC": null, "WARD": "F/S", "ELEVATOR_CONTACT_LIST": null, "ELEVATOR_INTERCOM": null, "WORKING_HRS": null, "EMPLOYEE_QTY": null, "EMPLOYEE_MALE": null, "EMPLOYEE_FEMALE": null, "EMPLOYEE_DIF_ABLE": null, "WORKING_HRS_STR": null, "WORKING_HRS_STP": null, "_source": "MCGM ArcGIS FeatureServer (official)", "amenity": "fire_station", "name": "Dadar Fire Station", "susceptibility_score": 0.6653, "susceptibility_provenance": "MODELLED"}}, {"type": "Feature", "id": 4, "geometry": {"type": "Point", "coordinates": [72.846027, 19.0076340000001]}, "properties": {"OBJECTID": 4, "FEATUREID": "PS07000000003", "NAME": "Armed Police Headquarters", "TYPE": 1, "SUBTYPE": "Office", "LOCATION": "67-C/8, Parel Bhoiwada St, Police Colony, Naigaon, Mumbai, Maharashtra 400014", "BRD_LINE_NO": "24146066", "CNTRL_ROOM_NO": null, "TYPE_CONSTRUCT": null, "YEAR_CONSTRUCT": null, "NO_FLOOR": null, "NO_ROOMS": null, "NO_COM_TOILET": null, "NO_GEN_TOILET": null, "NO_LAD_TOILET": null, "BATHROOM_FAC": null, "RAMP_DISABLED": null, "OPEN_SPACE": null, "REMARKS": null, "EDUPDATEUSER": null, "EDUPDATETIME": null, "CREATED_USER": "DMMASTER", "CREATED_DATE": 1566301340000, "LAST_EDITED_USER": "DMMASTER", "LAST_EDITED_DATE": 1566301410000, "HEIGHT_TO_MSL": null, "WATER_TANK_CAPA": null, "SYMMETRIC": null, "GROUND": null, "NO_BASEMENT": null, "NO_HALL_AUD": null, "SEAT_CAPACITY": null, "NO_WATER_TANK": null, "NO_ELEVATOR": null, "PAS": null, "CCTV_SERVE": null, "STRUCTURAL_AUDIT": null, "FIRE_EXTING_SYS": null, "FIRE_AUDIT": null, "CENTRALIZED_AC": null, "DISPLAY_BOARD": null, "HAZ_MAT": null, "ALT_ELEC": null, "WARD": "F/S", "ELEVATOR_CONTACT_LIST": null, "ELEVATOR_INTERCOM": null, "WORKING_HRS": null, "EMPLOYEE_QTY": null, "EMPLOYEE_MALE": null, "EMPLOYEE_FEMALE": null, "EMPLOYEE_DIF_ABLE": null, "WORKING_HRS_STR": null, "WORKING_HRS_STP": null, "_source": "MCGM ArcGIS FeatureServer (official)", "amenity": "police", "name": "Armed Police Headquarters", "susceptibility_score": 0.4593, "susceptibility_provenance": "MODELLED"}}, {"type": "Feature", "id": 11, "geometry": {"type": "Point", "coordinates": [72.84596141, 19.01808348]}, "properties": {"OBJECTID": 11, "FEATUREID": "PS06000000001", "NAME": "State Inteligence Department Mumbai", "TYPE": 1, "SUBTYPE": "Office", "LOCATION": "Lokmaya Tilak Coloney Road, In Front of Laxumi Krupa CHS Near Light Pol No LNR 61-5 Near Dadar Station, Dadar East, Mumbai, 400014", "BRD_LINE_NO": null, "CNTRL_ROOM_NO": null, "TYPE_CONSTRUCT": null, "YEAR_CONSTRUCT": null, "NO_FLOOR": null, "NO_ROOMS": null, "NO_COM_TOILET": null, "NO_GEN_TOILET": null, "NO_LAD_TOILET": null, "BATHROOM_FAC": null, "RAMP_DISABLED": null, "OPEN_SPACE": null, "REMARKS": null, "EDUPDATEUSER": null, "EDUPDATETIME": null, "CREATED_USER": "DMMASTER", "CREATED_DATE": 1566133069000, "LAST_EDITED_USER": "DMMASTER", "LAST_EDITED_DATE": 1566308576000, "HEIGHT_TO_MSL": null, "WATER_TANK_CAPA": null, "SYMMETRIC": null, "GROUND": null, "NO_BASEMENT": null, "NO_HALL_AUD": null, "SEAT_CAPACITY": null, "NO_WATER_TANK": null, "NO_ELEVATOR": null, "PAS": null, "CCTV_SERVE": null, "STRUCTURAL_AUDIT": null, "FIRE_EXTING_SYS": null, "FIRE_AUDIT": null, "CENTRALIZED_AC": null, "DISPLAY_BOARD": null, "HAZ_MAT": null, "ALT_ELEC": null, "WARD": "F/N", "ELEVATOR_CONTACT_LIST": null, "ELEVATOR_INTERCOM": null, "WORKING_HRS": null, "EMPLOYEE_QTY": null, "EMPLOYEE_MALE": null, "EMPLOYEE_FEMALE": null, "EMPLOYEE_DIF_ABLE": null, "WORKING_HRS_STR": null, "WORKING_HRS_STP": null, "_source": "MCGM ArcGIS FeatureServer (official)", "amenity": "police", "name": "State Inteligence Department Mumbai", "susceptibility_score": 0.7093, "susceptibility_provenance": "MODELLED"}}, {"type": "Feature", "id": 19, "geometry": {"type": "Point", "coordinates": [72.8439134210001, 19.006691393]}, "properties": {"OBJECTID": 19, "FEATUREID": "PS15139300020", "NAME": "Bhoiwada Police Station", "TYPE": 1, "SUBTYPE": "Station", "LOCATION": "Bhoiwada, Opp. Sadakant Dhavan Khashaba Jadhav Marg, Parel, Mumbai-14. ", "BRD_LINE_NO": "24144220", "CNTRL_ROOM_NO": "24185637, 24181759\n", "TYPE_CONSTRUCT": null, "YEAR_CONSTRUCT": null, "NO_FLOOR": null, "NO_ROOMS": null, "NO_COM_TOILET": null, "NO_GEN_TOILET": null, "NO_LAD_TOILET": null, "BATHROOM_FAC": null, "RAMP_DISABLED": null, "OPEN_SPACE": null, "REMARKS": "Shirish Sawant  9870492753\nbhoiwadapolicestn@mtnl.net.in", "EDUPDATEUSER": "Ajit N Deshmukh", "EDUPDATETIME": 1445731200000, "CREATED_USER": "DMMASTER", "CREATED_DATE": 1479825702000, "LAST_EDITED_USER": "DMMASTER", "LAST_EDITED_DATE": 1566308542000, "HEIGHT_TO_MSL": null, "WATER_TANK_CAPA": null, "SYMMETRIC": null, "GROUND": null, "NO_BASEMENT": null, "NO_HALL_AUD": null, "SEAT_CAPACITY": null, "NO_WATER_TANK": null, "NO_ELEVATOR": null, "PAS": null, "CCTV_SERVE": null, "STRUCTURAL_AUDIT": null, "FIRE_EXTING_SYS": null, "FIRE_AUDIT": null, "CENTRALIZED_AC": null, "DISPLAY_BOARD": null, "HAZ_MAT": null, "ALT_ELEC": null, "WARD": "F/S", "ELEVATOR_CONTACT_LIST": null, "ELEVATOR_INTERCOM": null, "WORKING_HRS": null, "EMPLOYEE_QTY": null, "EMPLOYEE_MALE": null, "EMPLOYEE_FEMALE": null, "EMPLOYEE_DIF_ABLE": null, "WORKING_HRS_STR": null, "WORKING_HRS_STP": null, "_source": "MCGM ArcGIS FeatureServer (official)", "amenity": "police", "name": "Bhoiwada Police Station", "susceptibility_score": 0.4442, "susceptibility_provenance": "MODELLED"}}, {"type": "Feature", "id": 20, "geometry": {"type": "Point", "coordinates": [72.854344283, 19.0047508750001]}, "properties": {"OBJECTID": 20, "FEATUREID": "PS16126500022", "NAME": "Rafi Ahmed Kidwai Marg Police Station", "TYPE": 1, "SUBTYPE": "Station", "LOCATION": "Kidwai Nagar, Wadala, Mumbai - 400031. ", "BRD_LINE_NO": "24185618", "CNTRL_ROOM_NO": "24184375, \n24186836", "TYPE_CONSTRUCT": null, "YEAR_CONSTRUCT": null, "NO_FLOOR": null, "NO_ROOMS": null, "NO_COM_TOILET": null, "NO_GEN_TOILET": null, "NO_LAD_TOILET": null, "BATHROOM_FAC": null, "RAMP_DISABLED": null, "OPEN_SPACE": null, "REMARKS": "Arun Vithhal Inarkar   9870150140  rakmargpolicestation@mtnl.net.in", "EDUPDATEUSER": "Ajit N Deshmukh", "EDUPDATETIME": 1445731200000, "CREATED_USER": "DMMASTER", "CREATED_DATE": 1479825702000, "LAST_EDITED_USER": "DMMASTER", "LAST_EDITED_DATE": 1566308475000, "HEIGHT_TO_MSL": null, "WATER_TANK_CAPA": null, "SYMMETRIC": null, "GROUND": null, "NO_BASEMENT": null, "NO_HALL_AUD": null, "SEAT_CAPACITY": null, "NO_WATER_TANK": null, "NO_ELEVATOR": null, "PAS": null, "CCTV_SERVE": null, "STRUCTURAL_AUDIT": null, "FIRE_EXTING_SYS": null, "FIRE_AUDIT": null, "CENTRALIZED_AC": null, "DISPLAY_BOARD": null, "HAZ_MAT": null, "ALT_ELEC": null, "WARD": "F/S", "ELEVATOR_CONTACT_LIST": null, "ELEVATOR_INTERCOM": null, "WORKING_HRS": null, "EMPLOYEE_QTY": null, "EMPLOYEE_MALE": null, "EMPLOYEE_FEMALE": null, "EMPLOYEE_DIF_ABLE": null, "WORKING_HRS_STR": null, "WORKING_HRS_STP": null, "_source": "MCGM ArcGIS FeatureServer (official)", "amenity": "police", "name": "Rafi Ahmed Kidwai Marg Police Station", "susceptibility_score": 0.6101, "susceptibility_provenance": "MODELLED"}}, {"type": "Feature", "id": 37, "geometry": {"type": "Point", "coordinates": [72.8535612960001, 18.9973501380001]}, "properties": {"OBJECTID": 37, "FEATUREID": "PS17120400023", "NAME": "(Chowky) Sewree Poice Station", "TYPE": 1, "SUBTYPE": "Station", "LOCATION": "Sewree Poice Station", "BRD_LINE_NO": null, "CNTRL_ROOM_NO": null, "TYPE_CONSTRUCT": null, "YEAR_CONSTRUCT": null, "NO_FLOOR": null, "NO_ROOMS": null, "NO_COM_TOILET": null, "NO_GEN_TOILET": null, "NO_LAD_TOILET": null, "BATHROOM_FAC": null, "RAMP_DISABLED": null, "OPEN_SPACE": null, "REMARKS": null, "EDUPDATEUSER": null, "EDUPDATETIME": null, "CREATED_USER": "DMMASTER", "CREATED_DATE": 1479825702000, "LAST_EDITED_USER": "DMMASTER", "LAST_EDITED_DATE": 1608185466000, "HEIGHT_TO_MSL": null, "WATER_TANK_CAPA": null, "SYMMETRIC": null, "GROUND": null, "NO_BASEMENT": null, "NO_HALL_AUD": null, "SEAT_CAPACITY": null, "NO_WATER_TANK": null, "NO_ELEVATOR": null, "PAS": null, "CCTV_SERVE": null, "STRUCTURAL_AUDIT": null, "FIRE_EXTING_SYS": null, "FIRE_AUDIT": null, "CENTRALIZED_AC": null, "DISPLAY_BOARD": null, "HAZ_MAT": null, "ALT_ELEC": null, "WARD": "F/S", "ELEVATOR_CONTACT_LIST": null, "ELEVATOR_INTERCOM": null, "WORKING_HRS": null, "EMPLOYEE_QTY": null, "EMPLOYEE_MALE": null, "EMPLOYEE_FEMALE": null, "EMPLOYEE_DIF_ABLE": null, "WORKING_HRS_STR": null, "WORKING_HRS_STP": null, "_source": "MCGM ArcGIS FeatureServer (official)", "amenity": "police", "name": "(Chowky) Sewree Poice Station", "susceptibility_score": 0.5444, "susceptibility_provenance": "MODELLED"}}, {"type": "Feature", "id": 40, "geometry": {"type": "Point", "coordinates": [72.8537450000001, 19.0165420000001]}, "properties": {"OBJECTID": 40, "FEATUREID": "PS17140400012", "NAME": "(Duplicate) Wadala T T Police Station", "TYPE": 1, "SUBTYPE": "Station", "LOCATION": "Wadala T T Police Station", "BRD_LINE_NO": null, "CNTRL_ROOM_NO": null, "TYPE_CONSTRUCT": null, "YEAR_CONSTRUCT": null, "NO_FLOOR": null, "NO_ROOMS": null, "NO_COM_TOILET": null, "NO_GEN_TOILET": null, "NO_LAD_TOILET": null, "BATHROOM_FAC": null, "RAMP_DISABLED": null, "OPEN_SPACE": null, "REMARKS": null, "EDUPDATEUSER": null, "EDUPDATETIME": null, "CREATED_USER": "DMMASTER", "CREATED_DATE": 1479825702000, "LAST_EDITED_USER": "DMMASTER", "LAST_EDITED_DATE": 1606405316000, "HEIGHT_TO_MSL": null, "WATER_TANK_CAPA": null, "SYMMETRIC": null, "GROUND": null, "NO_BASEMENT": null, "NO_HALL_AUD": null, "SEAT_CAPACITY": null, "NO_WATER_TANK": null, "NO_ELEVATOR": null, "PAS": null, "CCTV_SERVE": null, "STRUCTURAL_AUDIT": null, "FIRE_EXTING_SYS": null, "FIRE_AUDIT": null, "CENTRALIZED_AC": null, "DISPLAY_BOARD": null, "HAZ_MAT": null, "ALT_ELEC": null, "WARD": "F/N", "ELEVATOR_CONTACT_LIST": null, "ELEVATOR_INTERCOM": null, "WORKING_HRS": null, "EMPLOYEE_QTY": null, "EMPLOYEE_MALE": null, "EMPLOYEE_FEMALE": null, "EMPLOYEE_DIF_ABLE": null, "WORKING_HRS_STR": null, "WORKING_HRS_STP": null, "_source": "MCGM ArcGIS FeatureServer (official)", "amenity": "police", "name": "(Duplicate) Wadala T T Police Station", "susceptibility_score": 0.6036, "susceptibility_provenance": "MODELLED"}}, {"type": "Feature", "id": 79, "geometry": {"type": "Point", "coordinates": [72.8576560000001, 19.0308690000001]}, "properties": {"OBJECTID": 79, "FEATUREID": "PS17164000007", "NAME": "Sion Police Station", "TYPE": 1, "SUBTYPE": "Station", "LOCATION": "Matunga Police Station compound,King's Circle Flyover, Mutunga,  Mumbai-400019.", "BRD_LINE_NO": "24031376", "CNTRL_ROOM_NO": "24026307", "TYPE_CONSTRUCT": null, "YEAR_CONSTRUCT": null, "NO_FLOOR": null, "NO_ROOMS": null, "NO_COM_TOILET": null, "NO_GEN_TOILET": null, "NO_LAD_TOILET": null, "BATHROOM_FAC": null, "RAMP_DISABLED": null, "OPEN_SPACE": null, "REMARKS": "Y.C.Gorade 9870160621 sionpolicestation@mtnl.net.in", "EDUPDATEUSER": "Ajit N Deshmukh", "EDUPDATETIME": 1445731200000, "CREATED_USER": "DMMASTER", "CREATED_DATE": 1479825702000, "LAST_EDITED_USER": "DMMASTER", "LAST_EDITED_DATE": 1566308566000, "HEIGHT_TO_MSL": null, "WATER_TANK_CAPA": null, "SYMMETRIC": null, "GROUND": null, "NO_BASEMENT": null, "NO_HALL_AUD": null, "SEAT_CAPACITY": null, "NO_WATER_TANK": null, "NO_ELEVATOR": null, "PAS": null, "CCTV_SERVE": null, "STRUCTURAL_AUDIT": null, "FIRE_EXTING_SYS": null, "FIRE_AUDIT": null, "CENTRALIZED_AC": null, "DISPLAY_BOARD": null, "HAZ_MAT": null, "ALT_ELEC": null, "WARD": "F/N", "ELEVATOR_CONTACT_LIST": null, "ELEVATOR_INTERCOM": null, "WORKING_HRS": null, "EMPLOYEE_QTY": null, "EMPLOYEE_MALE": null, "EMPLOYEE_FEMALE": null, "EMPLOYEE_DIF_ABLE": null, "WORKING_HRS_STR": null, "WORKING_HRS_STP": null, "_source": "MCGM ArcGIS FeatureServer (official)", "amenity": "police", "name": "Sion Police Station", "susceptibility_score": 0.5005, "susceptibility_provenance": "MODELLED"}}, {"type": "Feature", "id": 80, "geometry": {"type": "Point", "coordinates": [72.8578390000001, 19.0311560000001]}, "properties": {"OBJECTID": 80, "FEATUREID": "PS17164000008", "NAME": "Matunga Police Station", "TYPE": 1, "SUBTYPE": "Station", "LOCATION": "Dr. Babasaheb Ambedkar Road, King's Circle Flyover, Mutunga,  Mumbai-400019. ", "BRD_LINE_NO": "24021512", "CNTRL_ROOM_NO": "24011783, 24010103\n ", "TYPE_CONSTRUCT": null, "YEAR_CONSTRUCT": null, "NO_FLOOR": null, "NO_ROOMS": null, "NO_COM_TOILET": null, "NO_GEN_TOILET": null, "NO_LAD_TOILET": null, "BATHROOM_FAC": null, "RAMP_DISABLED": null, "OPEN_SPACE": null, "REMARKS": "B.M.Kakad 9821220270\nmatungapolicestation@mtnl.net.in", "EDUPDATEUSER": "Ajit N Deshmukh", "EDUPDATETIME": 1445731200000, "CREATED_USER": "DMMASTER", "CREATED_DATE": 1479825702000, "LAST_EDITED_USER": "DMMASTER", "LAST_EDITED_DATE": 1566308512000, "HEIGHT_TO_MSL": null, "WATER_TANK_CAPA": null, "SYMMETRIC": null, "GROUND": null, "NO_BASEMENT": null, "NO_HALL_AUD": null, "SEAT_CAPACITY": null, "NO_WATER_TANK": null, "NO_ELEVATOR": null, "PAS": null, "CCTV_SERVE": null, "STRUCTURAL_AUDIT": null, "FIRE_EXTING_SYS": null, "FIRE_AUDIT": null, "CENTRALIZED_AC": null, "DISPLAY_BOARD": null, "HAZ_MAT": null, "ALT_ELEC": null, "WARD": "F/N", "ELEVATOR_CONTACT_LIST": null, "ELEVATOR_INTERCOM": null, "WORKING_HRS": null, "EMPLOYEE_QTY": null, "EMPLOYEE_MALE": null, "EMPLOYEE_FEMALE": null, "EMPLOYEE_DIF_ABLE": null, "WORKING_HRS_STR": null, "WORKING_HRS_STP": null, "_source": "MCGM ArcGIS FeatureServer (official)", "amenity": "police", "name": "Matunga Police Station", "susceptibility_score": 0.5233, "susceptibility_provenance": "MODELLED"}}, {"type": "Feature", "id": 101, "geometry": {"type": "Point", "coordinates": [72.855331, 19.026953]}, "properties": {"OBJECTID": 101, "FEATUREID": "PS17152600013", "NAME": "Police Station-1715260000365", "TYPE": 1, "SUBTYPE": "Station", "LOCATION": null, "BRD_LINE_NO": null, "CNTRL_ROOM_NO": null, "TYPE_CONSTRUCT": null, "YEAR_CONSTRUCT": null, "NO_FLOOR": null, "NO_ROOMS": null, "NO_COM_TOILET": null, "NO_GEN_TOILET": null, "NO_LAD_TOILET": null, "BATHROOM_FAC": null, "RAMP_DISABLED": null, "OPEN_SPACE": null, "REMARKS": null, "EDUPDATEUSER": null, "EDUPDATETIME": null, "CREATED_USER": "DMMASTER", "CREATED_DATE": 1479825702000, "LAST_EDITED_USER": "DMMASTER", "LAST_EDITED_DATE": 1598154087000, "HEIGHT_TO_MSL": null, "WATER_TANK_CAPA": null, "SYMMETRIC": null, "GROUND": null, "NO_BASEMENT": null, "NO_HALL_AUD": null, "SEAT_CAPACITY": null, "NO_WATER_TANK": null, "NO_ELEVATOR": null, "PAS": null, "CCTV_SERVE": null, "STRUCTURAL_AUDIT": null, "FIRE_EXTING_SYS": null, "FIRE_AUDIT": null, "CENTRALIZED_AC": null, "DISPLAY_BOARD": null, "HAZ_MAT": null, "ALT_ELEC": null, "WARD": "F/N", "ELEVATOR_CONTACT_LIST": null, "ELEVATOR_INTERCOM": null, "WORKING_HRS": null, "EMPLOYEE_QTY": null, "EMPLOYEE_MALE": null, "EMPLOYEE_FEMALE": null, "EMPLOYEE_DIF_ABLE": null, "WORKING_HRS_STR": null, "WORKING_HRS_STP": null, "_source": "MCGM ArcGIS FeatureServer (official)", "amenity": "police", "name": "Police Station-1715260000365", "susceptibility_score": 0.4863, "susceptibility_provenance": "MODELLED"}}, {"type": "Feature", "id": 102, "geometry": {"type": "Point", "coordinates": [72.8586778050001, 19.0165499010001]}, "properties": {"OBJECTID": 102, "FEATUREID": "PS17145400014", "NAME": "Police Station-1714540000366", "TYPE": 1, "SUBTYPE": "Station", "LOCATION": "Raffi Ahemad Kidwai marg, Wadala.", "BRD_LINE_NO": null, "CNTRL_ROOM_NO": null, "TYPE_CONSTRUCT": null, "YEAR_CONSTRUCT": null, "NO_FLOOR": null, "NO_ROOMS": null, "NO_COM_TOILET": null, "NO_GEN_TOILET": null, "NO_LAD_TOILET": null, "BATHROOM_FAC": null, "RAMP_DISABLED": null, "OPEN_SPACE": null, "REMARKS": null, "EDUPDATEUSER": null, "EDUPDATETIME": null, "CREATED_USER": "DMMASTER", "CREATED_DATE": 1479825702000, "LAST_EDITED_USER": "DMMASTER", "LAST_EDITED_DATE": 1598154094000, "HEIGHT_TO_MSL": null, "WATER_TANK_CAPA": null, "SYMMETRIC": null, "GROUND": null, "NO_BASEMENT": null, "NO_HALL_AUD": null, "SEAT_CAPACITY": null, "NO_WATER_TANK": null, "NO_ELEVATOR": null, "PAS": null, "CCTV_SERVE": null, "STRUCTURAL_AUDIT": null, "FIRE_EXTING_SYS": null, "FIRE_AUDIT": null, "CENTRALIZED_AC": null, "DISPLAY_BOARD": null, "HAZ_MAT": null, "ALT_ELEC": null, "WARD": "F/N", "ELEVATOR_CONTACT_LIST": null, "ELEVATOR_INTERCOM": null, "WORKING_HRS": null, "EMPLOYEE_QTY": null, "EMPLOYEE_MALE": null, "EMPLOYEE_FEMALE": null, "EMPLOYEE_DIF_ABLE": null, "WORKING_HRS_STR": null, "WORKING_HRS_STP": null, "_source": "MCGM ArcGIS FeatureServer (official)", "amenity": "police", "name": "Police Station-1714540000366", "susceptibility_score": 0.5627, "susceptibility_provenance": "MODELLED"}}, {"type": "Feature", "id": 103, "geometry": {"type": "Point", "coordinates": [72.8463750000001, 19.0109830000001]}, "properties": {"OBJECTID": 103, "FEATUREID": "PS16132800015", "NAME": "Deputy Commissioner Office ", "TYPE": 1, "SUBTYPE": "Office", "LOCATION": "Deputy Commisioner Office Police Headquarter, Apana Bazar, Borivada, Naigaon, Dadar", "BRD_LINE_NO": null, "CNTRL_ROOM_NO": null, "TYPE_CONSTRUCT": null, "YEAR_CONSTRUCT": null, "NO_FLOOR": null, "NO_ROOMS": null, "NO_COM_TOILET": null, "NO_GEN_TOILET": null, "NO_LAD_TOILET": null, "BATHROOM_FAC": null, "RAMP_DISABLED": null, "OPEN_SPACE": null, "REMARKS": null, "EDUPDATEUSER": null, "EDUPDATETIME": null, "CREATED_USER": "DMMASTER", "CREATED_DATE": 1479825702000, "LAST_EDITED_USER": "DMMASTER", "LAST_EDITED_DATE": 1598154110000, "HEIGHT_TO_MSL": null, "WATER_TANK_CAPA": null, "SYMMETRIC": null, "GROUND": null, "NO_BASEMENT": null, "NO_HALL_AUD": null, "SEAT_CAPACITY": null, "NO_WATER_TANK": null, "NO_ELEVATOR": null, "PAS": null, "CCTV_SERVE": null, "STRUCTURAL_AUDIT": null, "FIRE_EXTING_SYS": null, "FIRE_AUDIT": null, "CENTRALIZED_AC": null, "DISPLAY_BOARD": null, "HAZ_MAT": null, "ALT_ELEC": null, "WARD": "F/S", "ELEVATOR_CONTACT_LIST": null, "ELEVATOR_INTERCOM": null, "WORKING_HRS": null, "EMPLOYEE_QTY": null, "EMPLOYEE_MALE": null, "EMPLOYEE_FEMALE": null, "EMPLOYEE_DIF_ABLE": null, "WORKING_HRS_STR": null, "WORKING_HRS_STP": null, "_source": "MCGM ArcGIS FeatureServer (official)", "amenity": "police", "name": "Deputy Commissioner Office ", "susceptibility_score": 0.5779, "susceptibility_provenance": "MODELLED"}}, {"type": "Feature", "id": 104, "geometry": {"type": "Point", "coordinates": [72.8469160000001, 19.0073320000001]}, "properties": {"OBJECTID": 104, "FEATUREID": "PS16133400017", "NAME": "G D Marg Police Station", "TYPE": 1, "SUBTYPE": "Station", "LOCATION": "G D Ambekar Marg, Naigaon, Dadar East, Mumbai, ", "BRD_LINE_NO": null, "CNTRL_ROOM_NO": null, "TYPE_CONSTRUCT": null, "YEAR_CONSTRUCT": null, "NO_FLOOR": null, "NO_ROOMS": null, "NO_COM_TOILET": null, "NO_GEN_TOILET": null, "NO_LAD_TOILET": null, "BATHROOM_FAC": null, "RAMP_DISABLED": null, "OPEN_SPACE": null, "REMARKS": null, "EDUPDATEUSER": null, "EDUPDATETIME": null, "CREATED_USER": "DMMASTER", "CREATED_DATE": 1479825702000, "LAST_EDITED_USER": "DMMASTER", "LAST_EDITED_DATE": 1598154143000, "HEIGHT_TO_MSL": null, "WATER_TANK_CAPA": null, "SYMMETRIC": null, "GROUND": null, "NO_BASEMENT": null, "NO_HALL_AUD": null, "SEAT_CAPACITY": null, "NO_WATER_TANK": null, "NO_ELEVATOR": null, "PAS": null, "CCTV_SERVE": null, "STRUCTURAL_AUDIT": null, "FIRE_EXTING_SYS": null, "FIRE_AUDIT": null, "CENTRALIZED_AC": null, "DISPLAY_BOARD": null, "HAZ_MAT": null, "ALT_ELEC": null, "WARD": "F/S", "ELEVATOR_CONTACT_LIST": null, "ELEVATOR_INTERCOM": null, "WORKING_HRS": null, "EMPLOYEE_QTY": null, "EMPLOYEE_MALE": null, "EMPLOYEE_FEMALE": null, "EMPLOYEE_DIF_ABLE": null, "WORKING_HRS_STR": null, "WORKING_HRS_STP": null, "_source": "MCGM ArcGIS FeatureServer (official)", "amenity": "police", "name": "G D Marg Police Station", "susceptibility_score": 0.5507, "susceptibility_provenance": "MODELLED"}}, {"type": "Feature", "id": 105, "geometry": {"type": "Point", "coordinates": [72.8604130000001, 19.0115970000001]}, "properties": {"OBJECTID": 105, "FEATUREID": "PS17137900021", "NAME": "Wadala Police Station1", "TYPE": 1, "SUBTYPE": "Station", "LOCATION": "Wadala Police Station", "BRD_LINE_NO": null, "CNTRL_ROOM_NO": null, "TYPE_CONSTRUCT": null, "YEAR_CONSTRUCT": null, "NO_FLOOR": null, "NO_ROOMS": null, "NO_COM_TOILET": null, "NO_GEN_TOILET": null, "NO_LAD_TOILET": null, "BATHROOM_FAC": null, "RAMP_DISABLED": null, "OPEN_SPACE": null, "REMARKS": null, "EDUPDATEUSER": null, "EDUPDATETIME": null, "CREATED_USER": "DMMASTER", "CREATED_DATE": 1479825702000, "LAST_EDITED_USER": "DMMASTER", "LAST_EDITED_DATE": 1598154154000, "HEIGHT_TO_MSL": null, "WATER_TANK_CAPA": null, "SYMMETRIC": null, "GROUND": null, "NO_BASEMENT": null, "NO_HALL_AUD": null, "SEAT_CAPACITY": null, "NO_WATER_TANK": null, "NO_ELEVATOR": null, "PAS": null, "CCTV_SERVE": null, "STRUCTURAL_AUDIT": null, "FIRE_EXTING_SYS": null, "FIRE_AUDIT": null, "CENTRALIZED_AC": null, "DISPLAY_BOARD": null, "HAZ_MAT": null, "ALT_ELEC": null, "WARD": "F/S", "ELEVATOR_CONTACT_LIST": null, "ELEVATOR_INTERCOM": null, "WORKING_HRS": null, "EMPLOYEE_QTY": null, "EMPLOYEE_MALE": null, "EMPLOYEE_FEMALE": null, "EMPLOYEE_DIF_ABLE": null, "WORKING_HRS_STR": null, "WORKING_HRS_STP": null, "_source": "MCGM ArcGIS FeatureServer (official)", "amenity": "police", "name": "Wadala Police Station1", "susceptibility_score": 0.4629, "susceptibility_provenance": "MODELLED"}}, {"type": "Feature", "id": 8, "geometry": {"type": "Point", "coordinates": [72.8361132046624, 19.0075631386431]}, "properties": {"FID": 8, "OBJECTID_1": 8, "NAME": "Prabhadevi", "N_TYPE": "Suburban Station", "N_REGION": "WESTERN", "For_Labell": " ", "_source": "MCGM ArcGIS FeatureServer (official)", "amenity": "railway", "name": "Prabhadevi", "susceptibility_score": 0.789, "susceptibility_provenance": "MODELLED"}}, {"type": "Feature", "id": 9, "geometry": {"type": "Point", "coordinates": [72.8431374888969, 19.0195608762157]}, "properties": {"FID": 9, "OBJECTID_1": 9, "NAME": "Dadar", "N_TYPE": "Suburban Station", "N_REGION": "WESTERN", "For_Labell": "Dadar", "_source": "MCGM ArcGIS FeatureServer (official)", "amenity": "railway", "name": "Dadar", "susceptibility_score": 0.7772, "susceptibility_provenance": "MODELLED"}}, {"type": "Feature", "id": 10, "geometry": {"type": "Point", "coordinates": [72.8469289503764, 19.028368597856]}, "properties": {"FID": 10, "OBJECTID_1": 10, "NAME": "Matunga Road", "N_TYPE": "Suburban Station", "N_REGION": "WESTERN", "For_Labell": " ", "_source": "MCGM ArcGIS FeatureServer (official)", "amenity": "railway", "name": "Matunga Road", "susceptibility_score": 0.7792, "susceptibility_provenance": "MODELLED"}}, {"type": "Feature", "id": 29, "geometry": {"type": "Point", "coordinates": [72.8376259004038, 19.0092440178425]}, "properties": {"FID": 29, "OBJECTID_1": 29, "NAME": "Parel", "N_TYPE": "Suburban Station", "N_REGION": "CENTRAL", "For_Labell": " ", "_source": "MCGM ArcGIS FeatureServer (official)", "amenity": "railway", "name": "Parel", "susceptibility_score": 0.805, "susceptibility_provenance": "MODELLED"}}, {"type": "Feature", "id": 30, "geometry": {"type": "Point", "coordinates": [72.843633420996, 19.0181435365389]}, "properties": {"FID": 30, "OBJECTID_1": 30, "NAME": "Dadar", "N_TYPE": "Suburban Station", "N_REGION": "CENTRAL", "For_Labell": "Dadar", "_source": "MCGM ArcGIS FeatureServer (official)", "amenity": "railway", "name": "Dadar", "susceptibility_score": 0.7703, "susceptibility_provenance": "MODELLED"}}, {"type": "Feature", "id": 31, "geometry": {"type": "Point", "coordinates": [72.8502084014804, 19.0274961050905]}, "properties": {"FID": 31, "OBJECTID_1": 31, "NAME": "Matunga", "N_TYPE": "Suburban Station", "N_REGION": "CENTRAL", "For_Labell": " ", "_source": "MCGM ArcGIS FeatureServer (official)", "amenity": "railway", "name": "Matunga", "susceptibility_score": 0.7447, "susceptibility_provenance": "MODELLED"}}, {"type": "Feature", "id": 44, "geometry": {"type": "Point", "coordinates": [72.854579130035, 18.9989313752645]}, "properties": {"FID": 44, "OBJECTID_1": 44, "NAME": "Sewri", "N_TYPE": "Suburban Station", "N_REGION": "HARBOUR", "For_Labell": " ", "_source": "MCGM ArcGIS FeatureServer (official)", "amenity": "railway", "name": "Sewri", "susceptibility_score": 0.4461, "susceptibility_provenance": "MODELLED"}}, {"type": "Feature", "id": 45, "geometry": {"type": "Point", "coordinates": [72.8589424803243, 19.016006309249]}, "properties": {"FID": 45, "OBJECTID_1": 45, "NAME": "Wadala Road", "N_TYPE": "Suburban Station", "N_REGION": "HARBOUR", "For_Labell": "Wadala Road", "_source": "MCGM ArcGIS FeatureServer (official)", "amenity": "railway", "name": "Wadala Road", "susceptibility_score": 0.5998, "susceptibility_provenance": "MODELLED"}}, {"type": "Feature", "id": 52, "geometry": {"type": "Point", "coordinates": [72.8571690397359, 19.0322664869549]}, "properties": {"FID": 52, "OBJECTID_1": 52, "NAME": "Kings Circle", "N_TYPE": "Suburban Station", "N_REGION": "HARBOUR", "For_Labell": " ", "_source": "MCGM ArcGIS FeatureServer (official)", "amenity": "railway", "name": "Kings Circle", "susceptibility_score": 0.5703, "susceptibility_provenance": "MODELLED"}}, {"type": "Feature", "geometry": {"type": "Point", "coordinates": [72.8374053, 18.9976522]}, "properties": {"osm_id": 245659166, "category": "traffic_signal", "name": "traffic_signal", "_source": "OpenStreetMap", "amenity": "traffic_signal", "susceptibility_score": 0.7094, "susceptibility_provenance": "MODELLED"}}, {"type": "Feature", "geometry": {"type": "Point", "coordinates": [72.8553463, 19.000099]}, "properties": {"osm_id": 245659173, "category": "traffic_signal", "name": "traffic_signal", "_source": "OpenStreetMap", "amenity": "traffic_signal", "susceptibility_score": 0.6044, "susceptibility_provenance": "MODELLED"}}, {"type": "Feature", "geometry": {"type": "Point", "coordinates": [72.8273935, 18.9982012]}, "properties": {"osm_id": 245659198, "category": "traffic_signal", "name": "traffic_signal", "_source": "OpenStreetMap", "amenity": "traffic_signal", "susceptibility_score": 0.6457, "susceptibility_provenance": "MODELLED"}}, {"type": "Feature", "geometry": {"type": "Point", "coordinates": [72.8537178, 19.0005127]}, "properties": {"osm_id": 245659363, "category": "traffic_signal", "name": "traffic_signal", "_source": "OpenStreetMap", "amenity": "traffic_signal", "susceptibility_score": 0.5519, "susceptibility_provenance": "MODELLED"}}, {"type": "Feature", "geometry": {"type": "Point", "coordinates": [72.8387892, 19.0032495]}, "properties": {"osm_id": 245659569, "category": "traffic_signal", "name": "traffic_signal", "_source": "OpenStreetMap", "amenity": "traffic_signal", "susceptibility_score": 0.733, "susceptibility_provenance": "MODELLED"}}, {"type": "Feature", "geometry": {"type": "Point", "coordinates": [72.8539461, 19.0048331]}, "properties": {"osm_id": 245659680, "category": "traffic_signal", "name": "traffic_signal", "_source": "OpenStreetMap", "amenity": "traffic_signal", "susceptibility_score": 0.6432, "susceptibility_provenance": "MODELLED"}}, {"type": "Feature", "geometry": {"type": "Point", "coordinates": [72.8396166, 19.0054639]}, "properties": {"osm_id": 245659759, "category": "traffic_signal", "name": "traffic_signal", "_source": "OpenStreetMap", "amenity": "traffic_signal", "susceptibility_score": 0.7182, "susceptibility_provenance": "MODELLED"}}, {"type": "Feature", "geometry": {"type": "Point", "coordinates": [72.8332775, 19.0093083]}, "properties": {"osm_id": 245660066, "category": "traffic_signal", "name": "traffic_signal", "_source": "OpenStreetMap", "amenity": "traffic_signal", "susceptibility_score": 0.6335, "susceptibility_provenance": "MODELLED"}}, {"type": "Feature", "geometry": {"type": "Point", "coordinates": [72.8418546, 19.0095545]}, "properties": {"osm_id": 245660069, "category": "traffic_signal", "name": "traffic_signal", "_source": "OpenStreetMap", "amenity": "traffic_signal", "susceptibility_score": 0.7115, "susceptibility_provenance": "MODELLED"}}, {"type": "Feature", "geometry": {"type": "Point", "coordinates": [72.8424216, 19.0104558]}, "properties": {"osm_id": 245660115, "category": "traffic_signal", "name": "traffic_signal", "_source": "OpenStreetMap", "amenity": "traffic_signal", "susceptibility_score": 0.733, "susceptibility_provenance": "MODELLED"}}, {"type": "Feature", "geometry": {"type": "Point", "coordinates": [72.8319758, 19.0111453]}, "properties": {"osm_id": 245660192, "category": "traffic_signal", "name": "traffic_signal", "_source": "OpenStreetMap", "amenity": "traffic_signal", "susceptibility_score": 0.7646, "susceptibility_provenance": "MODELLED"}}, {"type": "Feature", "geometry": {"type": "Point", "coordinates": [72.8435421, 19.0120149]}, "properties": {"osm_id": 245660237, "category": "traffic_signal", "name": "traffic_signal", "_source": "OpenStreetMap", "amenity": "traffic_signal", "susceptibility_score": 0.7162, "susceptibility_provenance": "MODELLED"}}, {"type": "Feature", "geometry": {"type": "Point", "coordinates": [72.8492446, 19.0126874]}, "properties": {"osm_id": 245660316, "category": "traffic_signal", "name": "traffic_signal", "_source": "OpenStreetMap", "amenity": "traffic_signal", "susceptibility_score": 0.5455, "susceptibility_provenance": "MODELLED"}}, {"type": "Feature", "geometry": {"type": "Point", "coordinates": [72.8239256, 19.0128856]}, "properties": {"osm_id": 245660329, "category": "traffic_signal", "name": "traffic_signal", "_source": "OpenStreetMap", "amenity": "traffic_signal", "susceptibility_score": 0.677, "susceptibility_provenance": "MODELLED"}}, {"type": "Feature", "geometry": {"type": "Point", "coordinates": [72.8238738, 19.0132009]}, "properties": {"osm_id": 245660365, "category": "traffic_signal", "name": "traffic_signal", "_source": "OpenStreetMap", "amenity": "traffic_signal", "susceptibility_score": 0.6755, "susceptibility_provenance": "MODELLED"}}, {"type": "Feature", "geometry": {"type": "Point", "coordinates": [72.8336388, 19.0133383]}, "properties": {"osm_id": 245660381, "category": "traffic_signal", "name": "traffic_signal", "_source": "OpenStreetMap", "amenity": "traffic_signal", "susceptibility_score": 0.7005, "susceptibility_provenance": "MODELLED"}}, {"type": "Feature", "geometry": {"type": "Point", "coordinates": [72.8274206, 19.0153528]}, "properties": {"osm_id": 245660549, "category": "traffic_signal", "name": "traffic_signal", "_source": "OpenStreetMap", "amenity": "traffic_signal", "susceptibility_score": 0.6242, "susceptibility_provenance": "MODELLED"}}, {"type": "Feature", "geometry": {"type": "Point", "coordinates": [72.8348437, 19.0160062]}, "properties": {"osm_id": 245660595, "category": "traffic_signal", "name": "traffic_signal", "_source": "OpenStreetMap", "amenity": "traffic_signal", "susceptibility_score": 0.6925, "susceptibility_provenance": "MODELLED"}}, {"type": "Feature", "geometry": {"type": "Point", "coordinates": [72.8292141, 19.0164871]}, "properties": {"osm_id": 245660664, "category": "traffic_signal", "name": "traffic_signal", "_source": "OpenStreetMap", "amenity": "traffic_signal", "susceptibility_score": 0.5983, "susceptibility_provenance": "MODELLED"}}, {"type": "Feature", "geometry": {"type": "Point", "coordinates": [72.8586486, 19.0168673]}, "properties": {"osm_id": 245660696, "category": "traffic_signal", "name": "traffic_signal", "_source": "OpenStreetMap", "amenity": "traffic_signal", "susceptibility_score": 0.5507, "susceptibility_provenance": "MODELLED"}}, {"type": "Feature", "geometry": {"type": "Point", "coordinates": [72.835894, 19.0185126]}, "properties": {"osm_id": 245660921, "category": "traffic_signal", "name": "traffic_signal", "_source": "OpenStreetMap", "amenity": "traffic_signal", "susceptibility_score": 0.6706, "susceptibility_provenance": "MODELLED"}}, {"type": "Feature", "geometry": {"type": "Point", "coordinates": [72.841158, 19.0203509]}, "properties": {"osm_id": 245661134, "category": "traffic_signal", "name": "traffic_signal", "_source": "OpenStreetMap", "amenity": "traffic_signal", "susceptibility_score": 0.7506, "susceptibility_provenance": "MODELLED"}}, {"type": "Feature", "geometry": {"type": "Point", "coordinates": [72.8508854, 19.0221655]}, "properties": {"osm_id": 245661288, "category": "traffic_signal", "name": "traffic_signal", "_source": "OpenStreetMap", "amenity": "traffic_signal", "susceptibility_score": 0.6332, "susceptibility_provenance": "MODELLED"}}, {"type": "Feature", "geometry": {"type": "Point", "coordinates": [72.8456289, 19.0251444]}, "properties": {"osm_id": 245661595, "category": "traffic_signal", "name": "traffic_signal", "_source": "OpenStreetMap", "amenity": "traffic_signal", "susceptibility_score": 0.6891, "susceptibility_provenance": "MODELLED"}}, {"type": "Feature", "geometry": {"type": "Point", "coordinates": [72.8551039, 19.0263695]}, "properties": {"osm_id": 245661730, "category": "traffic_signal", "name": "traffic_signal", "_source": "OpenStreetMap", "amenity": "traffic_signal", "susceptibility_score": 0.6541, "susceptibility_provenance": "MODELLED"}}, {"type": "Feature", "geometry": {"type": "Point", "coordinates": [72.8548364, 19.0270808]}, "properties": {"osm_id": 245661837, "category": "traffic_signal", "name": "traffic_signal", "_source": "OpenStreetMap", "amenity": "traffic_signal", "susceptibility_score": 0.6191, "susceptibility_provenance": "MODELLED"}}, {"type": "Feature", "geometry": {"type": "Point", "coordinates": [72.8552453, 19.027423]}, "properties": {"osm_id": 245661908, "category": "traffic_signal", "name": "traffic_signal", "_source": "OpenStreetMap", "amenity": "traffic_signal", "susceptibility_score": 0.6253, "susceptibility_provenance": "MODELLED"}}, {"type": "Feature", "geometry": {"type": "Point", "coordinates": [72.8413672, 19.0285586]}, "properties": {"osm_id": 245661918, "category": "traffic_signal", "name": "Raja Badhe Chowk", "_source": "OpenStreetMap", "amenity": "traffic_signal", "susceptibility_score": 0.6579, "susceptibility_provenance": "MODELLED"}}, {"type": "Feature", "geometry": {"type": "Point", "coordinates": [72.8572359, 19.029275]}, "properties": {"osm_id": 245662037, "category": "traffic_signal", "name": "traffic_signal", "_source": "OpenStreetMap", "amenity": "traffic_signal", "susceptibility_score": 0.6258, "susceptibility_provenance": "MODELLED"}}, {"type": "Feature", "geometry": {"type": "Point", "coordinates": [72.8381662, 19.0298187]}, "properties": {"osm_id": 245662066, "category": "traffic_signal", "name": "traffic_signal", "_source": "OpenStreetMap", "amenity": "traffic_signal", "susceptibility_score": 0.5593, "susceptibility_provenance": "MODELLED"}}, {"type": "Feature", "geometry": {"type": "Point", "coordinates": [72.8384121, 19.0302829]}, "properties": {"osm_id": 245662168, "category": "traffic_signal", "name": "traffic_signal", "_source": "OpenStreetMap", "amenity": "traffic_signal", "susceptibility_score": 0.5887, "susceptibility_provenance": "MODELLED"}}, {"type": "Feature", "geometry": {"type": "Point", "coordinates": [72.8420022, 19.0315329]}, "properties": {"osm_id": 245662295, "category": "traffic_signal", "name": "traffic_signal", "_source": "OpenStreetMap", "amenity": "traffic_signal", "susceptibility_score": 0.6565, "susceptibility_provenance": "MODELLED"}}, {"type": "Feature", "geometry": {"type": "Point", "coordinates": [72.8386, 19.0323075]}, "properties": {"osm_id": 245662337, "category": "traffic_signal", "name": "traffic_signal", "_source": "OpenStreetMap", "amenity": "traffic_signal", "susceptibility_score": 0.5688, "susceptibility_provenance": "MODELLED"}}, {"type": "Feature", "geometry": {"type": "Point", "coordinates": [72.8597535, 19.0350975]}, "properties": {"osm_id": 245662605, "category": "traffic_signal", "name": "traffic_signal", "_source": "OpenStreetMap", "amenity": "traffic_signal", "susceptibility_score": 0.6029, "susceptibility_provenance": "MODELLED"}}, {"type": "Feature", "geometry": {"type": "Point", "coordinates": [72.8423137, 19.0354004]}, "properties": {"osm_id": 245662646, "category": "traffic_signal", "name": "traffic_signal", "_source": "OpenStreetMap", "amenity": "traffic_signal", "susceptibility_score": 0.6645, "susceptibility_provenance": "MODELLED"}}, {"type": "Feature", "geometry": {"type": "Point", "coordinates": [72.8598767, 19.0346471]}, "properties": {"osm_id": 245662648, "category": "traffic_signal", "name": "traffic_signal", "_source": "OpenStreetMap", "amenity": "traffic_signal", "susceptibility_score": 0.645, "susceptibility_provenance": "MODELLED"}}, {"type": "Feature", "geometry": {"type": "Point", "coordinates": [72.8563068, 19.019605]}, "properties": {"osm_id": 276775161, "category": "traffic_signal", "name": "traffic_signal", "_source": "OpenStreetMap", "amenity": "traffic_signal", "susceptibility_score": 0.5801, "susceptibility_provenance": "MODELLED"}}, {"type": "Feature", "geometry": {"type": "Point", "coordinates": [72.8270408, 18.9982518]}, "properties": {"osm_id": 444753540, "category": "traffic_signal", "name": "traffic_signal", "_source": "OpenStreetMap", "amenity": "traffic_signal", "susceptibility_score": 0.6816, "susceptibility_provenance": "MODELLED"}}, {"type": "Feature", "geometry": {"type": "Point", "coordinates": [72.8275473, 18.9981802]}, "properties": {"osm_id": 471941466, "category": "traffic_signal", "name": "traffic_signal", "_source": "OpenStreetMap", "amenity": "traffic_signal", "susceptibility_score": 0.6434, "susceptibility_provenance": "MODELLED"}}, {"type": "Feature", "geometry": {"type": "Point", "coordinates": [72.8334559, 19.0091918]}, "properties": {"osm_id": 471942852, "category": "traffic_signal", "name": "traffic_signal", "_source": "OpenStreetMap", "amenity": "traffic_signal", "susceptibility_score": 0.7188, "susceptibility_provenance": "MODELLED"}}, {"type": "Feature", "geometry": {"type": "Point", "coordinates": [72.8548297, 19.0266746]}, "properties": {"osm_id": 493925065, "category": "traffic_signal", "name": "traffic_signal", "_source": "OpenStreetMap", "amenity": "traffic_signal", "susceptibility_score": 0.6386, "susceptibility_provenance": "MODELLED"}}, {"type": "Feature", "geometry": {"type": "Point", "coordinates": [72.8475601, 19.0181088]}, "properties": {"osm_id": 536726906, "category": "traffic_signal", "name": "traffic_signal", "_source": "OpenStreetMap", "amenity": "traffic_signal", "susceptibility_score": 0.7114, "susceptibility_provenance": "MODELLED"}}, {"type": "Feature", "geometry": {"type": "Point", "coordinates": [72.8464754, 19.0163138]}, "properties": {"osm_id": 587976149, "category": "traffic_signal", "name": "traffic_signal", "_source": "OpenStreetMap", "amenity": "traffic_signal", "susceptibility_score": 0.7124, "susceptibility_provenance": "MODELLED"}}, {"type": "Feature", "geometry": {"type": "Point", "coordinates": [72.8453833, 19.0148214]}, "properties": {"osm_id": 587976199, "category": "traffic_signal", "name": "traffic_signal", "_source": "OpenStreetMap", "amenity": "traffic_signal", "susceptibility_score": 0.6812, "susceptibility_provenance": "MODELLED"}}, {"type": "Feature", "geometry": {"type": "Point", "coordinates": [72.8362032, 19.0262395]}, "properties": {"osm_id": 631537700, "category": "traffic_signal", "name": "traffic_signal", "_source": "OpenStreetMap", "amenity": "traffic_signal", "susceptibility_score": 0.5965, "susceptibility_provenance": "MODELLED"}}, {"type": "Feature", "geometry": {"type": "Point", "coordinates": [72.837999, 19.0011061]}, "properties": {"osm_id": 1047634889, "category": "traffic_signal", "name": "traffic_signal", "_source": "OpenStreetMap", "amenity": "traffic_signal", "susceptibility_score": 0.5716, "susceptibility_provenance": "MODELLED"}}, {"type": "Feature", "geometry": {"type": "Point", "coordinates": [72.8376115, 18.9977014]}, "properties": {"osm_id": 1165388887, "category": "traffic_signal", "name": "traffic_signal", "_source": "OpenStreetMap", "amenity": "traffic_signal", "susceptibility_score": 0.7094, "susceptibility_provenance": "MODELLED"}}, {"type": "Feature", "geometry": {"type": "Point", "coordinates": [72.8426174, 19.0103274]}, "properties": {"osm_id": 1179221113, "category": "traffic_signal", "name": "traffic_signal", "_source": "OpenStreetMap", "amenity": "traffic_signal", "susceptibility_score": 0.7052, "susceptibility_provenance": "MODELLED"}}, {"type": "Feature", "geometry": {"type": "Point", "coordinates": [72.8420602, 19.0094542]}, "properties": {"osm_id": 1179221116, "category": "traffic_signal", "name": "traffic_signal", "_source": "OpenStreetMap", "amenity": "traffic_signal", "susceptibility_score": 0.7115, "susceptibility_provenance": "MODELLED"}}, {"type": "Feature", "geometry": {"type": "Point", "coordinates": [72.8420209, 19.009387]}, "properties": {"osm_id": 1179221118, "category": "traffic_signal", "name": "traffic_signal", "_source": "OpenStreetMap", "amenity": "traffic_signal", "susceptibility_score": 0.7115, "susceptibility_provenance": "MODELLED"}}, {"type": "Feature", "geometry": {"type": "Point", "coordinates": [72.8455526, 19.0146451]}, "properties": {"osm_id": 1179261850, "category": "traffic_signal", "name": "traffic_signal", "_source": "OpenStreetMap", "amenity": "traffic_signal", "susceptibility_score": 0.7032, "susceptibility_provenance": "MODELLED"}}, {"type": "Feature", "geometry": {"type": "Point", "coordinates": [72.84741, 19.0176564]}, "properties": {"osm_id": 1179269788, "category": "traffic_signal", "name": "traffic_signal", "_source": "OpenStreetMap", "amenity": "traffic_signal", "susceptibility_score": 0.6985, "susceptibility_provenance": "MODELLED"}}, {"type": "Feature", "geometry": {"type": "Point", "coordinates": [72.8602926, 19.0190215]}, "properties": {"osm_id": 1419256931, "category": "traffic_signal", "name": "traffic_signal", "_source": "OpenStreetMap", "amenity": "traffic_signal", "susceptibility_score": 0.5818, "susceptibility_provenance": "MODELLED"}}, {"type": "Feature", "geometry": {"type": "Point", "coordinates": [72.8428681, 19.0209368]}, "properties": {"osm_id": 1645886290, "category": "traffic_signal", "name": "traffic_signal", "_source": "OpenStreetMap", "amenity": "traffic_signal", "susceptibility_score": 0.807, "susceptibility_provenance": "MODELLED"}}, {"type": "Feature", "geometry": {"type": "Point", "coordinates": [72.8419635, 19.0212516]}, "properties": {"osm_id": 1645886338, "category": "traffic_signal", "name": "traffic_signal", "_source": "OpenStreetMap", "amenity": "traffic_signal", "susceptibility_score": 0.729, "susceptibility_provenance": "MODELLED"}}, {"type": "Feature", "geometry": {"type": "Point", "coordinates": [72.8287902, 19.0162865]}, "properties": {"osm_id": 1650385405, "category": "traffic_signal", "name": "traffic_signal", "_source": "OpenStreetMap", "amenity": "traffic_signal", "susceptibility_score": 0.6572, "susceptibility_provenance": "MODELLED"}}, {"type": "Feature", "geometry": {"type": "Point", "coordinates": [72.8559858, 19.0270115]}, "properties": {"osm_id": 1650694511, "category": "traffic_signal", "name": "traffic_signal", "_source": "OpenStreetMap", "amenity": "traffic_signal", "susceptibility_score": 0.6089, "susceptibility_provenance": "MODELLED"}}, {"type": "Feature", "geometry": {"type": "Point", "coordinates": [72.8555566, 19.0274221]}, "properties": {"osm_id": 1650694545, "category": "traffic_signal", "name": "traffic_signal", "_source": "OpenStreetMap", "amenity": "traffic_signal", "susceptibility_score": 0.651, "susceptibility_provenance": "MODELLED"}}, {"type": "Feature", "geometry": {"type": "Point", "coordinates": [72.8554847, 19.0000451]}, "properties": {"osm_id": 1650707622, "category": "traffic_signal", "name": "traffic_signal", "_source": "OpenStreetMap", "amenity": "traffic_signal", "susceptibility_score": 0.6022, "susceptibility_provenance": "MODELLED"}}, {"type": "Feature", "geometry": {"type": "Point", "coordinates": [72.8511283, 19.0220005]}, "properties": {"osm_id": 1650753970, "category": "traffic_signal", "name": "traffic_signal", "_source": "OpenStreetMap", "amenity": "traffic_signal", "susceptibility_score": 0.6826, "susceptibility_provenance": "MODELLED"}}, {"type": "Feature", "geometry": {"type": "Point", "coordinates": [72.8600211, 19.0349802]}, "properties": {"osm_id": 2155937885, "category": "traffic_signal", "name": "traffic_signal", "_source": "OpenStreetMap", "amenity": "traffic_signal", "susceptibility_score": 0.5966, "susceptibility_provenance": "MODELLED"}}, {"type": "Feature", "geometry": {"type": "Point", "coordinates": [72.8598014, 19.0352176]}, "properties": {"osm_id": 2155937886, "category": "traffic_signal", "name": "traffic_signal", "_source": "OpenStreetMap", "amenity": "traffic_signal", "susceptibility_score": 0.576, "susceptibility_provenance": "MODELLED"}}, {"type": "Feature", "geometry": {"type": "Point", "coordinates": [72.8481109, 19.017533]}, "properties": {"osm_id": 2163592436, "category": "traffic_signal", "name": "traffic_signal", "_source": "OpenStreetMap", "amenity": "traffic_signal", "susceptibility_score": 0.6862, "susceptibility_provenance": "MODELLED"}}, {"type": "Feature", "geometry": {"type": "Point", "coordinates": [72.8481782, 19.0179453]}, "properties": {"osm_id": 2163592452, "category": "traffic_signal", "name": "traffic_signal", "_source": "OpenStreetMap", "amenity": "traffic_signal", "susceptibility_score": 0.7011, "susceptibility_provenance": "MODELLED"}}, {"type": "Feature", "geometry": {"type": "Point", "coordinates": [72.841807, 19.0094917]}, "properties": {"osm_id": 2258304448, "category": "traffic_signal", "name": "traffic_signal", "_source": "OpenStreetMap", "amenity": "traffic_signal", "susceptibility_score": 0.7115, "susceptibility_provenance": "MODELLED"}}, {"type": "Feature", "geometry": {"type": "Point", "coordinates": [72.8575173, 19.0291644]}, "properties": {"osm_id": 2258304486, "category": "traffic_signal", "name": "traffic_signal", "_source": "OpenStreetMap", "amenity": "traffic_signal", "susceptibility_score": 0.5958, "susceptibility_provenance": "MODELLED"}}, {"type": "Feature", "geometry": {"type": "Point", "coordinates": [72.8305232, 19.0175589]}, "properties": {"osm_id": 2441666125, "category": "traffic_signal", "name": "traffic_signal", "_source": "OpenStreetMap", "amenity": "traffic_signal", "susceptibility_score": 0.6152, "susceptibility_provenance": "MODELLED"}}, {"type": "Feature", "geometry": {"type": "Point", "coordinates": [72.8347261, 19.0159783]}, "properties": {"osm_id": 2442886089, "category": "traffic_signal", "name": "traffic_signal", "_source": "OpenStreetMap", "amenity": "traffic_signal", "susceptibility_score": 0.6925, "susceptibility_provenance": "MODELLED"}}, {"type": "Feature", "geometry": {"type": "Point", "coordinates": [72.8348156, 19.0161973]}, "properties": {"osm_id": 2442886090, "category": "traffic_signal", "name": "traffic_signal", "_source": "OpenStreetMap", "amenity": "traffic_signal", "susceptibility_score": 0.6925, "susceptibility_provenance": "MODELLED"}}, {"type": "Feature", "geometry": {"type": "Point", "coordinates": [72.8357847, 19.0185365]}, "properties": {"osm_id": 2442886101, "category": "traffic_signal", "name": "traffic_signal", "_source": "OpenStreetMap", "amenity": "traffic_signal", "susceptibility_score": 0.6706, "susceptibility_provenance": "MODELLED"}}, {"type": "Feature", "geometry": {"type": "Point", "coordinates": [72.8411019, 19.0203926]}, "properties": {"osm_id": 2442886106, "category": "traffic_signal", "name": "traffic_signal", "_source": "OpenStreetMap", "amenity": "traffic_signal", "susceptibility_score": 0.7506, "susceptibility_provenance": "MODELLED"}}, {"type": "Feature", "geometry": {"type": "Point", "coordinates": [72.8307749, 19.0092524]}, "properties": {"osm_id": 2444311221, "category": "traffic_signal", "name": "traffic_signal", "_source": "OpenStreetMap", "amenity": "traffic_signal", "susceptibility_score": 0.7629, "susceptibility_provenance": "MODELLED"}}, {"type": "Feature", "geometry": {"type": "Point", "coordinates": [72.8304062, 19.0176374]}, "properties": {"osm_id": 2446353351, "category": "traffic_signal", "name": "traffic_signal", "_source": "OpenStreetMap", "amenity": "traffic_signal", "susceptibility_score": 0.5808, "susceptibility_provenance": "MODELLED"}}, {"type": "Feature", "geometry": {"type": "Point", "coordinates": [72.841461, 19.0285527]}, "properties": {"osm_id": 5271602095, "category": "traffic_signal", "name": "traffic_signal", "_source": "OpenStreetMap", "amenity": "traffic_signal", "susceptibility_score": 0.6579, "susceptibility_provenance": "MODELLED"}}, {"type": "Feature", "geometry": {"type": "Point", "coordinates": [72.8420862, 19.031514]}, "properties": {"osm_id": 5271602112, "category": "traffic_signal", "name": "traffic_signal", "_source": "OpenStreetMap", "amenity": "traffic_signal", "susceptibility_score": 0.5898, "susceptibility_provenance": "MODELLED"}}, {"type": "Feature", "geometry": {"type": "Point", "coordinates": [72.8424175, 19.0353966]}, "properties": {"osm_id": 5271602930, "category": "traffic_signal", "name": "traffic_signal", "_source": "OpenStreetMap", "amenity": "traffic_signal", "susceptibility_score": 0.6581, "susceptibility_provenance": "MODELLED"}}, {"type": "Feature", "geometry": {"type": "Point", "coordinates": [72.8405952, 19.025077]}, "properties": {"osm_id": 5271613101, "category": "traffic_signal", "name": "traffic_signal", "_source": "OpenStreetMap", "amenity": "traffic_signal", "susceptibility_score": 0.6591, "susceptibility_provenance": "MODELLED"}}, {"type": "Feature", "geometry": {"type": "Point", "coordinates": [72.8398144, 19.0053296]}, "properties": {"osm_id": 5848596597, "category": "traffic_signal", "name": "traffic_signal", "_source": "OpenStreetMap", "amenity": "traffic_signal", "susceptibility_score": 0.7195, "susceptibility_provenance": "MODELLED"}}, {"type": "Feature", "geometry": {"type": "Point", "coordinates": [72.8466987, 19.0161788]}, "properties": {"osm_id": 5848596628, "category": "traffic_signal", "name": "traffic_signal", "_source": "OpenStreetMap", "amenity": "traffic_signal", "susceptibility_score": 0.6349, "susceptibility_provenance": "MODELLED"}}, {"type": "Feature", "geometry": {"type": "Point", "coordinates": [72.8437134, 19.0020072]}, "properties": {"osm_id": 5921458166, "category": "traffic_signal", "name": "traffic_signal", "_source": "OpenStreetMap", "amenity": "traffic_signal", "susceptibility_score": 0.5291, "susceptibility_provenance": "MODELLED"}}, {"type": "Feature", "geometry": {"type": "Point", "coordinates": [72.8436751, 19.0019352]}, "properties": {"osm_id": 5986915335, "category": "traffic_signal", "name": "traffic_signal", "_source": "OpenStreetMap", "amenity": "traffic_signal", "susceptibility_score": 0.5291, "susceptibility_provenance": "MODELLED"}}, {"type": "Feature", "geometry": {"type": "Point", "coordinates": [72.8481923, 19.0176691]}, "properties": {"osm_id": 6072268838, "category": "traffic_signal", "name": "traffic_signal", "_source": "OpenStreetMap", "amenity": "traffic_signal", "susceptibility_score": 0.6956, "susceptibility_provenance": "MODELLED"}}, {"type": "Feature", "geometry": {"type": "Point", "coordinates": [72.8308903, 19.006215]}, "properties": {"osm_id": 6165302165, "category": "traffic_signal", "name": "traffic_signal", "_source": "OpenStreetMap", "amenity": "traffic_signal", "susceptibility_score": 0.7375, "susceptibility_provenance": "MODELLED"}}, {"type": "Feature", "geometry": {"type": "Point", "coordinates": [72.833745, 19.0135821]}, "properties": {"osm_id": 6165603878, "category": "traffic_signal", "name": "traffic_signal", "_source": "OpenStreetMap", "amenity": "traffic_signal", "susceptibility_score": 0.7132, "susceptibility_provenance": "MODELLED"}}, {"type": "Feature", "geometry": {"type": "Point", "coordinates": [72.8360765, 19.0189086]}, "properties": {"osm_id": 6165604797, "category": "traffic_signal", "name": "traffic_signal", "_source": "OpenStreetMap", "amenity": "traffic_signal", "susceptibility_score": 0.6681, "susceptibility_provenance": "MODELLED"}}, {"type": "Feature", "geometry": {"type": "Point", "coordinates": [72.8404563, 19.0251787]}, "properties": {"osm_id": 6165604811, "category": "traffic_signal", "name": "traffic_signal", "_source": "OpenStreetMap", "amenity": "traffic_signal", "susceptibility_score": 0.6682, "susceptibility_provenance": "MODELLED"}}, {"type": "Feature", "geometry": {"type": "Point", "coordinates": [72.8405398, 19.0250013]}, "properties": {"osm_id": 6165604812, "category": "traffic_signal", "name": "traffic_signal", "_source": "OpenStreetMap", "amenity": "traffic_signal", "susceptibility_score": 0.6591, "susceptibility_provenance": "MODELLED"}}, {"type": "Feature", "geometry": {"type": "Point", "coordinates": [72.8455399, 19.0251812]}, "properties": {"osm_id": 6165604823, "category": "traffic_signal", "name": "traffic_signal", "_source": "OpenStreetMap", "amenity": "traffic_signal", "susceptibility_score": 0.6891, "susceptibility_provenance": "MODELLED"}}, {"type": "Feature", "geometry": {"type": "Point", "coordinates": [72.8562747, 19.0195345]}, "properties": {"osm_id": 6262416573, "category": "traffic_signal", "name": "traffic_signal", "_source": "OpenStreetMap", "amenity": "traffic_signal", "susceptibility_score": 0.5894, "susceptibility_provenance": "MODELLED"}}, {"type": "Feature", "geometry": {"type": "Point", "coordinates": [72.8557738, 19.0187592]}, "properties": {"osm_id": 6262416578, "category": "traffic_signal", "name": "traffic_signal", "_source": "OpenStreetMap", "amenity": "traffic_signal", "susceptibility_score": 0.5306, "susceptibility_provenance": "MODELLED"}}, {"type": "Feature", "geometry": {"type": "Point", "coordinates": [72.8557983, 19.018901]}, "properties": {"osm_id": 6262416885, "category": "traffic_signal", "name": "traffic_signal", "_source": "OpenStreetMap", "amenity": "traffic_signal", "susceptibility_score": 0.5306, "susceptibility_provenance": "MODELLED"}}, {"type": "Feature", "geometry": {"type": "Point", "coordinates": [72.8559049, 19.0188703]}, "properties": {"osm_id": 6262416889, "category": "traffic_signal", "name": "traffic_signal", "_source": "OpenStreetMap", "amenity": "traffic_signal", "susceptibility_score": 0.5306, "susceptibility_provenance": "MODELLED"}}, {"type": "Feature", "geometry": {"type": "Point", "coordinates": [72.8558944, 19.0187604]}, "properties": {"osm_id": 6262416893, "category": "traffic_signal", "name": "traffic_signal", "_source": "OpenStreetMap", "amenity": "traffic_signal", "susceptibility_score": 0.5306, "susceptibility_provenance": "MODELLED"}}, {"type": "Feature", "geometry": {"type": "Point", "coordinates": [72.8516675, 19.0271372]}, "properties": {"osm_id": 6423547527, "category": "school", "name": "MCGM, L K Waghji, Mumbai Public School", "_source": "OpenStreetMap", "amenity": "school", "susceptibility_score": 0.7264, "susceptibility_provenance": "MODELLED"}}, {"type": "Feature", "geometry": {"type": "Point", "coordinates": [72.8603571, 19.0189834]}, "properties": {"osm_id": 6431009346, "category": "traffic_signal", "name": "traffic_signal", "_source": "OpenStreetMap", "amenity": "traffic_signal", "susceptibility_score": 0.5818, "susceptibility_provenance": "MODELLED"}}, {"type": "Feature", "geometry": {"type": "Point", "coordinates": [72.8540217, 19.0048292]}, "properties": {"osm_id": 6431266164, "category": "traffic_signal", "name": "traffic_signal", "_source": "OpenStreetMap", "amenity": "traffic_signal", "susceptibility_score": 0.6432, "susceptibility_provenance": "MODELLED"}}, {"type": "Feature", "geometry": {"type": "Point", "coordinates": [72.8543408, 19.008134]}, "properties": {"osm_id": 6442254811, "category": "school", "name": "Dnayneshwar Vidyalaya", "_source": "OpenStreetMap", "amenity": "school", "susceptibility_score": 0.6189, "susceptibility_provenance": "MODELLED"}}, {"type": "Feature", "geometry": {"type": "Point", "coordinates": [72.8339854, 19.0138872]}, "properties": {"osm_id": 6491605232, "category": "traffic_signal", "name": "traffic_signal", "_source": "OpenStreetMap", "amenity": "traffic_signal", "susceptibility_score": 0.7098, "susceptibility_provenance": "MODELLED"}}, {"type": "Feature", "geometry": {"type": "Point", "coordinates": [72.8538501, 19.0005129]}, "properties": {"osm_id": 6497342997, "category": "traffic_signal", "name": "traffic_signal", "_source": "OpenStreetMap", "amenity": "traffic_signal", "susceptibility_score": 0.6307, "susceptibility_provenance": "MODELLED"}}, {"type": "Feature", "geometry": {"type": "Point", "coordinates": [72.8381494, 19.0009634]}, "properties": {"osm_id": 6552168526, "category": "traffic_signal", "name": "traffic_signal", "_source": "OpenStreetMap", "amenity": "traffic_signal", "susceptibility_score": 0.621, "susceptibility_provenance": "MODELLED"}}, {"type": "Feature", "geometry": {"type": "Point", "coordinates": [72.8587135, 19.0168118]}, "properties": {"osm_id": 6571743942, "category": "traffic_signal", "name": "traffic_signal", "_source": "OpenStreetMap", "amenity": "traffic_signal", "susceptibility_score": 0.5507, "susceptibility_provenance": "MODELLED"}}, {"type": "Feature", "geometry": {"type": "Point", "coordinates": [72.8602277, 19.0190711]}, "properties": {"osm_id": 6572386235, "category": "traffic_signal", "name": "traffic_signal", "_source": "OpenStreetMap", "amenity": "traffic_signal", "susceptibility_score": 0.5905, "susceptibility_provenance": "MODELLED"}}, {"type": "Feature", "geometry": {"type": "Point", "coordinates": [72.8604671, 19.018944]}, "properties": {"osm_id": 6572386240, "category": "traffic_signal", "name": "traffic_signal", "_source": "OpenStreetMap", "amenity": "traffic_signal", "susceptibility_score": 0.5899, "susceptibility_provenance": "MODELLED"}}, {"type": "Feature", "geometry": {"type": "Point", "coordinates": [72.8472518, 19.0303667]}, "properties": {"osm_id": 6604321014, "category": "traffic_signal", "name": "traffic_signal", "_source": "OpenStreetMap", "amenity": "traffic_signal", "susceptibility_score": 0.7769, "susceptibility_provenance": "MODELLED"}}, {"type": "Feature", "geometry": {"type": "Point", "coordinates": [72.8471527, 19.0303876]}, "properties": {"osm_id": 6604321015, "category": "traffic_signal", "name": "traffic_signal", "_source": "OpenStreetMap", "amenity": "traffic_signal", "susceptibility_score": 0.7769, "susceptibility_provenance": "MODELLED"}}, {"type": "Feature", "geometry": {"type": "Point", "coordinates": [72.8463995, 19.0278205]}, "properties": {"osm_id": 6606882583, "category": "traffic_signal", "name": "traffic_signal", "_source": "OpenStreetMap", "amenity": "traffic_signal", "susceptibility_score": 0.757, "susceptibility_provenance": "MODELLED"}}, {"type": "Feature", "geometry": {"type": "Point", "coordinates": [72.8404096, 19.0250959]}, "properties": {"osm_id": 7371092120, "category": "traffic_signal", "name": "traffic_signal", "_source": "OpenStreetMap", "amenity": "traffic_signal", "susceptibility_score": 0.6683, "susceptibility_provenance": "MODELLED"}}, {"type": "Feature", "geometry": {"type": "Point", "coordinates": [72.8359206, 19.0188309]}, "properties": {"osm_id": 7371481513, "category": "traffic_signal", "name": "traffic_signal", "_source": "OpenStreetMap", "amenity": "traffic_signal", "susceptibility_score": 0.6542, "susceptibility_provenance": "MODELLED"}}, {"type": "Feature", "geometry": {"type": "Point", "coordinates": [72.8360462, 19.018829]}, "properties": {"osm_id": 7371481514, "category": "traffic_signal", "name": "traffic_signal", "_source": "OpenStreetMap", "amenity": "traffic_signal", "susceptibility_score": 0.6681, "susceptibility_provenance": "MODELLED"}}, {"type": "Feature", "geometry": {"type": "Point", "coordinates": [72.8338006, 19.0134068]}, "properties": {"osm_id": 7371570195, "category": "traffic_signal", "name": "traffic_signal", "_source": "OpenStreetMap", "amenity": "traffic_signal", "susceptibility_score": 0.595, "susceptibility_provenance": "MODELLED"}}, {"type": "Feature", "geometry": {"type": "Point", "coordinates": [72.8488379, 19.0190287]}, "properties": {"osm_id": 7374036800, "category": "traffic_signal", "name": "traffic_signal", "_source": "OpenStreetMap", "amenity": "traffic_signal", "susceptibility_score": 0.7185, "susceptibility_provenance": "MODELLED"}}, {"type": "Feature", "geometry": {"type": "Point", "coordinates": [72.8588252, 19.0169058]}, "properties": {"osm_id": 7374320615, "category": "traffic_signal", "name": "traffic_signal", "_source": "OpenStreetMap", "amenity": "traffic_signal", "susceptibility_score": 0.6351, "susceptibility_provenance": "MODELLED"}}, {"type": "Feature", "geometry": {"type": "Point", "coordinates": [72.8587567, 19.0169654]}, "properties": {"osm_id": 7374320616, "category": "traffic_signal", "name": "traffic_signal", "_source": "OpenStreetMap", "amenity": "traffic_signal", "susceptibility_score": 0.6351, "susceptibility_provenance": "MODELLED"}}, {"type": "Feature", "geometry": {"type": "Point", "coordinates": [72.8541276, 19.0048265]}, "properties": {"osm_id": 7374507888, "category": "traffic_signal", "name": "traffic_signal", "_source": "OpenStreetMap", "amenity": "traffic_signal", "susceptibility_score": 0.5761, "susceptibility_provenance": "MODELLED"}}, {"type": "Feature", "geometry": {"type": "Point", "coordinates": [72.8545247, 19.0112603]}, "properties": {"osm_id": 7374507903, "category": "traffic_signal", "name": "traffic_signal", "_source": "OpenStreetMap", "amenity": "traffic_signal", "susceptibility_score": 0.6253, "susceptibility_provenance": "MODELLED"}}, {"type": "Feature", "geometry": {"type": "Point", "coordinates": [72.8538765, 19.0048338]}, "properties": {"osm_id": 7374507910, "category": "traffic_signal", "name": "traffic_signal", "_source": "OpenStreetMap", "amenity": "traffic_signal", "susceptibility_score": 0.6432, "susceptibility_provenance": "MODELLED"}}, {"type": "Feature", "geometry": {"type": "Point", "coordinates": [72.854301, 19.0113046]}, "properties": {"osm_id": 7374507918, "category": "traffic_signal", "name": "traffic_signal", "_source": "OpenStreetMap", "amenity": "traffic_signal", "susceptibility_score": 0.6034, "susceptibility_provenance": "MODELLED"}}, {"type": "Feature", "geometry": {"type": "Point", "coordinates": [72.8589689, 19.0168259]}, "properties": {"osm_id": 7374507921, "category": "traffic_signal", "name": "traffic_signal", "_source": "OpenStreetMap", "amenity": "traffic_signal", "susceptibility_score": 0.6351, "susceptibility_provenance": "MODELLED"}}, {"type": "Feature", "geometry": {"type": "Point", "coordinates": [72.8588599, 19.016711]}, "properties": {"osm_id": 7374507922, "category": "traffic_signal", "name": "traffic_signal", "_source": "OpenStreetMap", "amenity": "traffic_signal", "susceptibility_score": 0.5293, "susceptibility_provenance": "MODELLED"}}, {"type": "Feature", "geometry": {"type": "Point", "coordinates": [72.8562352, 19.0196266]}, "properties": {"osm_id": 7377729180, "category": "traffic_signal", "name": "traffic_signal", "_source": "OpenStreetMap", "amenity": "traffic_signal", "susceptibility_score": 0.5903, "susceptibility_provenance": "MODELLED"}}, {"type": "Feature", "geometry": {"type": "Point", "coordinates": [72.8387896, 19.0336313]}, "properties": {"osm_id": 7394086373, "category": "traffic_signal", "name": "traffic_signal", "_source": "OpenStreetMap", "amenity": "traffic_signal", "susceptibility_score": 0.5996, "susceptibility_provenance": "MODELLED"}}, {"type": "Feature", "geometry": {"type": "Point", "coordinates": [72.8387007, 19.0336434]}, "properties": {"osm_id": 7394086374, "category": "traffic_signal", "name": "traffic_signal", "_source": "OpenStreetMap", "amenity": "traffic_signal", "susceptibility_score": 0.5762, "susceptibility_provenance": "MODELLED"}}, {"type": "Feature", "geometry": {"type": "Point", "coordinates": [72.8386853, 19.0323158]}, "properties": {"osm_id": 7394086382, "category": "traffic_signal", "name": "traffic_signal", "_source": "OpenStreetMap", "amenity": "traffic_signal", "susceptibility_score": 0.5688, "susceptibility_provenance": "MODELLED"}}, {"type": "Feature", "geometry": {"type": "Point", "coordinates": [72.8384989, 19.0302284]}, "properties": {"osm_id": 7394094888, "category": "traffic_signal", "name": "traffic_signal", "_source": "OpenStreetMap", "amenity": "traffic_signal", "susceptibility_score": 0.5833, "susceptibility_provenance": "MODELLED"}}, {"type": "Feature", "geometry": {"type": "Point", "coordinates": [72.8362797, 19.0261985]}, "properties": {"osm_id": 7394094895, "category": "traffic_signal", "name": "traffic_signal", "_source": "OpenStreetMap", "amenity": "traffic_signal", "susceptibility_score": 0.5493, "susceptibility_provenance": "MODELLED"}}, {"type": "Feature", "geometry": {"type": "Point", "coordinates": [72.8387523, 19.0337036]}, "properties": {"osm_id": 7394094911, "category": "traffic_signal", "name": "traffic_signal", "_source": "OpenStreetMap", "amenity": "traffic_signal", "susceptibility_score": 0.5996, "susceptibility_provenance": "MODELLED"}}, {"type": "Feature", "geometry": {"type": "Point", "coordinates": [72.8304056, 19.0058854]}, "properties": {"osm_id": 7434309486, "category": "school", "name": "Kamaladevi Gobindram Tahiliani High School", "_source": "OpenStreetMap", "amenity": "school", "susceptibility_score": 0.6669, "susceptibility_provenance": "MODELLED"}}, {"type": "Feature", "geometry": {"type": "Point", "coordinates": [72.8356824, 19.0209617]}, "properties": {"osm_id": 7442381761, "category": "school", "name": "Pragati School", "_source": "OpenStreetMap", "amenity": "school", "susceptibility_score": 0.6606, "susceptibility_provenance": "MODELLED"}}, {"type": "Feature", "geometry": {"type": "Point", "coordinates": [72.8399288, 19.0313861]}, "properties": {"osm_id": 7442381773, "category": "school", "name": "St. Michaels English Primary School", "_source": "OpenStreetMap", "amenity": "school", "susceptibility_score": 0.4647, "susceptibility_provenance": "MODELLED"}}, {"type": "Feature", "geometry": {"type": "Point", "coordinates": [72.8400202, 19.0295396]}, "properties": {"osm_id": 7442381774, "category": "school", "name": "R.C.Mahim Municipal Urdu Primary", "_source": "OpenStreetMap", "amenity": "school", "susceptibility_score": 0.5997, "susceptibility_provenance": "MODELLED"}}, {"type": "Feature", "geometry": {"type": "Point", "coordinates": [72.8477584, 19.0224005]}, "properties": {"osm_id": 7442452600, "category": "school", "name": "Shishuvihar Madhyamik Vidhyala", "_source": "OpenStreetMap", "amenity": "school", "susceptibility_score": 0.7274, "susceptibility_provenance": "MODELLED"}}, {"type": "Feature", "geometry": {"type": "Point", "coordinates": [72.8481813, 19.0200022]}, "properties": {"osm_id": 7442452610, "category": "school", "name": "Saraswati Mandir School", "_source": "OpenStreetMap", "amenity": "school", "susceptibility_score": 0.6566, "susceptibility_provenance": "MODELLED"}}, {"type": "Feature", "geometry": {"type": "Point", "coordinates": [72.8487774, 19.0206415]}, "properties": {"osm_id": 7442452611, "category": "school", "name": "Patkar Guruji Vidyalaya", "_source": "OpenStreetMap", "amenity": "school", "susceptibility_score": 0.676, "susceptibility_provenance": "MODELLED"}}, {"type": "Feature", "geometry": {"type": "Point", "coordinates": [72.8527661, 19.0358812]}, "properties": {"osm_id": 7453717309, "category": "school", "name": "Matunga Labour Camp Upper Primary Marathi School", "_source": "OpenStreetMap", "amenity": "school", "susceptibility_score": 0.729, "susceptibility_provenance": "MODELLED"}}, {"type": "Feature", "geometry": {"type": "Point", "coordinates": [72.8602496, 19.0270588]}, "properties": {"osm_id": 7453717329, "category": "school", "name": "Shree Amulakh Amichand Bhimji Vividhlakshi Vidyalaya", "_source": "OpenStreetMap", "amenity": "school", "susceptibility_score": 0.5198, "susceptibility_provenance": "MODELLED"}}, {"type": "Feature", "geometry": {"type": "Point", "coordinates": [72.8604438, 19.0263438]}, "properties": {"osm_id": 7453717330, "category": "school", "name": "I.H.Bhatia English Primary School", "_source": "OpenStreetMap", "amenity": "school", "susceptibility_score": 0.6335, "susceptibility_provenance": "MODELLED"}}, {"type": "Feature", "geometry": {"type": "Point", "coordinates": [72.8456705, 19.0307137]}, "properties": {"osm_id": 7459352414, "category": "traffic_signal", "name": "traffic_signal", "_source": "OpenStreetMap", "amenity": "traffic_signal", "susceptibility_score": 0.7189, "susceptibility_provenance": "MODELLED"}}, {"type": "Feature", "geometry": {"type": "Point", "coordinates": [72.8455669, 19.0306814]}, "properties": {"osm_id": 7459352417, "category": "traffic_signal", "name": "traffic_signal", "_source": "OpenStreetMap", "amenity": "traffic_signal", "susceptibility_score": 0.7058, "susceptibility_provenance": "MODELLED"}}, {"type": "Feature", "geometry": {"type": "Point", "coordinates": [72.8455798, 19.0308652]}, "properties": {"osm_id": 7459352419, "category": "traffic_signal", "name": "traffic_signal", "_source": "OpenStreetMap", "amenity": "traffic_signal", "susceptibility_score": 0.7189, "susceptibility_provenance": "MODELLED"}}, {"type": "Feature", "geometry": {"type": "Point", "coordinates": [72.828683, 19.0108648]}, "properties": {"osm_id": 9055069383, "category": "school", "name": "Prabhadevi Municipal School", "_source": "OpenStreetMap", "amenity": "school", "susceptibility_score": 0.769, "susceptibility_provenance": "MODELLED"}}, {"type": "Feature", "geometry": {"type": "Point", "coordinates": [72.8446515, 19.0124003]}, "properties": {"osm_id": 9055082839, "category": "school", "name": "Guru Nank English High School", "_source": "OpenStreetMap", "amenity": "school", "susceptibility_score": 0.6789, "susceptibility_provenance": "MODELLED"}}, {"type": "Feature", "geometry": {"type": "Point", "coordinates": [72.8389809, 19.0322464]}, "properties": {"osm_id": 9909512441, "category": "traffic_signal", "name": "traffic_signal", "_source": "OpenStreetMap", "amenity": "traffic_signal", "susceptibility_score": 0.5866, "susceptibility_provenance": "MODELLED"}}, {"type": "Feature", "geometry": {"type": "Point", "coordinates": [72.8603055, 19.0271011]}, "properties": {"osm_id": 10048595319, "category": "school", "name": "Amulakh amichand vidyalaya", "_source": "OpenStreetMap", "amenity": "school", "susceptibility_score": 0.5257, "susceptibility_provenance": "MODELLED"}}, {"type": "Feature", "geometry": {"type": "Point", "coordinates": [72.8596067, 19.0347392]}, "properties": {"osm_id": 10113324236, "category": "traffic_signal", "name": "traffic_signal", "_source": "OpenStreetMap", "amenity": "traffic_signal", "susceptibility_score": 0.5907, "susceptibility_provenance": "MODELLED"}}, {"type": "Feature", "geometry": {"type": "Point", "coordinates": [72.8305433, 19.0142497]}, "properties": {"osm_id": 10277717588, "category": "traffic_signal", "name": "traffic_signal", "_source": "OpenStreetMap", "amenity": "traffic_signal", "susceptibility_score": 0.6393, "susceptibility_provenance": "MODELLED"}}, {"type": "Feature", "geometry": {"type": "Point", "coordinates": [72.8415903, 19.0091243]}, "properties": {"osm_id": 10282040378, "category": "traffic_signal", "name": "traffic_signal", "_source": "OpenStreetMap", "amenity": "traffic_signal", "susceptibility_score": 0.6595, "susceptibility_provenance": "MODELLED"}}, {"type": "Feature", "geometry": {"type": "Point", "coordinates": [72.8514389, 19.0154587]}, "properties": {"osm_id": 10282040383, "category": "traffic_signal", "name": "Albela Hanuman Mandir Chowk", "_source": "OpenStreetMap", "amenity": "traffic_signal", "susceptibility_score": 0.6092, "susceptibility_provenance": "MODELLED"}}, {"type": "Feature", "geometry": {"type": "Point", "coordinates": [72.8493393, 19.0126485]}, "properties": {"osm_id": 10282040392, "category": "traffic_signal", "name": "traffic_signal", "_source": "OpenStreetMap", "amenity": "traffic_signal", "susceptibility_score": 0.5643, "susceptibility_provenance": "MODELLED"}}, {"type": "Feature", "geometry": {"type": "Point", "coordinates": [72.8435978, 19.0019954]}, "properties": {"osm_id": 10583826082, "category": "traffic_signal", "name": "traffic_signal", "_source": "OpenStreetMap", "amenity": "traffic_signal", "susceptibility_score": 0.5291, "susceptibility_provenance": "MODELLED"}}, {"type": "Feature", "geometry": {"type": "Point", "coordinates": [72.8455048, 19.0308162]}, "properties": {"osm_id": 10629587074, "category": "traffic_signal", "name": "traffic_signal", "_source": "OpenStreetMap", "amenity": "traffic_signal", "susceptibility_score": 0.7189, "susceptibility_provenance": "MODELLED"}}, {"type": "Feature", "geometry": {"type": "Point", "coordinates": [72.8600721, 19.0351131]}, "properties": {"osm_id": 10722958771, "category": "traffic_signal", "name": "traffic_signal", "_source": "OpenStreetMap", "amenity": "traffic_signal", "susceptibility_score": 0.5966, "susceptibility_provenance": "MODELLED"}}, {"type": "Feature", "geometry": {"type": "Point", "coordinates": [72.8304973, 19.0142465]}, "properties": {"osm_id": 10732458841, "category": "traffic_signal", "name": "traffic_signal", "_source": "OpenStreetMap", "amenity": "traffic_signal", "susceptibility_score": 0.6393, "susceptibility_provenance": "MODELLED"}}, {"type": "Feature", "geometry": {"type": "Point", "coordinates": [72.8386026, 19.003307]}, "properties": {"osm_id": 10765772823, "category": "traffic_signal", "name": "traffic_signal", "_source": "OpenStreetMap", "amenity": "traffic_signal", "susceptibility_score": 0.7388, "susceptibility_provenance": "MODELLED"}}, {"type": "Feature", "geometry": {"type": "Point", "coordinates": [72.8436704, 19.0119609]}, "properties": {"osm_id": 10768460327, "category": "traffic_signal", "name": "traffic_signal", "_source": "OpenStreetMap", "amenity": "traffic_signal", "susceptibility_score": 0.7162, "susceptibility_provenance": "MODELLED"}}, {"type": "Feature", "geometry": {"type": "Point", "coordinates": [72.8429741, 19.0210358]}, "properties": {"osm_id": 10770200821, "category": "traffic_signal", "name": "traffic_signal", "_source": "OpenStreetMap", "amenity": "traffic_signal", "susceptibility_score": 0.6851, "susceptibility_provenance": "MODELLED"}}, {"type": "Feature", "geometry": {"type": "Point", "coordinates": [72.8275786, 18.9982401]}, "properties": {"osm_id": 11925677533, "category": "traffic_signal", "name": "traffic_signal", "_source": "OpenStreetMap", "amenity": "traffic_signal", "susceptibility_score": 0.6457, "susceptibility_provenance": "MODELLED"}}, {"type": "Feature", "geometry": {"type": "Point", "coordinates": [72.8274235, 18.9982509]}, "properties": {"osm_id": 11925677534, "category": "traffic_signal", "name": "traffic_signal", "_source": "OpenStreetMap", "amenity": "traffic_signal", "susceptibility_score": 0.6457, "susceptibility_provenance": "MODELLED"}}, {"type": "Feature", "geometry": {"type": "Point", "coordinates": [72.8309569, 19.0051861]}, "properties": {"osm_id": 13003897994, "category": "traffic_signal", "name": "traffic_signal", "_source": "OpenStreetMap", "amenity": "traffic_signal", "susceptibility_score": 0.7087, "susceptibility_provenance": "MODELLED"}}, {"type": "Feature", "geometry": {"type": "Point", "coordinates": [72.8306809, 19.0091936]}, "properties": {"osm_id": 13073659625, "category": "traffic_signal", "name": "traffic_signal", "_source": "OpenStreetMap", "amenity": "traffic_signal", "susceptibility_score": 0.6881, "susceptibility_provenance": "MODELLED"}}, {"type": "Feature", "geometry": {"type": "Point", "coordinates": [72.8306158, 19.0092851]}, "properties": {"osm_id": 13073659627, "category": "traffic_signal", "name": "traffic_signal", "_source": "OpenStreetMap", "amenity": "traffic_signal", "susceptibility_score": 0.6881, "susceptibility_provenance": "MODELLED"}}, {"type": "Feature", "geometry": {"type": "Point", "coordinates": [72.8305177, 19.0142109]}, "properties": {"osm_id": 13073735815, "category": "traffic_signal", "name": "traffic_signal", "_source": "OpenStreetMap", "amenity": "traffic_signal", "susceptibility_score": 0.6393, "susceptibility_provenance": "MODELLED"}}, {"type": "Feature", "geometry": {"type": "Point", "coordinates": [72.8293781, 19.0161991]}, "properties": {"osm_id": 13073735817, "category": "traffic_signal", "name": "traffic_signal", "_source": "OpenStreetMap", "amenity": "traffic_signal", "susceptibility_score": 0.6643, "susceptibility_provenance": "MODELLED"}}, {"type": "Feature", "geometry": {"type": "Point", "coordinates": [72.8320344, 19.0110671]}, "properties": {"osm_id": 13073738194, "category": "traffic_signal", "name": "traffic_signal", "_source": "OpenStreetMap", "amenity": "traffic_signal", "susceptibility_score": 0.7646, "susceptibility_provenance": "MODELLED"}}, {"type": "Feature", "geometry": {"type": "Point", "coordinates": [72.8308528, 19.0063045]}, "properties": {"osm_id": 13073741402, "category": "traffic_signal", "name": "traffic_signal", "_source": "OpenStreetMap", "amenity": "traffic_signal", "susceptibility_score": 0.6915, "susceptibility_provenance": "MODELLED"}}, {"type": "Feature", "geometry": {"type": "Point", "coordinates": [72.8308932, 19.005022]}, "properties": {"osm_id": 13073741403, "category": "traffic_signal", "name": "traffic_signal", "_source": "OpenStreetMap", "amenity": "traffic_signal", "susceptibility_score": 0.7082, "susceptibility_provenance": "MODELLED"}}, {"type": "Feature", "geometry": {"type": "Point", "coordinates": [72.8309469, 19.0047965]}, "properties": {"osm_id": 13073741404, "category": "traffic_signal", "name": "traffic_signal", "_source": "OpenStreetMap", "amenity": "traffic_signal", "susceptibility_score": 0.6904, "susceptibility_provenance": "MODELLED"}}, {"type": "Feature", "geometry": {"type": "Point", "coordinates": [72.8310724, 19.00497]}, "properties": {"osm_id": 13073741405, "category": "traffic_signal", "name": "traffic_signal", "_source": "OpenStreetMap", "amenity": "traffic_signal", "susceptibility_score": 0.6957, "susceptibility_provenance": "MODELLED"}}, {"type": "Feature", "geometry": {"type": "Point", "coordinates": [72.8310748, 19.004962]}, "properties": {"osm_id": 13073741406, "category": "traffic_signal", "name": "traffic_signal", "_source": "OpenStreetMap", "amenity": "traffic_signal", "susceptibility_score": 0.6957, "susceptibility_provenance": "MODELLED"}}, {"type": "Feature", "geometry": {"type": "Point", "coordinates": [72.84134, 19.0284333]}, "properties": {"osm_id": 13542582001, "category": "traffic_signal", "name": "Raja Badhe Chowk", "_source": "OpenStreetMap", "amenity": "traffic_signal", "susceptibility_score": 0.6809, "susceptibility_provenance": "MODELLED"}}, {"type": "Feature", "geometry": {"type": "Point", "coordinates": [72.8514334, 19.0155293]}, "properties": {"osm_id": 13658722776, "category": "traffic_signal", "name": "traffic_signal", "_source": "OpenStreetMap", "amenity": "traffic_signal", "susceptibility_score": 0.6092, "susceptibility_provenance": "MODELLED"}}, {"type": "Feature", "geometry": {"type": "Point", "coordinates": [72.8513919, 19.015492]}, "properties": {"osm_id": 13658722780, "category": "traffic_signal", "name": "traffic_signal", "_source": "OpenStreetMap", "amenity": "traffic_signal", "susceptibility_score": 0.6092, "susceptibility_provenance": "MODELLED"}}, {"type": "Feature", "geometry": {"type": "Point", "coordinates": [72.8514818, 19.0154993]}, "properties": {"osm_id": 13658722781, "category": "traffic_signal", "name": "Albela Hanuman Mandir Chowk", "_source": "OpenStreetMap", "amenity": "traffic_signal", "susceptibility_score": 0.6092, "susceptibility_provenance": "MODELLED"}}, {"type": "Feature", "geometry": {"type": "Point", "coordinates": [72.856206, 19.0195577]}, "properties": {"osm_id": 13667198501, "category": "traffic_signal", "name": "traffic_signal", "_source": "OpenStreetMap", "amenity": "traffic_signal", "susceptibility_score": 0.5603, "susceptibility_provenance": "MODELLED"}}, {"type": "Feature", "geometry": {"type": "Point", "coordinates": [72.8382575, 19.0297666]}, "properties": {"osm_id": 13670992298, "category": "traffic_signal", "name": "traffic_signal", "_source": "OpenStreetMap", "amenity": "traffic_signal", "susceptibility_score": 0.5877, "susceptibility_provenance": "MODELLED"}}, {"type": "Feature", "geometry": {"type": "Point", "coordinates": [72.8281647, 19.0130989]}, "properties": {"osm_id": 13866690551, "category": "traffic_signal", "name": "traffic_signal", "_source": "OpenStreetMap", "amenity": "traffic_signal", "susceptibility_score": 0.7661, "susceptibility_provenance": "MODELLED"}}, {"type": "Feature", "geometry": {"type": "Point", "coordinates": [72.8281271, 19.0129952]}, "properties": {"osm_id": 13866690552, "category": "traffic_signal", "name": "traffic_signal", "_source": "OpenStreetMap", "amenity": "traffic_signal", "susceptibility_score": 0.7661, "susceptibility_provenance": "MODELLED"}}, {"type": "Feature", "geometry": {"type": "Point", "coordinates": [72.8280259, 19.0131105]}, "properties": {"osm_id": 13866690553, "category": "traffic_signal", "name": "traffic_signal", "_source": "OpenStreetMap", "amenity": "traffic_signal", "susceptibility_score": 0.7661, "susceptibility_provenance": "MODELLED"}}]}