{"type": "FeatureCollection", "features": [{"type": "Feature", "id": 17, "geometry": {"type": "Point", "coordinates": [72.8858245000001, 19.0847462]}, "properties": {"OBJECTID": 17, "FEATUREID": "FB20215900021", "NAME": "Kurla Fire Staion", "TYPE": 1, "SUBTYPE": "Stn", "LOCATION": "Kurla Fire Station, Lal Bahadur Shastri Marg, Near Phoenix Mall, Kurla West, Mumbai, 400070", "BRD_LINE_NO": "25039200", "CNTRL_ROOM_NO": "101", "TYPE_CONSTRUCT": null, "YEAR_CONSTRUCT": null, "NO_FLOOR": null, "NO_ROOMS": null, "NO_COM_TOILET": null, "NO_GEN_TOILET": null, "NO_LAD_TOILET": null, "BATHROOM_FAC": null, "RAMP_DISABLED": null, "OPEN_SPACE": null, "REMARKS": "Updated by M/s. Innowave IT", "EDUPDATEUSER": "Rathod Savita Ghevarchand", "EDUPDATETIME": 1628317077000, "CREATED_USER": "Innowave", "CREATED_DATE": 1527747338000, "LAST_EDITED_USER": "DMMASTER@PRSRVGISDB.MUMBASE.MCGM.GOV.IN", "LAST_EDITED_DATE": 1643287933000, "HEIGHT_TO_MSL": null, "SYMMETRIC": null, "GROUND": null, "NO_HALL_AUD": null, "SEAT_CAPACITY": null, "WATER_TANK_CAPA": null, "NO_BASEMENT": null, "NO_WATER_TANK": null, "NO_ELEVATOR": null, "PAS": null, "CCTV_SERVE": null, "STRUCTURAL_AUDIT": null, "FIRE_EXTING_SYS": null, "FIRE_AUDIT": null, "CENTRALIZED_AC": null, "DISPLAY_BOARD": null, "HAZ_MAT": null, "ALT_ELEC": null, "WARD": "L", "ELEVATOR_CONTACT_LIST": null, "ELEVATOR_INTERCOM": null, "WORKING_HRS": null, "EMPLOYEE_QTY": null, "EMPLOYEE_MALE": null, "EMPLOYEE_FEMALE": null, "EMPLOYEE_DIF_ABLE": null, "WORKING_HRS_STR": null, "WORKING_HRS_STP": null, "_source": "MCGM ArcGIS FeatureServer (official)", "amenity": "fire_station", "name": "Kurla Fire Staion", "susceptibility_score": 0.6589, "susceptibility_provenance": "MODELLED"}}, {"type": "Feature", "id": 23, "geometry": {"type": "Point", "coordinates": [72.8545, 19.056992]}, "properties": {"OBJECTID": 23, "FEATUREID": "FB17181900016", "NAME": "BKC Fire Station", "TYPE": 1, "SUBTYPE": "Stn", "LOCATION": "Bandra Kurla Complex, Bandra East, Mumbai - 400051.", "BRD_LINE_NO": "26522426", "CNTRL_ROOM_NO": null, "TYPE_CONSTRUCT": null, "YEAR_CONSTRUCT": null, "NO_FLOOR": null, "NO_ROOMS": null, "NO_COM_TOILET": null, "NO_GEN_TOILET": null, "NO_LAD_TOILET": null, "BATHROOM_FAC": null, "RAMP_DISABLED": null, "OPEN_SPACE": null, "REMARKS": null, "EDUPDATEUSER": null, "EDUPDATETIME": null, "CREATED_USER": "DMMASTER", "CREATED_DATE": 1529055514000, "LAST_EDITED_USER": "DMMASTER", "LAST_EDITED_DATE": 1597990872000, "HEIGHT_TO_MSL": null, "SYMMETRIC": null, "GROUND": null, "NO_HALL_AUD": null, "SEAT_CAPACITY": null, "WATER_TANK_CAPA": null, "NO_BASEMENT": null, "NO_WATER_TANK": null, "NO_ELEVATOR": null, "PAS": null, "CCTV_SERVE": null, "STRUCTURAL_AUDIT": null, "FIRE_EXTING_SYS": null, "FIRE_AUDIT": null, "CENTRALIZED_AC": null, "DISPLAY_BOARD": null, "HAZ_MAT": null, "ALT_ELEC": null, "WARD": "H/E", "ELEVATOR_CONTACT_LIST": null, "ELEVATOR_INTERCOM": null, "WORKING_HRS": null, "EMPLOYEE_QTY": null, "EMPLOYEE_MALE": null, "EMPLOYEE_FEMALE": null, "EMPLOYEE_DIF_ABLE": null, "WORKING_HRS_STR": null, "WORKING_HRS_STP": null, "_source": "MCGM ArcGIS FeatureServer (official)", "amenity": "fire_station", "name": "BKC Fire Station", "susceptibility_score": 0.7013, "susceptibility_provenance": "MODELLED"}}, {"type": "Feature", "id": 27, "geometry": {"type": "Point", "coordinates": [72.8935416300001, 19.054555748]}, "properties": {"OBJECTID": 27, "FEATUREID": "FB21182600023", "NAME": "Chembur Fire Station", "TYPE": 1, "SUBTYPE": "Stn", "LOCATION": "V N Purav Marg, Chembur, Mumbai - 400074", "BRD_LINE_NO": "25224824", "CNTRL_ROOM_NO": null, "TYPE_CONSTRUCT": null, "YEAR_CONSTRUCT": null, "NO_FLOOR": 3, "NO_ROOMS": null, "NO_COM_TOILET": null, "NO_GEN_TOILET": null, "NO_LAD_TOILET": null, "BATHROOM_FAC": null, "RAMP_DISABLED": null, "OPEN_SPACE": null, "REMARKS": "Need to be re-locate Point", "EDUPDATEUSER": "Burkul Kavita Balu", "EDUPDATETIME": 1628660341000, "CREATED_USER": "DMMASTER", "CREATED_DATE": 1529055514000, "LAST_EDITED_USER": "DMMASTER@PRSRVGISDB.MUMBASE.MCGM.GOV.IN", "LAST_EDITED_DATE": 1648063206000, "HEIGHT_TO_MSL": null, "SYMMETRIC": null, "GROUND": null, "NO_HALL_AUD": "1", "SEAT_CAPACITY": null, "WATER_TANK_CAPA": "40", "NO_BASEMENT": null, "NO_WATER_TANK": null, "NO_ELEVATOR": null, "PAS": null, "CCTV_SERVE": null, "STRUCTURAL_AUDIT": null, "FIRE_EXTING_SYS": null, "FIRE_AUDIT": null, "CENTRALIZED_AC": null, "DISPLAY_BOARD": null, "HAZ_MAT": null, "ALT_ELEC": null, "WARD": "M/W", "ELEVATOR_CONTACT_LIST": null, "ELEVATOR_INTERCOM": null, "WORKING_HRS": null, "EMPLOYEE_QTY": null, "EMPLOYEE_MALE": null, "EMPLOYEE_FEMALE": null, "EMPLOYEE_DIF_ABLE": null, "WORKING_HRS_STR": null, "WORKING_HRS_STP": null, "_source": "MCGM ArcGIS FeatureServer (official)", "amenity": "fire_station", "name": "Chembur Fire Station", "susceptibility_score": 0.6732, "susceptibility_provenance": "MODELLED"}}, {"type": "Feature", "id": 9, "geometry": {"type": "Point", "coordinates": [72.860325, 19.0644360000001]}, "properties": {"OBJECTID": 9, "FEATUREID": "PS16197900155", "NAME": "Cyber Police Station", "TYPE": 1, "SUBTYPE": "Station", "LOCATION": "Bandra Kurla Complex, Opp. ICICI Bank, BKC Road, Bandra (East), Mumbai 400051,", "BRD_LINE_NO": "26504008", "CNTRL_ROOM_NO": null, "TYPE_CONSTRUCT": null, "YEAR_CONSTRUCT": null, "NO_FLOOR": null, "NO_ROOMS": null, "NO_COM_TOILET": null, "NO_GEN_TOILET": null, "NO_LAD_TOILET": null, "BATHROOM_FAC": null, "RAMP_DISABLED": null, "OPEN_SPACE": null, "REMARKS": "Sudhir Manohar Mahadik 9870459523 cyberpst-mum@mahapolice.gov.in", "EDUPDATEUSER": null, "EDUPDATETIME": null, "CREATED_USER": "DMMASTER", "CREATED_DATE": 1479825702000, "LAST_EDITED_USER": "DMMASTER", "LAST_EDITED_DATE": 1566308595000, "HEIGHT_TO_MSL": null, "WATER_TANK_CAPA": null, "SYMMETRIC": null, "GROUND": null, "NO_BASEMENT": null, "NO_HALL_AUD": null, "SEAT_CAPACITY": null, "NO_WATER_TANK": null, "NO_ELEVATOR": null, "PAS": null, "CCTV_SERVE": null, "STRUCTURAL_AUDIT": null, "FIRE_EXTING_SYS": null, "FIRE_AUDIT": null, "CENTRALIZED_AC": null, "DISPLAY_BOARD": null, "HAZ_MAT": null, "ALT_ELEC": null, "WARD": "H/E", "ELEVATOR_CONTACT_LIST": null, "ELEVATOR_INTERCOM": null, "WORKING_HRS": null, "EMPLOYEE_QTY": null, "EMPLOYEE_MALE": null, "EMPLOYEE_FEMALE": null, "EMPLOYEE_DIF_ABLE": null, "WORKING_HRS_STR": null, "WORKING_HRS_STP": null, "_source": "MCGM ArcGIS FeatureServer (official)", "amenity": "police", "name": "Cyber Police Station", "susceptibility_score": 0.694, "susceptibility_provenance": "MODELLED"}}, {"type": "Feature", "id": 17, "geometry": {"type": "Point", "coordinates": [72.8701949920001, 19.0999267670001]}, "properties": {"OBJECTID": 17, "FEATUREID": "PS18238600049", "NAME": "Sahar Police Station", "TYPE": 1, "SUBTYPE": "Station", "LOCATION": "Sahar Indian Olil Road, Opp. Hotel Hayyat Regency, Sahar Airport Road, Andheri (E), Mumbai - 400099. ", "BRD_LINE_NO": "28258783", "CNTRL_ROOM_NO": "28258784, \n28258785", "TYPE_CONSTRUCT": null, "YEAR_CONSTRUCT": null, "NO_FLOOR": null, "NO_ROOMS": null, "NO_COM_TOILET": null, "NO_GEN_TOILET": null, "NO_LAD_TOILET": null, "BATHROOM_FAC": null, "RAMP_DISABLED": null, "OPEN_SPACE": null, "REMARKS": "Prashant Kashinath Marde 9870175255\nsaharpolicestation@mtnl.net.in", "EDUPDATEUSER": null, "EDUPDATETIME": null, "CREATED_USER": "DMMASTER", "CREATED_DATE": 1479825702000, "LAST_EDITED_USER": "DMMASTER", "LAST_EDITED_DATE": 1566308532000, "HEIGHT_TO_MSL": null, "WATER_TANK_CAPA": null, "SYMMETRIC": null, "GROUND": null, "NO_BASEMENT": null, "NO_HALL_AUD": null, "SEAT_CAPACITY": null, "NO_WATER_TANK": null, "NO_ELEVATOR": null, "PAS": null, "CCTV_SERVE": null, "STRUCTURAL_AUDIT": null, "FIRE_EXTING_SYS": null, "FIRE_AUDIT": null, "CENTRALIZED_AC": null, "DISPLAY_BOARD": null, "HAZ_MAT": null, "ALT_ELEC": null, "WARD": "K/E", "ELEVATOR_CONTACT_LIST": null, "ELEVATOR_INTERCOM": null, "WORKING_HRS": null, "EMPLOYEE_QTY": null, "EMPLOYEE_MALE": null, "EMPLOYEE_FEMALE": null, "EMPLOYEE_DIF_ABLE": null, "WORKING_HRS_STR": null, "WORKING_HRS_STP": null, "_source": "MCGM ArcGIS FeatureServer (official)", "amenity": "police", "name": "Sahar Police Station", "susceptibility_score": 0.7717, "susceptibility_provenance": "MODELLED"}}, {"type": "Feature", "id": 59, "geometry": {"type": "Point", "coordinates": [72.8782730040001, 19.076686991]}, "properties": {"OBJECTID": 59, "FEATUREID": "PS10000010324", "NAME": "288-TRIAL-Kurla Police Station 21", "TYPE": 1, "SUBTYPE": "Station", "LOCATION": "CST Road, Lal Bahadur Shastri Marg, Kapadia Nagar, Kurla, Mumbai, Maharashtra 400070\r\nCST Road, Lal Bahadur Shastri Marg, Kapadia Nagar, Kurla, Mumbai, Maharashtra 400070\r\n", "BRD_LINE_NO": "26500478\r\n", "CNTRL_ROOM_NO": "26502868\r\n", "TYPE_CONSTRUCT": null, "YEAR_CONSTRUCT": null, "NO_FLOOR": null, "NO_ROOMS": null, "NO_COM_TOILET": null, "NO_GEN_TOILET": null, "NO_LAD_TOILET": null, "BATHROOM_FAC": null, "RAMP_DISABLED": null, "OPEN_SPACE": null, "REMARKS": null, "EDUPDATEUSER": null, "EDUPDATETIME": null, "CREATED_USER": "DMMASTER@PRSRVGISDB.MUMBASE.MCGM.GOV.IN", "CREATED_DATE": 1648538374000, "LAST_EDITED_USER": "DMMASTER@PRSRVGISDB.MUMBASE.MCGM.GOV.IN", "LAST_EDITED_DATE": 1648538647000, "HEIGHT_TO_MSL": null, "WATER_TANK_CAPA": null, "SYMMETRIC": null, "GROUND": null, "NO_BASEMENT": null, "NO_HALL_AUD": null, "SEAT_CAPACITY": null, "NO_WATER_TANK": null, "NO_ELEVATOR": null, "PAS": null, "CCTV_SERVE": null, "STRUCTURAL_AUDIT": null, "FIRE_EXTING_SYS": null, "FIRE_AUDIT": null, "CENTRALIZED_AC": null, "DISPLAY_BOARD": null, "HAZ_MAT": null, "ALT_ELEC": null, "WARD": "L", "ELEVATOR_CONTACT_LIST": null, "ELEVATOR_INTERCOM": null, "WORKING_HRS": null, "EMPLOYEE_QTY": null, "EMPLOYEE_MALE": null, "EMPLOYEE_FEMALE": null, "EMPLOYEE_DIF_ABLE": null, "WORKING_HRS_STR": null, "WORKING_HRS_STP": null, "_source": "MCGM ArcGIS FeatureServer (official)", "amenity": "police", "name": "288-TRIAL-Kurla Police Station 21", "susceptibility_score": 0.7324, "susceptibility_provenance": "MODELLED"}}, {"type": "Feature", "id": 61, "geometry": {"type": "Point", "coordinates": [72.8806665180001, 19.0587439080001]}, "properties": {"OBJECTID": 61, "FEATUREID": "PS10000010325", "NAME": "Nehru Nagar Police Station", "TYPE": 1, "SUBTYPE": "Station", "LOCATION": "Nehru Nagar Colony, Kurla (E), Mumbai - 400024.  Pramod Khoparde   9821624266 neharunagar1985@gmail.com", "BRD_LINE_NO": "25290946", "CNTRL_ROOM_NO": "25224291", "TYPE_CONSTRUCT": null, "YEAR_CONSTRUCT": null, "NO_FLOOR": null, "NO_ROOMS": null, "NO_COM_TOILET": null, "NO_GEN_TOILET": null, "NO_LAD_TOILET": null, "BATHROOM_FAC": null, "RAMP_DISABLED": null, "OPEN_SPACE": null, "REMARKS": null, "EDUPDATEUSER": null, "EDUPDATETIME": null, "CREATED_USER": "DMMASTER@PRSRVGISDB.MUMBASE.MCGM.GOV.IN", "CREATED_DATE": 1649879422000, "LAST_EDITED_USER": "DMMASTER@PRSRVGISDB.MUMBASE.MCGM.GOV.IN", "LAST_EDITED_DATE": 1649879975000, "HEIGHT_TO_MSL": null, "WATER_TANK_CAPA": null, "SYMMETRIC": null, "GROUND": null, "NO_BASEMENT": null, "NO_HALL_AUD": null, "SEAT_CAPACITY": null, "NO_WATER_TANK": null, "NO_ELEVATOR": null, "PAS": null, "CCTV_SERVE": null, "STRUCTURAL_AUDIT": null, "FIRE_EXTING_SYS": null, "FIRE_AUDIT": null, "CENTRALIZED_AC": null, "DISPLAY_BOARD": null, "HAZ_MAT": null, "ALT_ELEC": null, "WARD": "L", "ELEVATOR_CONTACT_LIST": null, "ELEVATOR_INTERCOM": null, "WORKING_HRS": null, "EMPLOYEE_QTY": null, "EMPLOYEE_MALE": null, "EMPLOYEE_FEMALE": null, "EMPLOYEE_DIF_ABLE": null, "WORKING_HRS_STR": null, "WORKING_HRS_STP": null, "_source": "MCGM ArcGIS FeatureServer (official)", "amenity": "police", "name": "Nehru Nagar Police Station", "susceptibility_score": 0.631, "susceptibility_provenance": "MODELLED"}}, {"type": "Feature", "id": 65, "geometry": {"type": "Point", "coordinates": [72.8762344180001, 19.0649449250001]}, "properties": {"OBJECTID": 65, "FEATUREID": "PS10000010323", "NAME": "Kurla Police Station", "TYPE": 1, "SUBTYPE": "Station", "LOCATION": "CST Road, Satejeevan Society, Kurla West", "BRD_LINE_NO": null, "CNTRL_ROOM_NO": null, "TYPE_CONSTRUCT": null, "YEAR_CONSTRUCT": null, "NO_FLOOR": null, "NO_ROOMS": null, "NO_COM_TOILET": null, "NO_GEN_TOILET": null, "NO_LAD_TOILET": null, "BATHROOM_FAC": null, "RAMP_DISABLED": null, "OPEN_SPACE": null, "REMARKS": null, "EDUPDATEUSER": null, "EDUPDATETIME": null, "CREATED_USER": "DMMASTER", "CREATED_DATE": 1479825702000, "LAST_EDITED_USER": "DMMASTER", "LAST_EDITED_DATE": 1598155210000, "HEIGHT_TO_MSL": null, "WATER_TANK_CAPA": null, "SYMMETRIC": null, "GROUND": null, "NO_BASEMENT": null, "NO_HALL_AUD": null, "SEAT_CAPACITY": null, "NO_WATER_TANK": null, "NO_ELEVATOR": null, "PAS": null, "CCTV_SERVE": null, "STRUCTURAL_AUDIT": null, "FIRE_EXTING_SYS": null, "FIRE_AUDIT": null, "CENTRALIZED_AC": null, "DISPLAY_BOARD": null, "HAZ_MAT": null, "ALT_ELEC": null, "WARD": "L", "ELEVATOR_CONTACT_LIST": null, "ELEVATOR_INTERCOM": null, "WORKING_HRS": null, "EMPLOYEE_QTY": null, "EMPLOYEE_MALE": null, "EMPLOYEE_FEMALE": null, "EMPLOYEE_DIF_ABLE": null, "WORKING_HRS_STR": null, "WORKING_HRS_STP": null, "_source": "MCGM ArcGIS FeatureServer (official)", "amenity": "police", "name": "Kurla Police Station", "susceptibility_score": 0.7375, "susceptibility_provenance": "MODELLED"}}, {"type": "Feature", "id": 66, "geometry": {"type": "Point", "coordinates": [72.8840989970001, 19.053862495]}, "properties": {"OBJECTID": 66, "FEATUREID": "PS10000010324", "NAME": "Chembur Traffice Division", "TYPE": 1, "SUBTYPE": "Traffic Chowki", "LOCATION": "Near Vijay Sales, Sumannagar, Chembur, Mumbai -74", "BRD_LINE_NO": null, "CNTRL_ROOM_NO": null, "TYPE_CONSTRUCT": null, "YEAR_CONSTRUCT": null, "NO_FLOOR": null, "NO_ROOMS": null, "NO_COM_TOILET": null, "NO_GEN_TOILET": null, "NO_LAD_TOILET": null, "BATHROOM_FAC": null, "RAMP_DISABLED": null, "OPEN_SPACE": null, "REMARKS": null, "EDUPDATEUSER": null, "EDUPDATETIME": null, "CREATED_USER": "DMMASTER", "CREATED_DATE": 1479825702000, "LAST_EDITED_USER": "DMMASTER", "LAST_EDITED_DATE": 1598155238000, "HEIGHT_TO_MSL": null, "WATER_TANK_CAPA": null, "SYMMETRIC": null, "GROUND": null, "NO_BASEMENT": null, "NO_HALL_AUD": null, "SEAT_CAPACITY": null, "NO_WATER_TANK": null, "NO_ELEVATOR": null, "PAS": null, "CCTV_SERVE": null, "STRUCTURAL_AUDIT": null, "FIRE_EXTING_SYS": null, "FIRE_AUDIT": null, "CENTRALIZED_AC": null, "DISPLAY_BOARD": null, "HAZ_MAT": null, "ALT_ELEC": null, "WARD": "M/W", "ELEVATOR_CONTACT_LIST": null, "ELEVATOR_INTERCOM": null, "WORKING_HRS": null, "EMPLOYEE_QTY": null, "EMPLOYEE_MALE": null, "EMPLOYEE_FEMALE": null, "EMPLOYEE_DIF_ABLE": null, "WORKING_HRS_STR": null, "WORKING_HRS_STP": null, "_source": "MCGM ArcGIS FeatureServer (official)", "amenity": "police", "name": "Chembur Traffice Division", "susceptibility_score": 0.6618, "susceptibility_provenance": "MODELLED"}}, {"type": "Feature", "id": 74, "geometry": {"type": "Point", "coordinates": [72.8841817860001, 19.071716641]}, "properties": {"OBJECTID": 74, "FEATUREID": "PS20203500153", "NAME": "V B Nagar Police Station", "TYPE": 1, "SUBTYPE": "Station", "LOCATION": "H.I.G Colony, BLD NO. 7 Kohonoor Co.op Hs . Society. V.B Nagar, Kurla (W), Mumbai - 400070. Pravin More  9821517320 vbnagarpolicestation@mtnl.net.in", "BRD_LINE_NO": "26500296", "CNTRL_ROOM_NO": "26500298, \n26500299", "TYPE_CONSTRUCT": null, "YEAR_CONSTRUCT": null, "NO_FLOOR": null, "NO_ROOMS": null, "NO_COM_TOILET": null, "NO_GEN_TOILET": null, "NO_LAD_TOILET": null, "BATHROOM_FAC": null, "RAMP_DISABLED": null, "OPEN_SPACE": null, "REMARKS": "L ward", "EDUPDATEUSER": null, "EDUPDATETIME": null, "CREATED_USER": "DMMASTER", "CREATED_DATE": 1479825702000, "LAST_EDITED_USER": "DMMASTER", "LAST_EDITED_DATE": 1598155366000, "HEIGHT_TO_MSL": null, "WATER_TANK_CAPA": null, "SYMMETRIC": null, "GROUND": null, "NO_BASEMENT": null, "NO_HALL_AUD": null, "SEAT_CAPACITY": null, "NO_WATER_TANK": null, "NO_ELEVATOR": null, "PAS": null, "CCTV_SERVE": null, "STRUCTURAL_AUDIT": null, "FIRE_EXTING_SYS": null, "FIRE_AUDIT": null, "CENTRALIZED_AC": null, "DISPLAY_BOARD": null, "HAZ_MAT": null, "ALT_ELEC": null, "WARD": "L", "ELEVATOR_CONTACT_LIST": null, "ELEVATOR_INTERCOM": null, "WORKING_HRS": null, "EMPLOYEE_QTY": null, "EMPLOYEE_MALE": null, "EMPLOYEE_FEMALE": null, "EMPLOYEE_DIF_ABLE": null, "WORKING_HRS_STR": null, "WORKING_HRS_STP": null, "_source": "MCGM ArcGIS FeatureServer (official)", "amenity": "police", "name": "V B Nagar Police Station", "susceptibility_score": 0.751, "susceptibility_provenance": "MODELLED"}}, {"type": "Feature", "id": 110, "geometry": {"type": "Point", "coordinates": [72.8762510000001, 19.064808]}, "properties": {"OBJECTID": 110, "FEATUREID": "PS19194700063", "NAME": "Kurla Railway Police Station", "TYPE": 1, "SUBTYPE": "Office", "LOCATION": null, "BRD_LINE_NO": null, "CNTRL_ROOM_NO": null, "TYPE_CONSTRUCT": null, "YEAR_CONSTRUCT": null, "NO_FLOOR": null, "NO_ROOMS": null, "NO_COM_TOILET": null, "NO_GEN_TOILET": null, "NO_LAD_TOILET": null, "BATHROOM_FAC": null, "RAMP_DISABLED": null, "OPEN_SPACE": null, "REMARKS": null, "EDUPDATEUSER": null, "EDUPDATETIME": null, "CREATED_USER": "DMMASTER", "CREATED_DATE": 1479825702000, "LAST_EDITED_USER": "DMMASTER", "LAST_EDITED_DATE": 1598154415000, "HEIGHT_TO_MSL": null, "WATER_TANK_CAPA": null, "SYMMETRIC": null, "GROUND": null, "NO_BASEMENT": null, "NO_HALL_AUD": null, "SEAT_CAPACITY": null, "NO_WATER_TANK": null, "NO_ELEVATOR": null, "PAS": null, "CCTV_SERVE": null, "STRUCTURAL_AUDIT": null, "FIRE_EXTING_SYS": null, "FIRE_AUDIT": null, "CENTRALIZED_AC": null, "DISPLAY_BOARD": null, "HAZ_MAT": null, "ALT_ELEC": null, "WARD": "L", "ELEVATOR_CONTACT_LIST": null, "ELEVATOR_INTERCOM": null, "WORKING_HRS": null, "EMPLOYEE_QTY": null, "EMPLOYEE_MALE": null, "EMPLOYEE_FEMALE": null, "EMPLOYEE_DIF_ABLE": null, "WORKING_HRS_STR": null, "WORKING_HRS_STP": null, "_source": "MCGM ArcGIS FeatureServer (official)", "amenity": "police", "name": "Kurla Railway Police Station", "susceptibility_score": 0.7421, "susceptibility_provenance": "MODELLED"}}, {"type": "Feature", "id": 113, "geometry": {"type": "Point", "coordinates": [72.8551430000001, 19.096262]}, "properties": {"OBJECTID": 113, "FEATUREID": "PS16235400050", "NAME": "Vileparle Police Station", "TYPE": 1, "SUBTYPE": "Station", "LOCATION": "Nehru Road, Near Centuar Hotel, Navpada, Vileparle (E), Mumbai - 400099.  ", "BRD_LINE_NO": "26117317", "CNTRL_ROOM_NO": null, "TYPE_CONSTRUCT": null, "YEAR_CONSTRUCT": null, "NO_FLOOR": null, "NO_ROOMS": null, "NO_COM_TOILET": null, "NO_GEN_TOILET": null, "NO_LAD_TOILET": null, "BATHROOM_FAC": null, "RAMP_DISABLED": null, "OPEN_SPACE": null, "REMARKS": "Smt. R. Maharao 9821461163\nvileparlepolicestation@mtnl.net.in", "EDUPDATEUSER": null, "EDUPDATETIME": null, "CREATED_USER": "DMMASTER", "CREATED_DATE": 1479825702000, "LAST_EDITED_USER": "DMMASTER@PRSRVGISDB.MUMBASE.MCGM.GOV.IN", "LAST_EDITED_DATE": 1648449203000, "HEIGHT_TO_MSL": null, "WATER_TANK_CAPA": null, "SYMMETRIC": null, "GROUND": null, "NO_BASEMENT": null, "NO_HALL_AUD": null, "SEAT_CAPACITY": null, "NO_WATER_TANK": null, "NO_ELEVATOR": null, "PAS": null, "CCTV_SERVE": null, "STRUCTURAL_AUDIT": null, "FIRE_EXTING_SYS": null, "FIRE_AUDIT": null, "CENTRALIZED_AC": null, "DISPLAY_BOARD": null, "HAZ_MAT": null, "ALT_ELEC": null, "WARD": "K/E", "ELEVATOR_CONTACT_LIST": null, "ELEVATOR_INTERCOM": null, "WORKING_HRS": null, "EMPLOYEE_QTY": null, "EMPLOYEE_MALE": null, "EMPLOYEE_FEMALE": null, "EMPLOYEE_DIF_ABLE": null, "WORKING_HRS_STR": null, "WORKING_HRS_STP": null, "_source": "MCGM ArcGIS FeatureServer (official)", "amenity": "police", "name": "Vileparle Police Station", "susceptibility_score": 0.5187, "susceptibility_provenance": "MODELLED"}}, {"type": "Feature", "id": 116, "geometry": {"type": "Point", "coordinates": [72.856305875, 19.0758921130001]}, "properties": {"OBJECTID": 116, "FEATUREID": "PS17213000040", "NAME": "Deputy Commissioner Of Police (QRT)", "TYPE": 1, "SUBTYPE": "Office  ", "LOCATION": "Bala Marg, Yashwant Nagar, Vakola, Santacruz (East) \nMumbai 400055. ", "BRD_LINE_NO": "26668757", "CNTRL_ROOM_NO": null, "TYPE_CONSTRUCT": null, "YEAR_CONSTRUCT": null, "NO_FLOOR": null, "NO_ROOMS": null, "NO_COM_TOILET": null, "NO_GEN_TOILET": null, "NO_LAD_TOILET": null, "BATHROOM_FAC": null, "RAMP_DISABLED": null, "OPEN_SPACE": null, "REMARKS": "Shashikant Narayan Satav D.C.P. (Q.R.T.) 9773337706 acpqrt@gmail.com", "EDUPDATEUSER": null, "EDUPDATETIME": null, "CREATED_USER": "DMMASTER", "CREATED_DATE": 1479825702000, "LAST_EDITED_USER": "DMMASTER", "LAST_EDITED_DATE": 1566137209000, "HEIGHT_TO_MSL": null, "WATER_TANK_CAPA": null, "SYMMETRIC": null, "GROUND": null, "NO_BASEMENT": null, "NO_HALL_AUD": null, "SEAT_CAPACITY": null, "NO_WATER_TANK": null, "NO_ELEVATOR": null, "PAS": null, "CCTV_SERVE": null, "STRUCTURAL_AUDIT": null, "FIRE_EXTING_SYS": null, "FIRE_AUDIT": null, "CENTRALIZED_AC": null, "DISPLAY_BOARD": null, "HAZ_MAT": null, "ALT_ELEC": null, "WARD": "H/E", "ELEVATOR_CONTACT_LIST": null, "ELEVATOR_INTERCOM": null, "WORKING_HRS": null, "EMPLOYEE_QTY": null, "EMPLOYEE_MALE": null, "EMPLOYEE_FEMALE": null, "EMPLOYEE_DIF_ABLE": null, "WORKING_HRS_STR": null, "WORKING_HRS_STP": null, "_source": "MCGM ArcGIS FeatureServer (official)", "amenity": "police", "name": "Deputy Commissioner Of Police (QRT)", "susceptibility_score": 0.6855, "susceptibility_provenance": "MODELLED"}}, {"type": "Feature", "id": 117, "geometry": {"type": "Point", "coordinates": [72.8603031860001, 19.064604194]}, "properties": {"OBJECTID": 117, "FEATUREID": "PS16197900039", "NAME": "B K C Police Station", "TYPE": 1, "SUBTYPE": "Station", "LOCATION": "Bandra-Kurla Complex Road, Opp. I.C.I.C.I. Bank, Bandra (E), Mumbai - 400051. ", "BRD_LINE_NO": "26504483", "CNTRL_ROOM_NO": "26504482, \n26504481", "TYPE_CONSTRUCT": null, "YEAR_CONSTRUCT": null, "NO_FLOOR": null, "NO_ROOMS": null, "NO_COM_TOILET": null, "NO_GEN_TOILET": null, "NO_LAD_TOILET": null, "BATHROOM_FAC": null, "RAMP_DISABLED": null, "OPEN_SPACE": null, "REMARKS": "Kundlik V. Nigade 8108999300  bkcpolicestation@mtnl.net.in", "EDUPDATEUSER": null, "EDUPDATETIME": null, "CREATED_USER": "DMMASTER", "CREATED_DATE": 1479825702000, "LAST_EDITED_USER": "DMMASTER", "LAST_EDITED_DATE": 1566133925000, "HEIGHT_TO_MSL": null, "WATER_TANK_CAPA": null, "SYMMETRIC": null, "GROUND": null, "NO_BASEMENT": null, "NO_HALL_AUD": null, "SEAT_CAPACITY": null, "NO_WATER_TANK": null, "NO_ELEVATOR": null, "PAS": null, "CCTV_SERVE": null, "STRUCTURAL_AUDIT": null, "FIRE_EXTING_SYS": null, "FIRE_AUDIT": null, "CENTRALIZED_AC": null, "DISPLAY_BOARD": null, "HAZ_MAT": null, "ALT_ELEC": null, "WARD": "H/E", "ELEVATOR_CONTACT_LIST": null, "ELEVATOR_INTERCOM": null, "WORKING_HRS": null, "EMPLOYEE_QTY": null, "EMPLOYEE_MALE": null, "EMPLOYEE_FEMALE": null, "EMPLOYEE_DIF_ABLE": null, "WORKING_HRS_STR": null, "WORKING_HRS_STP": null, "_source": "MCGM ArcGIS FeatureServer (official)", "amenity": "police", "name": "B K C Police Station", "susceptibility_score": 0.6856, "susceptibility_provenance": "MODELLED"}}, {"type": "Feature", "id": 126, "geometry": {"type": "Point", "coordinates": [72.865889, 19.0940800000001]}, "properties": {"OBJECTID": 126, "FEATUREID": "PS17212400043", "NAME": "Airport Police Station", "TYPE": 1, "SUBTYPE": "Station", "LOCATION": "Airport Terminal Building, Near Gate no 01, Domestic Airport, CSIA, Mumbai 400099. ", "BRD_LINE_NO": "26156921", "CNTRL_ROOM_NO": "26156315, \n26156309", "TYPE_CONSTRUCT": null, "YEAR_CONSTRUCT": null, "NO_FLOOR": null, "NO_ROOMS": null, "NO_COM_TOILET": null, "NO_GEN_TOILET": null, "NO_LAD_TOILET": null, "BATHROOM_FAC": null, "RAMP_DISABLED": null, "OPEN_SPACE": null, "REMARKS": "Babu T. Mukhedkar  9870318197\nairportpolicestation@mtnl.net.in", "EDUPDATEUSER": null, "EDUPDATETIME": null, "CREATED_USER": "DMMASTER", "CREATED_DATE": 1479825702000, "LAST_EDITED_USER": "DMMASTER", "LAST_EDITED_DATE": 1566308547000, "HEIGHT_TO_MSL": null, "WATER_TANK_CAPA": null, "SYMMETRIC": null, "GROUND": null, "NO_BASEMENT": null, "NO_HALL_AUD": null, "SEAT_CAPACITY": null, "NO_WATER_TANK": null, "NO_ELEVATOR": null, "PAS": null, "CCTV_SERVE": null, "STRUCTURAL_AUDIT": null, "FIRE_EXTING_SYS": null, "FIRE_AUDIT": null, "CENTRALIZED_AC": null, "DISPLAY_BOARD": null, "HAZ_MAT": null, "ALT_ELEC": null, "WARD": "K/E", "ELEVATOR_CONTACT_LIST": null, "ELEVATOR_INTERCOM": null, "WORKING_HRS": null, "EMPLOYEE_QTY": null, "EMPLOYEE_MALE": null, "EMPLOYEE_FEMALE": null, "EMPLOYEE_DIF_ABLE": null, "WORKING_HRS_STR": null, "WORKING_HRS_STP": null, "_source": "MCGM ArcGIS FeatureServer (official)", "amenity": "police", "name": "Airport Police Station", "susceptibility_score": 0.6543, "susceptibility_provenance": "MODELLED"}}, {"type": "Feature", "id": 40, "geometry": {"type": "Point", "coordinates": [72.8937359650001, 19.0971306430001]}, "properties": {"OBJECTID": 40, "Name": "Asalpha", "FolderPath": "Metro_Lines.kmz/Metro_Lines", "SymbolID": 0, "AltMode": -1, "Base": 0, "Snippet": "", "PopupInfo": "", "HasLabel": -1, "LabelID": 0, "_source": "MCGM ArcGIS FeatureServer (official)", "amenity": "metro", "name": "Asalpha", "susceptibility_score": 0.6949, "susceptibility_provenance": "MODELLED"}}, {"type": "Feature", "id": 41, "geometry": {"type": "Point", "coordinates": [72.9008436170001, 19.093132449]}, "properties": {"OBJECTID": 41, "Name": "Jagruti Nagar", "FolderPath": "Metro_Lines.kmz/Metro_Lines", "SymbolID": 0, "AltMode": -1, "Base": 0, "Snippet": "", "PopupInfo": "", "HasLabel": -1, "LabelID": 0, "_source": "MCGM ArcGIS FeatureServer (official)", "amenity": "metro", "name": "Jagruti Nagar", "susceptibility_score": 0.6381, "susceptibility_provenance": "MODELLED"}}, {"type": "Feature", "id": 33, "geometry": {"type": "Point", "coordinates": [72.8793543303778, 19.0654774786936]}, "properties": {"FID": 33, "OBJECTID_1": 33, "NAME": "Kurla", "N_TYPE": "Suburban Station", "N_REGION": "CENTRAL", "For_Labell": "Kurla", "_source": "MCGM ArcGIS FeatureServer (official)", "amenity": "railway", "name": "Kurla", "susceptibility_score": 0.783, "susceptibility_provenance": "MODELLED"}}, {"type": "Feature", "id": 34, "geometry": {"type": "Point", "coordinates": [72.8975799791421, 19.0796208736982]}, "properties": {"FID": 34, "OBJECTID_1": 34, "NAME": "Vidyavihar", "N_TYPE": "Suburban Station", "N_REGION": "CENTRAL", "For_Labell": " ", "_source": "MCGM ArcGIS FeatureServer (official)", "amenity": "railway", "name": "Vidyavihar", "susceptibility_score": 0.7395, "susceptibility_provenance": "MODELLED"}}, {"type": "Feature", "id": 47, "geometry": {"type": "Point", "coordinates": [72.8689456446498, 19.0517072445659]}, "properties": {"FID": 47, "OBJECTID_1": 47, "NAME": "Chunna Bhatti", "N_TYPE": "Suburban Station", "N_REGION": "HARBOUR", "For_Labell": " ", "_source": "MCGM ArcGIS FeatureServer (official)", "amenity": "railway", "name": "Chunna Bhatti", "susceptibility_score": 0.7816, "susceptibility_provenance": "MODELLED"}}, {"type": "Feature", "id": 48, "geometry": {"type": "Point", "coordinates": [72.8899762020042, 19.0657803013233]}, "properties": {"FID": 48, "OBJECTID_1": 48, "NAME": "Tilak Nagar", "N_TYPE": "Suburban Station", "N_REGION": "HARBOUR", "For_Labell": " ", "_source": "MCGM ArcGIS FeatureServer (official)", "amenity": "railway", "name": "Tilak Nagar", "susceptibility_score": 0.7479, "susceptibility_provenance": "MODELLED"}}, {"type": "Feature", "id": 49, "geometry": {"type": "Point", "coordinates": [72.9012441362589, 19.0625976174705]}, "properties": {"FID": 49, "OBJECTID_1": 49, "NAME": "Chembur", "N_TYPE": "Suburban Station", "N_REGION": "HARBOUR", "For_Labell": " ", "_source": "MCGM ArcGIS FeatureServer (official)", "amenity": "railway", "name": "Chembur", "susceptibility_score": 0.682, "susceptibility_provenance": "MODELLED"}}, {"type": "Feature", "geometry": {"type": "Point", "coordinates": [72.9005288, 19.0521144]}, "properties": {"osm_id": 245664662, "category": "traffic_signal", "name": "traffic_signal", "_source": "OpenStreetMap", "amenity": "traffic_signal", "susceptibility_score": 0.7223, "susceptibility_provenance": "MODELLED"}}, {"type": "Feature", "geometry": {"type": "Point", "coordinates": [72.8823963, 19.0533102]}, "properties": {"osm_id": 245664866, "category": "traffic_signal", "name": "traffic_signal", "_source": "OpenStreetMap", "amenity": "traffic_signal", "susceptibility_score": 0.8055, "susceptibility_provenance": "MODELLED"}}, {"type": "Feature", "geometry": {"type": "Point", "coordinates": [72.8893813, 19.0539471]}, "properties": {"osm_id": 245664869, "category": "traffic_signal", "name": "traffic_signal", "_source": "OpenStreetMap", "amenity": "traffic_signal", "susceptibility_score": 0.7112, "susceptibility_provenance": "MODELLED"}}, {"type": "Feature", "geometry": {"type": "Point", "coordinates": [72.8946942, 19.0539841]}, "properties": {"osm_id": 245664905, "category": "traffic_signal", "name": "traffic_signal", "_source": "OpenStreetMap", "amenity": "traffic_signal", "susceptibility_score": 0.6782, "susceptibility_provenance": "MODELLED"}}, {"type": "Feature", "geometry": {"type": "Point", "coordinates": [72.8872739, 19.056904]}, "properties": {"osm_id": 245665354, "category": "traffic_signal", "name": "traffic_signal", "_source": "OpenStreetMap", "amenity": "traffic_signal", "susceptibility_score": 0.7421, "susceptibility_provenance": "MODELLED"}}, {"type": "Feature", "geometry": {"type": "Point", "coordinates": [72.8858965, 19.0587817]}, "properties": {"osm_id": 245665679, "category": "traffic_signal", "name": "traffic_signal", "_source": "OpenStreetMap", "amenity": "traffic_signal", "susceptibility_score": 0.721, "susceptibility_provenance": "MODELLED"}}, {"type": "Feature", "geometry": {"type": "Point", "coordinates": [72.8834352, 19.06202]}, "properties": {"osm_id": 245666164, "category": "traffic_signal", "name": "traffic_signal", "_source": "OpenStreetMap", "amenity": "traffic_signal", "susceptibility_score": 0.7398, "susceptibility_provenance": "MODELLED"}}, {"type": "Feature", "geometry": {"type": "Point", "coordinates": [72.8653978, 19.0671608]}, "properties": {"osm_id": 245666966, "category": "traffic_signal", "name": "traffic_signal", "_source": "OpenStreetMap", "amenity": "traffic_signal", "susceptibility_score": 0.7478, "susceptibility_provenance": "MODELLED"}}, {"type": "Feature", "geometry": {"type": "Point", "coordinates": [72.8773593, 19.0758789]}, "properties": {"osm_id": 245668003, "category": "traffic_signal", "name": "traffic_signal", "_source": "OpenStreetMap", "amenity": "traffic_signal", "susceptibility_score": 0.7448, "susceptibility_provenance": "MODELLED"}}, {"type": "Feature", "geometry": {"type": "Point", "coordinates": [72.8625431, 19.0778032]}, "properties": {"osm_id": 245668015, "category": "traffic_signal", "name": "traffic_signal", "_source": "OpenStreetMap", "amenity": "traffic_signal", "susceptibility_score": 0.6128, "susceptibility_provenance": "MODELLED"}}, {"type": "Feature", "geometry": {"type": "Point", "coordinates": [72.8803239, 19.0796532]}, "properties": {"osm_id": 245668515, "category": "traffic_signal", "name": "traffic_signal", "_source": "OpenStreetMap", "amenity": "traffic_signal", "susceptibility_score": 0.8053, "susceptibility_provenance": "MODELLED"}}, {"type": "Feature", "geometry": {"type": "Point", "coordinates": [72.8585698, 19.0606458]}, "properties": {"osm_id": 296853793, "category": "traffic_signal", "name": "traffic_signal", "_source": "OpenStreetMap", "amenity": "traffic_signal", "susceptibility_score": 0.7587, "susceptibility_provenance": "MODELLED"}}, {"type": "Feature", "geometry": {"type": "Point", "coordinates": [72.8621953, 19.0651727]}, "properties": {"osm_id": 296853816, "category": "traffic_signal", "name": "traffic_signal", "_source": "OpenStreetMap", "amenity": "traffic_signal", "susceptibility_score": 0.7065, "susceptibility_provenance": "MODELLED"}}, {"type": "Feature", "geometry": {"type": "Point", "coordinates": [72.8723, 19.0710084]}, "properties": {"osm_id": 296857791, "category": "traffic_signal", "name": "traffic_signal", "_source": "OpenStreetMap", "amenity": "traffic_signal", "susceptibility_score": 0.8192, "susceptibility_provenance": "MODELLED"}}, {"type": "Feature", "geometry": {"type": "Point", "coordinates": [72.8595787, 19.0624565]}, "properties": {"osm_id": 296857806, "category": "traffic_signal", "name": "traffic_signal", "_source": "OpenStreetMap", "amenity": "traffic_signal", "susceptibility_score": 0.6792, "susceptibility_provenance": "MODELLED"}}, {"type": "Feature", "geometry": {"type": "Point", "coordinates": [72.8586336, 19.0604963]}, "properties": {"osm_id": 296857831, "category": "traffic_signal", "name": "traffic_signal", "_source": "OpenStreetMap", "amenity": "traffic_signal", "susceptibility_score": 0.7587, "susceptibility_provenance": "MODELLED"}}, {"type": "Feature", "geometry": {"type": "Point", "coordinates": [72.8531244, 19.0964588]}, "properties": {"osm_id": 470146183, "category": "traffic_signal", "name": "traffic_signal", "_source": "OpenStreetMap", "amenity": "traffic_signal", "susceptibility_score": 0.769, "susceptibility_provenance": "MODELLED"}}, {"type": "Feature", "geometry": {"type": "Point", "coordinates": [72.852821, 19.0955298]}, "properties": {"osm_id": 588620180, "category": "traffic_signal", "name": "traffic_signal", "_source": "OpenStreetMap", "amenity": "traffic_signal", "susceptibility_score": 0.7726, "susceptibility_provenance": "MODELLED"}}, {"type": "Feature", "geometry": {"type": "Point", "coordinates": [72.8527815, 19.0965425]}, "properties": {"osm_id": 593054872, "category": "traffic_signal", "name": "traffic_signal", "_source": "OpenStreetMap", "amenity": "traffic_signal", "susceptibility_score": 0.7114, "susceptibility_provenance": "MODELLED"}}, {"type": "Feature", "geometry": {"type": "Point", "coordinates": [72.8861203, 19.0849504]}, "properties": {"osm_id": 619309790, "category": "traffic_signal", "name": "traffic_signal", "_source": "OpenStreetMap", "amenity": "traffic_signal", "susceptibility_score": 0.7156, "susceptibility_provenance": "MODELLED"}}, {"type": "Feature", "geometry": {"type": "Point", "coordinates": [72.8788698, 19.0777367]}, "properties": {"osm_id": 619309806, "category": "traffic_signal", "name": "traffic_signal", "_source": "OpenStreetMap", "amenity": "traffic_signal", "susceptibility_score": 0.8114, "susceptibility_provenance": "MODELLED"}}, {"type": "Feature", "geometry": {"type": "Point", "coordinates": [72.8754828, 19.0707176]}, "properties": {"osm_id": 619309810, "category": "traffic_signal", "name": "traffic_signal", "_source": "OpenStreetMap", "amenity": "traffic_signal", "susceptibility_score": 0.7563, "susceptibility_provenance": "MODELLED"}}, {"type": "Feature", "geometry": {"type": "Point", "coordinates": [72.9025709, 19.0874382]}, "properties": {"osm_id": 620011492, "category": "traffic_signal", "name": "traffic_signal", "_source": "OpenStreetMap", "amenity": "traffic_signal", "susceptibility_score": 0.7389, "susceptibility_provenance": "MODELLED"}}, {"type": "Feature", "geometry": {"type": "Point", "coordinates": [72.8604812, 19.0743754]}, "properties": {"osm_id": 622042582, "category": "traffic_signal", "name": "traffic_signal", "_source": "OpenStreetMap", "amenity": "traffic_signal", "susceptibility_score": 0.7206, "susceptibility_provenance": "MODELLED"}}, {"type": "Feature", "geometry": {"type": "Point", "coordinates": [72.8757088, 19.0790473]}, "properties": {"osm_id": 622060411, "category": "traffic_signal", "name": "traffic_signal", "_source": "OpenStreetMap", "amenity": "traffic_signal", "susceptibility_score": 0.7314, "susceptibility_provenance": "MODELLED"}}, {"type": "Feature", "geometry": {"type": "Point", "coordinates": [72.8767188, 19.0785665]}, "properties": {"osm_id": 622060462, "category": "traffic_signal", "name": "traffic_signal", "_source": "OpenStreetMap", "amenity": "traffic_signal", "susceptibility_score": 0.7637, "susceptibility_provenance": "MODELLED"}}, {"type": "Feature", "geometry": {"type": "Point", "coordinates": [72.8684997, 19.0690865]}, "properties": {"osm_id": 631507992, "category": "traffic_signal", "name": "traffic_signal", "_source": "OpenStreetMap", "amenity": "traffic_signal", "susceptibility_score": 0.742, "susceptibility_provenance": "MODELLED"}}, {"type": "Feature", "geometry": {"type": "Point", "coordinates": [72.868405, 19.0692212]}, "properties": {"osm_id": 631507993, "category": "traffic_signal", "name": "traffic_signal", "_source": "OpenStreetMap", "amenity": "traffic_signal", "susceptibility_score": 0.7275, "susceptibility_provenance": "MODELLED"}}, {"type": "Feature", "geometry": {"type": "Point", "coordinates": [72.8652769, 19.0672793]}, "properties": {"osm_id": 631525438, "category": "traffic_signal", "name": "traffic_signal", "_source": "OpenStreetMap", "amenity": "traffic_signal", "susceptibility_score": 0.7478, "susceptibility_provenance": "MODELLED"}}, {"type": "Feature", "geometry": {"type": "Point", "coordinates": [72.8722123, 19.0711547]}, "properties": {"osm_id": 631525441, "category": "traffic_signal", "name": "traffic_signal", "_source": "OpenStreetMap", "amenity": "traffic_signal", "susceptibility_score": 0.8192, "susceptibility_provenance": "MODELLED"}}, {"type": "Feature", "geometry": {"type": "Point", "coordinates": [72.8527701, 19.0954195]}, "properties": {"osm_id": 652613466, "category": "traffic_signal", "name": "traffic_signal", "_source": "OpenStreetMap", "amenity": "traffic_signal", "susceptibility_score": 0.7726, "susceptibility_provenance": "MODELLED"}}, {"type": "Feature", "geometry": {"type": "Point", "coordinates": [72.900476, 19.0685557]}, "properties": {"osm_id": 1232644012, "category": "traffic_signal", "name": "Tilak Nagar Signal", "_source": "OpenStreetMap", "amenity": "traffic_signal", "susceptibility_score": 0.691, "susceptibility_provenance": "MODELLED"}}, {"type": "Feature", "geometry": {"type": "Point", "coordinates": [72.8927213, 19.0676829]}, "properties": {"osm_id": 1232644316, "category": "traffic_signal", "name": "traffic_signal", "_source": "OpenStreetMap", "amenity": "traffic_signal", "susceptibility_score": 0.7162, "susceptibility_provenance": "MODELLED"}}, {"type": "Feature", "geometry": {"type": "Point", "coordinates": [72.8775314, 19.0760493]}, "properties": {"osm_id": 1366009125, "category": "traffic_signal", "name": "traffic_signal", "_source": "OpenStreetMap", "amenity": "traffic_signal", "susceptibility_score": 0.742, "susceptibility_provenance": "MODELLED"}}, {"type": "Feature", "geometry": {"type": "Point", "coordinates": [72.8849456, 19.0844858]}, "properties": {"osm_id": 1366028032, "category": "traffic_signal", "name": "traffic_signal", "_source": "OpenStreetMap", "amenity": "traffic_signal", "susceptibility_score": 0.7415, "susceptibility_provenance": "MODELLED"}}, {"type": "Feature", "geometry": {"type": "Point", "coordinates": [72.8994374, 19.0935027]}, "properties": {"osm_id": 1366097095, "category": "traffic_signal", "name": "traffic_signal", "_source": "OpenStreetMap", "amenity": "traffic_signal", "susceptibility_score": 0.6266, "susceptibility_provenance": "MODELLED"}}, {"type": "Feature", "geometry": {"type": "Point", "coordinates": [72.9005919, 19.0621254]}, "properties": {"osm_id": 1366857555, "category": "traffic_signal", "name": "traffic_signal", "_source": "OpenStreetMap", "amenity": "traffic_signal", "susceptibility_score": 0.7051, "susceptibility_provenance": "MODELLED"}}, {"type": "Feature", "geometry": {"type": "Point", "coordinates": [72.8991816, 19.0651366]}, "properties": {"osm_id": 1366938254, "category": "traffic_signal", "name": "Amar Mahal Signal", "_source": "OpenStreetMap", "amenity": "traffic_signal", "susceptibility_score": 0.7569, "susceptibility_provenance": "MODELLED"}}, {"type": "Feature", "geometry": {"type": "Point", "coordinates": [72.8833503, 19.0621117]}, "properties": {"osm_id": 1367093074, "category": "traffic_signal", "name": "traffic_signal", "_source": "OpenStreetMap", "amenity": "traffic_signal", "susceptibility_score": 0.7417, "susceptibility_provenance": "MODELLED"}}, {"type": "Feature", "geometry": {"type": "Point", "coordinates": [72.8998598, 19.0523435]}, "properties": {"osm_id": 1643264250, "category": "traffic_signal", "name": "traffic_signal", "_source": "OpenStreetMap", "amenity": "traffic_signal", "susceptibility_score": 0.6574, "susceptibility_provenance": "MODELLED"}}, {"type": "Feature", "geometry": {"type": "Point", "coordinates": [72.8969517, 19.053378]}, "properties": {"osm_id": 1643351766, "category": "traffic_signal", "name": "traffic_signal", "_source": "OpenStreetMap", "amenity": "traffic_signal", "susceptibility_score": 0.6676, "susceptibility_provenance": "MODELLED"}}, {"type": "Feature", "geometry": {"type": "Point", "coordinates": [72.8995295, 19.0936523]}, "properties": {"osm_id": 1647163158, "category": "traffic_signal", "name": "traffic_signal", "_source": "OpenStreetMap", "amenity": "traffic_signal", "susceptibility_score": 0.6266, "susceptibility_provenance": "MODELLED"}}, {"type": "Feature", "geometry": {"type": "Point", "coordinates": [72.8892738, 19.0540824]}, "properties": {"osm_id": 1651387817, "category": "traffic_signal", "name": "traffic_signal", "_source": "OpenStreetMap", "amenity": "traffic_signal", "susceptibility_score": 0.6962, "susceptibility_provenance": "MODELLED"}}, {"type": "Feature", "geometry": {"type": "Point", "coordinates": [72.9005747, 19.0522774]}, "properties": {"osm_id": 2238597919, "category": "traffic_signal", "name": "traffic_signal", "_source": "OpenStreetMap", "amenity": "traffic_signal", "susceptibility_score": 0.7223, "susceptibility_provenance": "MODELLED"}}, {"type": "Feature", "geometry": {"type": "Point", "coordinates": [72.8945085, 19.0856977]}, "properties": {"osm_id": 2244961403, "category": "traffic_signal", "name": "traffic_signal", "_source": "OpenStreetMap", "amenity": "traffic_signal", "susceptibility_score": 0.6139, "susceptibility_provenance": "MODELLED"}}, {"type": "Feature", "geometry": {"type": "Point", "coordinates": [72.8997275, 19.0654272]}, "properties": {"osm_id": 2246471991, "category": "traffic_signal", "name": "traffic_signal", "_source": "OpenStreetMap", "amenity": "traffic_signal", "susceptibility_score": 0.7552, "susceptibility_provenance": "MODELLED"}}, {"type": "Feature", "geometry": {"type": "Point", "coordinates": [72.9021934, 19.0560049]}, "properties": {"osm_id": 2319171657, "category": "school", "name": "Sevadaan Special School", "_source": "OpenStreetMap", "amenity": "school", "susceptibility_score": 0.7235, "susceptibility_provenance": "MODELLED"}}, {"type": "Feature", "geometry": {"type": "Point", "coordinates": [72.8971696, 19.0644504]}, "properties": {"osm_id": 2439252012, "category": "traffic_signal", "name": "traffic_signal", "_source": "OpenStreetMap", "amenity": "traffic_signal", "susceptibility_score": 0.821, "susceptibility_provenance": "MODELLED"}}, {"type": "Feature", "geometry": {"type": "Point", "coordinates": [72.8970985, 19.0646737]}, "properties": {"osm_id": 2439252016, "category": "traffic_signal", "name": "traffic_signal", "_source": "OpenStreetMap", "amenity": "traffic_signal", "susceptibility_score": 0.7938, "susceptibility_provenance": "MODELLED"}}, {"type": "Feature", "geometry": {"type": "Point", "coordinates": [72.8966412, 19.0646643]}, "properties": {"osm_id": 2439252021, "category": "traffic_signal", "name": "traffic_signal", "_source": "OpenStreetMap", "amenity": "traffic_signal", "susceptibility_score": 0.7837, "susceptibility_provenance": "MODELLED"}}, {"type": "Feature", "geometry": {"type": "Point", "coordinates": [72.8995643, 19.0659836]}, "properties": {"osm_id": 2439252028, "category": "traffic_signal", "name": "traffic_signal", "_source": "OpenStreetMap", "amenity": "traffic_signal", "susceptibility_score": 0.7584, "susceptibility_provenance": "MODELLED"}}, {"type": "Feature", "geometry": {"type": "Point", "coordinates": [72.8753551, 19.0707566]}, "properties": {"osm_id": 2622177275, "category": "traffic_signal", "name": "traffic_signal", "_source": "OpenStreetMap", "amenity": "traffic_signal", "susceptibility_score": 0.7664, "susceptibility_provenance": "MODELLED"}}, {"type": "Feature", "geometry": {"type": "Point", "coordinates": [72.8772747, 19.0759339]}, "properties": {"osm_id": 2622177289, "category": "traffic_signal", "name": "traffic_signal", "_source": "OpenStreetMap", "amenity": "traffic_signal", "susceptibility_score": 0.7448, "susceptibility_provenance": "MODELLED"}}, {"type": "Feature", "geometry": {"type": "Point", "coordinates": [72.8774466, 19.0761061]}, "properties": {"osm_id": 2622177290, "category": "traffic_signal", "name": "traffic_signal", "_source": "OpenStreetMap", "amenity": "traffic_signal", "susceptibility_score": 0.742, "susceptibility_provenance": "MODELLED"}}, {"type": "Feature", "geometry": {"type": "Point", "coordinates": [72.8787234, 19.0777927]}, "properties": {"osm_id": 2622177292, "category": "traffic_signal", "name": "traffic_signal", "_source": "OpenStreetMap", "amenity": "traffic_signal", "susceptibility_score": 0.7457, "susceptibility_provenance": "MODELLED"}}, {"type": "Feature", "geometry": {"type": "Point", "coordinates": [72.8803765, 19.0799401]}, "properties": {"osm_id": 2622177294, "category": "traffic_signal", "name": "traffic_signal", "_source": "OpenStreetMap", "amenity": "traffic_signal", "susceptibility_score": 0.7113, "susceptibility_provenance": "MODELLED"}}, {"type": "Feature", "geometry": {"type": "Point", "coordinates": [72.8849418, 19.0845663]}, "properties": {"osm_id": 2622177309, "category": "traffic_signal", "name": "traffic_signal", "_source": "OpenStreetMap", "amenity": "traffic_signal", "susceptibility_score": 0.7415, "susceptibility_provenance": "MODELLED"}}, {"type": "Feature", "geometry": {"type": "Point", "coordinates": [72.8860826, 19.0850005]}, "properties": {"osm_id": 2622177318, "category": "traffic_signal", "name": "traffic_signal", "_source": "OpenStreetMap", "amenity": "traffic_signal", "susceptibility_score": 0.7156, "susceptibility_provenance": "MODELLED"}}, {"type": "Feature", "geometry": {"type": "Point", "coordinates": [72.8944852, 19.085763]}, "properties": {"osm_id": 2622177326, "category": "traffic_signal", "name": "traffic_signal", "_source": "OpenStreetMap", "amenity": "traffic_signal", "susceptibility_score": 0.6139, "susceptibility_provenance": "MODELLED"}}, {"type": "Feature", "geometry": {"type": "Point", "coordinates": [72.9005621, 19.0871263]}, "properties": {"osm_id": 2622177338, "category": "traffic_signal", "name": "traffic_signal", "_source": "OpenStreetMap", "amenity": "traffic_signal", "susceptibility_score": 0.5843, "susceptibility_provenance": "MODELLED"}}, {"type": "Feature", "geometry": {"type": "Point", "coordinates": [72.9025598, 19.0875124]}, "properties": {"osm_id": 2622177342, "category": "traffic_signal", "name": "traffic_signal", "_source": "OpenStreetMap", "amenity": "traffic_signal", "susceptibility_score": 0.7389, "susceptibility_provenance": "MODELLED"}}, {"type": "Feature", "geometry": {"type": "Point", "coordinates": [72.8999145, 19.0524868]}, "properties": {"osm_id": 2629741740, "category": "traffic_signal", "name": "traffic_signal", "_source": "OpenStreetMap", "amenity": "traffic_signal", "susceptibility_score": 0.707, "susceptibility_provenance": "MODELLED"}}, {"type": "Feature", "geometry": {"type": "Point", "coordinates": [72.8970229, 19.053514]}, "properties": {"osm_id": 2629741747, "category": "traffic_signal", "name": "traffic_signal", "_source": "OpenStreetMap", "amenity": "traffic_signal", "susceptibility_score": 0.6563, "susceptibility_provenance": "MODELLED"}}, {"type": "Feature", "geometry": {"type": "Point", "coordinates": [72.8947246, 19.0541314]}, "properties": {"osm_id": 2629741752, "category": "traffic_signal", "name": "traffic_signal", "_source": "OpenStreetMap", "amenity": "traffic_signal", "susceptibility_score": 0.704, "susceptibility_provenance": "MODELLED"}}, {"type": "Feature", "geometry": {"type": "Point", "coordinates": [72.8886221, 19.0674194]}, "properties": {"osm_id": 2804441140, "category": "traffic_signal", "name": "traffic_signal", "_source": "OpenStreetMap", "amenity": "traffic_signal", "susceptibility_score": 0.7857, "susceptibility_provenance": "MODELLED"}}, {"type": "Feature", "geometry": {"type": "Point", "coordinates": [72.888952, 19.0675273]}, "properties": {"osm_id": 2804441145, "category": "traffic_signal", "name": "traffic_signal", "_source": "OpenStreetMap", "amenity": "traffic_signal", "susceptibility_score": 0.7768, "susceptibility_provenance": "MODELLED"}}, {"type": "Feature", "geometry": {"type": "Point", "coordinates": [72.8886976, 19.0673455]}, "properties": {"osm_id": 2804441150, "category": "traffic_signal", "name": "traffic_signal", "_source": "OpenStreetMap", "amenity": "traffic_signal", "susceptibility_score": 0.801, "susceptibility_provenance": "MODELLED"}}, {"type": "Feature", "geometry": {"type": "Point", "coordinates": [72.8888783, 19.0676154]}, "properties": {"osm_id": 2804441153, "category": "traffic_signal", "name": "traffic_signal", "_source": "OpenStreetMap", "amenity": "traffic_signal", "susceptibility_score": 0.7768, "susceptibility_provenance": "MODELLED"}}, {"type": "Feature", "geometry": {"type": "Point", "coordinates": [72.8891834, 19.0676981]}, "properties": {"osm_id": 2804443043, "category": "traffic_signal", "name": "traffic_signal", "_source": "OpenStreetMap", "amenity": "traffic_signal", "susceptibility_score": 0.7882, "susceptibility_provenance": "MODELLED"}}, {"type": "Feature", "geometry": {"type": "Point", "coordinates": [72.8883997, 19.0671832]}, "properties": {"osm_id": 2804444332, "category": "traffic_signal", "name": "traffic_signal", "_source": "OpenStreetMap", "amenity": "traffic_signal", "susceptibility_score": 0.7269, "susceptibility_provenance": "MODELLED"}}, {"type": "Feature", "geometry": {"type": "Point", "coordinates": [72.8887245, 19.067791]}, "properties": {"osm_id": 2804449479, "category": "traffic_signal", "name": "traffic_signal", "_source": "OpenStreetMap", "amenity": "traffic_signal", "susceptibility_score": 0.8015, "susceptibility_provenance": "MODELLED"}}, {"type": "Feature", "geometry": {"type": "Point", "coordinates": [72.8889123, 19.0671885]}, "properties": {"osm_id": 2804449483, "category": "traffic_signal", "name": "traffic_signal", "_source": "OpenStreetMap", "amenity": "traffic_signal", "susceptibility_score": 0.8126, "susceptibility_provenance": "MODELLED"}}, {"type": "Feature", "geometry": {"type": "Point", "coordinates": [72.8710305, 19.074335]}, "properties": {"osm_id": 2804481645, "category": "traffic_signal", "name": "traffic_signal", "_source": "OpenStreetMap", "amenity": "traffic_signal", "susceptibility_score": 0.7834, "susceptibility_provenance": "MODELLED"}}, {"type": "Feature", "geometry": {"type": "Point", "coordinates": [72.8801552, 19.0742913]}, "properties": {"osm_id": 2804584123, "category": "traffic_signal", "name": "traffic_signal", "_source": "OpenStreetMap", "amenity": "traffic_signal", "susceptibility_score": 0.7459, "susceptibility_provenance": "MODELLED"}}, {"type": "Feature", "geometry": {"type": "Point", "coordinates": [72.8581675, 19.060448]}, "properties": {"osm_id": 2897024519, "category": "traffic_signal", "name": "traffic_signal", "_source": "OpenStreetMap", "amenity": "traffic_signal", "susceptibility_score": 0.7396, "susceptibility_provenance": "MODELLED"}}, {"type": "Feature", "geometry": {"type": "Point", "coordinates": [72.8587076, 19.06051]}, "properties": {"osm_id": 2897024523, "category": "traffic_signal", "name": "traffic_signal", "_source": "OpenStreetMap", "amenity": "traffic_signal", "susceptibility_score": 0.7587, "susceptibility_provenance": "MODELLED"}}, {"type": "Feature", "geometry": {"type": "Point", "coordinates": [72.8594183, 19.0625151]}, "properties": {"osm_id": 2897024614, "category": "traffic_signal", "name": "traffic_signal", "_source": "OpenStreetMap", "amenity": "traffic_signal", "susceptibility_score": 0.6792, "susceptibility_provenance": "MODELLED"}}, {"type": "Feature", "geometry": {"type": "Point", "coordinates": [72.8595962, 19.0625283]}, "properties": {"osm_id": 2897024615, "category": "traffic_signal", "name": "traffic_signal", "_source": "OpenStreetMap", "amenity": "traffic_signal", "susceptibility_score": 0.7279, "susceptibility_provenance": "MODELLED"}}, {"type": "Feature", "geometry": {"type": "Point", "coordinates": [72.8597078, 19.0629396]}, "properties": {"osm_id": 2897024628, "category": "traffic_signal", "name": "traffic_signal", "_source": "OpenStreetMap", "amenity": "traffic_signal", "susceptibility_score": 0.695, "susceptibility_provenance": "MODELLED"}}, {"type": "Feature", "geometry": {"type": "Point", "coordinates": [72.8622599, 19.0652128]}, "properties": {"osm_id": 2897024651, "category": "traffic_signal", "name": "traffic_signal", "_source": "OpenStreetMap", "amenity": "traffic_signal", "susceptibility_score": 0.7065, "susceptibility_provenance": "MODELLED"}}, {"type": "Feature", "geometry": {"type": "Point", "coordinates": [72.8620802, 19.0652947]}, "properties": {"osm_id": 2897024656, "category": "traffic_signal", "name": "traffic_signal", "_source": "OpenStreetMap", "amenity": "traffic_signal", "susceptibility_score": 0.7086, "susceptibility_provenance": "MODELLED"}}, {"type": "Feature", "geometry": {"type": "Point", "coordinates": [72.8621463, 19.0653357]}, "properties": {"osm_id": 2897024658, "category": "traffic_signal", "name": "traffic_signal", "_source": "OpenStreetMap", "amenity": "traffic_signal", "susceptibility_score": 0.7065, "susceptibility_provenance": "MODELLED"}}, {"type": "Feature", "geometry": {"type": "Point", "coordinates": [72.8625202, 19.0653744]}, "properties": {"osm_id": 2897024659, "category": "traffic_signal", "name": "traffic_signal", "_source": "OpenStreetMap", "amenity": "traffic_signal", "susceptibility_score": 0.6842, "susceptibility_provenance": "MODELLED"}}, {"type": "Feature", "geometry": {"type": "Point", "coordinates": [72.8653326, 19.0671204]}, "properties": {"osm_id": 2897024737, "category": "traffic_signal", "name": "traffic_signal", "_source": "OpenStreetMap", "amenity": "traffic_signal", "susceptibility_score": 0.7478, "susceptibility_provenance": "MODELLED"}}, {"type": "Feature", "geometry": {"type": "Point", "coordinates": [72.8651975, 19.0672299]}, "properties": {"osm_id": 2897024742, "category": "traffic_signal", "name": "traffic_signal", "_source": "OpenStreetMap", "amenity": "traffic_signal", "susceptibility_score": 0.7478, "susceptibility_provenance": "MODELLED"}}, {"type": "Feature", "geometry": {"type": "Point", "coordinates": [72.8684361, 19.0690471]}, "properties": {"osm_id": 2897024795, "category": "traffic_signal", "name": "traffic_signal", "_source": "OpenStreetMap", "amenity": "traffic_signal", "susceptibility_score": 0.7275, "susceptibility_provenance": "MODELLED"}}, {"type": "Feature", "geometry": {"type": "Point", "coordinates": [72.8683414, 19.0691817]}, "properties": {"osm_id": 2897024798, "category": "traffic_signal", "name": "traffic_signal", "_source": "OpenStreetMap", "amenity": "traffic_signal", "susceptibility_score": 0.7275, "susceptibility_provenance": "MODELLED"}}, {"type": "Feature", "geometry": {"type": "Point", "coordinates": [72.8721745, 19.070981]}, "properties": {"osm_id": 2897024818, "category": "traffic_signal", "name": "traffic_signal", "_source": "OpenStreetMap", "amenity": "traffic_signal", "susceptibility_score": 0.8192, "susceptibility_provenance": "MODELLED"}}, {"type": "Feature", "geometry": {"type": "Point", "coordinates": [72.872119, 19.071135]}, "properties": {"osm_id": 2897024822, "category": "traffic_signal", "name": "traffic_signal", "_source": "OpenStreetMap", "amenity": "traffic_signal", "susceptibility_score": 0.8192, "susceptibility_provenance": "MODELLED"}}, {"type": "Feature", "geometry": {"type": "Point", "coordinates": [72.8709551, 19.0743008]}, "properties": {"osm_id": 2897024861, "category": "traffic_signal", "name": "traffic_signal", "_source": "OpenStreetMap", "amenity": "traffic_signal", "susceptibility_score": 0.7834, "susceptibility_provenance": "MODELLED"}}, {"type": "Feature", "geometry": {"type": "Point", "coordinates": [72.8605998, 19.0744629]}, "properties": {"osm_id": 2897024862, "category": "traffic_signal", "name": "traffic_signal", "_source": "OpenStreetMap", "amenity": "traffic_signal", "susceptibility_score": 0.7206, "susceptibility_provenance": "MODELLED"}}, {"type": "Feature", "geometry": {"type": "Point", "coordinates": [72.8604745, 19.0744731]}, "properties": {"osm_id": 2897024865, "category": "traffic_signal", "name": "traffic_signal", "_source": "OpenStreetMap", "amenity": "traffic_signal", "susceptibility_score": 0.7206, "susceptibility_provenance": "MODELLED"}}, {"type": "Feature", "geometry": {"type": "Point", "coordinates": [72.8924407, 19.0982356]}, "properties": {"osm_id": 3518468316, "category": "school", "name": "THERESA HIGH SCHOOL", "_source": "OpenStreetMap", "amenity": "school", "susceptibility_score": 0.6818, "susceptibility_provenance": "MODELLED"}}, {"type": "Feature", "geometry": {"type": "Point", "coordinates": [72.870696, 19.067664]}, "properties": {"osm_id": 4185780309, "category": "school", "name": "American School of Bombay", "_source": "OpenStreetMap", "amenity": "school", "susceptibility_score": 0.7469, "susceptibility_provenance": "MODELLED"}}, {"type": "Feature", "geometry": {"type": "Point", "coordinates": [72.8945412, 19.0540011]}, "properties": {"osm_id": 4264598303, "category": "traffic_signal", "name": "traffic_signal", "_source": "OpenStreetMap", "amenity": "traffic_signal", "susceptibility_score": 0.693, "susceptibility_provenance": "MODELLED"}}, {"type": "Feature", "geometry": {"type": "Point", "coordinates": [72.8945737, 19.054147]}, "properties": {"osm_id": 4264598304, "category": "traffic_signal", "name": "traffic_signal", "_source": "OpenStreetMap", "amenity": "traffic_signal", "susceptibility_score": 0.6917, "susceptibility_provenance": "MODELLED"}}, {"type": "Feature", "geometry": {"type": "Point", "coordinates": [72.9002916, 19.0685934]}, "properties": {"osm_id": 4264598322, "category": "traffic_signal", "name": "Tilak Nagar Signal", "_source": "OpenStreetMap", "amenity": "traffic_signal", "susceptibility_score": 0.7473, "susceptibility_provenance": "MODELLED"}}, {"type": "Feature", "geometry": {"type": "Point", "coordinates": [72.8961728, 19.0827133]}, "properties": {"osm_id": 4264781384, "category": "traffic_signal", "name": "traffic_signal", "_source": "OpenStreetMap", "amenity": "traffic_signal", "susceptibility_score": 0.7091, "susceptibility_provenance": "MODELLED"}}, {"type": "Feature", "geometry": {"type": "Point", "coordinates": [72.8877852, 19.0950394]}, "properties": {"osm_id": 4326461790, "category": "school", "name": "KPM High School", "_source": "OpenStreetMap", "amenity": "school", "susceptibility_score": 0.6414, "susceptibility_provenance": "MODELLED"}}, {"type": "Feature", "geometry": {"type": "Point", "coordinates": [72.8994182, 19.065918]}, "properties": {"osm_id": 4465528799, "category": "traffic_signal", "name": "traffic_signal", "_source": "OpenStreetMap", "amenity": "traffic_signal", "susceptibility_score": 0.7376, "susceptibility_provenance": "MODELLED"}}, {"type": "Feature", "geometry": {"type": "Point", "coordinates": [72.8993212, 19.0655925]}, "properties": {"osm_id": 5865538270, "category": "traffic_signal", "name": "Amar Mahal Signal", "_source": "OpenStreetMap", "amenity": "traffic_signal", "susceptibility_score": 0.7459, "susceptibility_provenance": "MODELLED"}}, {"type": "Feature", "geometry": {"type": "Point", "coordinates": [72.8994426, 19.065669]}, "properties": {"osm_id": 5865538271, "category": "traffic_signal", "name": "Amar Mahal Signal", "_source": "OpenStreetMap", "amenity": "traffic_signal", "susceptibility_score": 0.7459, "susceptibility_provenance": "MODELLED"}}, {"type": "Feature", "geometry": {"type": "Point", "coordinates": [72.8990917, 19.0650793]}, "properties": {"osm_id": 5865538272, "category": "traffic_signal", "name": "Amar Mahal Signal", "_source": "OpenStreetMap", "amenity": "traffic_signal", "susceptibility_score": 0.7569, "susceptibility_provenance": "MODELLED"}}, {"type": "Feature", "geometry": {"type": "Point", "coordinates": [72.8804755, 19.0798537]}, "properties": {"osm_id": 6435423923, "category": "traffic_signal", "name": "traffic_signal", "_source": "OpenStreetMap", "amenity": "traffic_signal", "susceptibility_score": 0.6971, "susceptibility_provenance": "MODELLED"}}, {"type": "Feature", "geometry": {"type": "Point", "coordinates": [72.8618647, 19.0651609]}, "properties": {"osm_id": 6552594957, "category": "traffic_signal", "name": "traffic_signal", "_source": "OpenStreetMap", "amenity": "traffic_signal", "susceptibility_score": 0.7086, "susceptibility_provenance": "MODELLED"}}, {"type": "Feature", "geometry": {"type": "Point", "coordinates": [72.9005635, 19.0870186]}, "properties": {"osm_id": 6554898021, "category": "traffic_signal", "name": "traffic_signal", "_source": "OpenStreetMap", "amenity": "traffic_signal", "susceptibility_score": 0.5603, "susceptibility_provenance": "MODELLED"}}, {"type": "Feature", "geometry": {"type": "Point", "coordinates": [72.8875106, 19.0565528]}, "properties": {"osm_id": 6571910349, "category": "traffic_signal", "name": "traffic_signal", "_source": "OpenStreetMap", "amenity": "traffic_signal", "susceptibility_score": 0.7155, "susceptibility_provenance": "MODELLED"}}, {"type": "Feature", "geometry": {"type": "Point", "coordinates": [72.8935823, 19.054016]}, "properties": {"osm_id": 6572282657, "category": "traffic_signal", "name": "traffic_signal", "_source": "OpenStreetMap", "amenity": "traffic_signal", "susceptibility_score": 0.6941, "susceptibility_provenance": "MODELLED"}}, {"type": "Feature", "geometry": {"type": "Point", "coordinates": [72.8935828, 19.0542002]}, "properties": {"osm_id": 6572282658, "category": "traffic_signal", "name": "traffic_signal", "_source": "OpenStreetMap", "amenity": "traffic_signal", "susceptibility_score": 0.719, "susceptibility_provenance": "MODELLED"}}, {"type": "Feature", "geometry": {"type": "Point", "coordinates": [72.9004649, 19.052313]}, "properties": {"osm_id": 6573759450, "category": "traffic_signal", "name": "traffic_signal", "_source": "OpenStreetMap", "amenity": "traffic_signal", "susceptibility_score": 0.7223, "susceptibility_provenance": "MODELLED"}}, {"type": "Feature", "geometry": {"type": "Point", "coordinates": [72.9004184, 19.0521395]}, "properties": {"osm_id": 6573759451, "category": "traffic_signal", "name": "traffic_signal", "_source": "OpenStreetMap", "amenity": "traffic_signal", "susceptibility_score": 0.7223, "susceptibility_provenance": "MODELLED"}}, {"type": "Feature", "geometry": {"type": "Point", "coordinates": [72.8867853, 19.0540252]}, "properties": {"osm_id": 6591714705, "category": "traffic_signal", "name": "traffic_signal", "_source": "OpenStreetMap", "amenity": "traffic_signal", "susceptibility_score": 0.7412, "susceptibility_provenance": "MODELLED"}}, {"type": "Feature", "geometry": {"type": "Point", "coordinates": [72.8606101, 19.0743562]}, "properties": {"osm_id": 7366246698, "category": "traffic_signal", "name": "traffic_signal", "_source": "OpenStreetMap", "amenity": "traffic_signal", "susceptibility_score": 0.7206, "susceptibility_provenance": "MODELLED"}}, {"type": "Feature", "geometry": {"type": "Point", "coordinates": [72.8624528, 19.0778083]}, "properties": {"osm_id": 7404711447, "category": "traffic_signal", "name": "traffic_signal", "_source": "OpenStreetMap", "amenity": "traffic_signal", "susceptibility_score": 0.6128, "susceptibility_provenance": "MODELLED"}}, {"type": "Feature", "geometry": {"type": "Point", "coordinates": [72.8791177, 19.0678395]}, "properties": {"osm_id": 7896696885, "category": "school", "name": "Orchids The International School, Kurla", "_source": "OpenStreetMap", "amenity": "school", "susceptibility_score": 0.7275, "susceptibility_provenance": "MODELLED"}}, {"type": "Feature", "geometry": {"type": "Point", "coordinates": [72.855288, 19.0803065]}, "properties": {"osm_id": 8100020840, "category": "school", "name": "St. Charles Girls' High chool, ground", "_source": "OpenStreetMap", "amenity": "school", "susceptibility_score": 0.6857, "susceptibility_provenance": "MODELLED"}}, {"type": "Feature", "geometry": {"type": "Point", "coordinates": [72.8645153, 19.0592719]}, "properties": {"osm_id": 8443498438, "category": "traffic_signal", "name": "traffic_signal", "_source": "OpenStreetMap", "amenity": "traffic_signal", "susceptibility_score": 0.7184, "susceptibility_provenance": "MODELLED"}}, {"type": "Feature", "geometry": {"type": "Point", "coordinates": [72.8648575, 19.0589598]}, "properties": {"osm_id": 8443498445, "category": "traffic_signal", "name": "traffic_signal", "_source": "OpenStreetMap", "amenity": "traffic_signal", "susceptibility_score": 0.7219, "susceptibility_provenance": "MODELLED"}}, {"type": "Feature", "geometry": {"type": "Point", "coordinates": [72.8730928, 19.0621103]}, "properties": {"osm_id": 9198978888, "category": "traffic_signal", "name": "traffic_signal", "_source": "OpenStreetMap", "amenity": "traffic_signal", "susceptibility_score": 0.7541, "susceptibility_provenance": "MODELLED"}}, {"type": "Feature", "geometry": {"type": "Point", "coordinates": [72.8977987, 19.0946704]}, "properties": {"osm_id": 9884668038, "category": "traffic_signal", "name": "traffic_signal", "_source": "OpenStreetMap", "amenity": "traffic_signal", "susceptibility_score": 0.7092, "susceptibility_provenance": "MODELLED"}}, {"type": "Feature", "geometry": {"type": "Point", "coordinates": [72.8977259, 19.0945484]}, "properties": {"osm_id": 9884668039, "category": "traffic_signal", "name": "traffic_signal", "_source": "OpenStreetMap", "amenity": "traffic_signal", "susceptibility_score": 0.5743, "susceptibility_provenance": "MODELLED"}}, {"type": "Feature", "geometry": {"type": "Point", "coordinates": [72.8578863, 19.06052]}, "properties": {"osm_id": 10091403659, "category": "traffic_signal", "name": "traffic_signal", "_source": "OpenStreetMap", "amenity": "traffic_signal", "susceptibility_score": 0.6839, "susceptibility_provenance": "MODELLED"}}, {"type": "Feature", "geometry": {"type": "Point", "coordinates": [72.9006787, 19.0620934]}, "properties": {"osm_id": 10151560371, "category": "traffic_signal", "name": "traffic_signal", "_source": "OpenStreetMap", "amenity": "traffic_signal", "susceptibility_score": 0.7051, "susceptibility_provenance": "MODELLED"}}, {"type": "Feature", "geometry": {"type": "Point", "coordinates": [72.8894926, 19.0539557]}, "properties": {"osm_id": 10207346710, "category": "traffic_signal", "name": "traffic_signal", "_source": "OpenStreetMap", "amenity": "traffic_signal", "susceptibility_score": 0.7112, "susceptibility_provenance": "MODELLED"}}, {"type": "Feature", "geometry": {"type": "Point", "coordinates": [72.8893941, 19.0540892]}, "properties": {"osm_id": 10207346711, "category": "traffic_signal", "name": "traffic_signal", "_source": "OpenStreetMap", "amenity": "traffic_signal", "susceptibility_score": 0.6962, "susceptibility_provenance": "MODELLED"}}, {"type": "Feature", "geometry": {"type": "Point", "coordinates": [72.887368, 19.056974]}, "properties": {"osm_id": 10207397917, "category": "traffic_signal", "name": "traffic_signal", "_source": "OpenStreetMap", "amenity": "traffic_signal", "susceptibility_score": 0.7088, "susceptibility_provenance": "MODELLED"}}, {"type": "Feature", "geometry": {"type": "Point", "coordinates": [72.8834939, 19.0620616]}, "properties": {"osm_id": 10207397928, "category": "traffic_signal", "name": "traffic_signal", "_source": "OpenStreetMap", "amenity": "traffic_signal", "susceptibility_score": 0.7546, "susceptibility_provenance": "MODELLED"}}, {"type": "Feature", "geometry": {"type": "Point", "coordinates": [72.8832991, 19.062169]}, "properties": {"osm_id": 10264297687, "category": "traffic_signal", "name": "traffic_signal", "_source": "OpenStreetMap", "amenity": "traffic_signal", "susceptibility_score": 0.7417, "susceptibility_provenance": "MODELLED"}}, {"type": "Feature", "geometry": {"type": "Point", "coordinates": [72.8833646, 19.0622103]}, "properties": {"osm_id": 10264297688, "category": "traffic_signal", "name": "traffic_signal", "_source": "OpenStreetMap", "amenity": "traffic_signal", "susceptibility_score": 0.7417, "susceptibility_provenance": "MODELLED"}}, {"type": "Feature", "geometry": {"type": "Point", "coordinates": [72.8834101, 19.0621588]}, "properties": {"osm_id": 10264297689, "category": "traffic_signal", "name": "traffic_signal", "_source": "OpenStreetMap", "amenity": "traffic_signal", "susceptibility_score": 0.7417, "susceptibility_provenance": "MODELLED"}}, {"type": "Feature", "geometry": {"type": "Point", "coordinates": [72.8859595, 19.0586924]}, "properties": {"osm_id": 10279771641, "category": "traffic_signal", "name": "traffic_signal", "_source": "OpenStreetMap", "amenity": "traffic_signal", "susceptibility_score": 0.7303, "susceptibility_provenance": "MODELLED"}}, {"type": "Feature", "geometry": {"type": "Point", "coordinates": [72.8876202, 19.0566401]}, "properties": {"osm_id": 10279771680, "category": "traffic_signal", "name": "traffic_signal", "_source": "OpenStreetMap", "amenity": "traffic_signal", "susceptibility_score": 0.7155, "susceptibility_provenance": "MODELLED"}}, {"type": "Feature", "geometry": {"type": "Point", "coordinates": [72.8996224, 19.0525858]}, "properties": {"osm_id": 10279809028, "category": "traffic_signal", "name": "traffic_signal", "_source": "OpenStreetMap", "amenity": "traffic_signal", "susceptibility_score": 0.731, "susceptibility_provenance": "MODELLED"}}, {"type": "Feature", "geometry": {"type": "Point", "coordinates": [72.8830981, 19.0537351]}, "properties": {"osm_id": 10749931590, "category": "traffic_signal", "name": "traffic_signal", "_source": "OpenStreetMap", "amenity": "traffic_signal", "susceptibility_score": 0.7844, "susceptibility_provenance": "MODELLED"}}, {"type": "Feature", "geometry": {"type": "Point", "coordinates": [72.885972, 19.0588664]}, "properties": {"osm_id": 10750564862, "category": "traffic_signal", "name": "traffic_signal", "_source": "OpenStreetMap", "amenity": "traffic_signal", "susceptibility_score": 0.721, "susceptibility_provenance": "MODELLED"}}, {"type": "Feature", "geometry": {"type": "Point", "coordinates": [72.8860273, 19.0587707]}, "properties": {"osm_id": 10750564863, "category": "traffic_signal", "name": "traffic_signal", "_source": "OpenStreetMap", "amenity": "traffic_signal", "susceptibility_score": 0.612, "susceptibility_provenance": "MODELLED"}}, {"type": "Feature", "geometry": {"type": "Point", "coordinates": [72.854931, 19.0594869]}, "properties": {"osm_id": 10770664995, "category": "traffic_signal", "name": "traffic_signal", "_source": "OpenStreetMap", "amenity": "traffic_signal", "susceptibility_score": 0.7225, "susceptibility_provenance": "MODELLED"}}, {"type": "Feature", "geometry": {"type": "Point", "coordinates": [72.8732002, 19.0620644]}, "properties": {"osm_id": 10770705519, "category": "traffic_signal", "name": "traffic_signal", "_source": "OpenStreetMap", "amenity": "traffic_signal", "susceptibility_score": 0.7658, "susceptibility_provenance": "MODELLED"}}, {"type": "Feature", "geometry": {"type": "Point", "coordinates": [72.8802079, 19.0797211]}, "properties": {"osm_id": 10770722930, "category": "traffic_signal", "name": "traffic_signal", "_source": "OpenStreetMap", "amenity": "traffic_signal", "susceptibility_score": 0.8053, "susceptibility_provenance": "MODELLED"}}, {"type": "Feature", "geometry": {"type": "Point", "coordinates": [72.8961844, 19.0826227]}, "properties": {"osm_id": 10936517722, "category": "traffic_signal", "name": "traffic_signal", "_source": "OpenStreetMap", "amenity": "traffic_signal", "susceptibility_score": 0.657, "susceptibility_provenance": "MODELLED"}}, {"type": "Feature", "geometry": {"type": "Point", "coordinates": [72.8550205, 19.0593761]}, "properties": {"osm_id": 11271653058, "category": "traffic_signal", "name": "traffic_signal", "_source": "OpenStreetMap", "amenity": "traffic_signal", "susceptibility_score": 0.7225, "susceptibility_provenance": "MODELLED"}}, {"type": "Feature", "geometry": {"type": "Point", "coordinates": [72.8962922, 19.0827366]}, "properties": {"osm_id": 11400791206, "category": "traffic_signal", "name": "traffic_signal", "_source": "OpenStreetMap", "amenity": "traffic_signal", "susceptibility_score": 0.7053, "susceptibility_provenance": "MODELLED"}}, {"type": "Feature", "geometry": {"type": "Point", "coordinates": [72.8962988, 19.0826543]}, "properties": {"osm_id": 11400791208, "category": "traffic_signal", "name": "traffic_signal", "_source": "OpenStreetMap", "amenity": "traffic_signal", "susceptibility_score": 0.7053, "susceptibility_provenance": "MODELLED"}}, {"type": "Feature", "geometry": {"type": "Point", "coordinates": [72.8594359, 19.0625754]}, "properties": {"osm_id": 12079741513, "category": "traffic_signal", "name": "traffic_signal", "_source": "OpenStreetMap", "amenity": "traffic_signal", "susceptibility_score": 0.6792, "susceptibility_provenance": "MODELLED"}}, {"type": "Feature", "geometry": {"type": "Point", "coordinates": [72.8586331, 19.0606606]}, "properties": {"osm_id": 13619939784, "category": "traffic_signal", "name": "traffic_signal", "_source": "OpenStreetMap", "amenity": "traffic_signal", "susceptibility_score": 0.7587, "susceptibility_provenance": "MODELLED"}}]}