{"type": "FeatureCollection", "features": [{"type": "Feature", "geometry": {"type": "LineString", "coordinates": [[72.8502510067114, 19.035763087248323], [72.84998255033557, 19.036031543624162]]}, "properties": {"edge_id": 0, "from_node": 0, "to_node": 1, "direction_provenance": "INFERRED (D8 steepest-descent on real Copernicus DEM GLO-30)", "flow_accumulation_cells": 12, "flow_accumulation_provenance": "INFERRED", "length_m": 41.08, "capacity_m3s": 0.15, "capacity_provenance": "ESTIMATED"}}, {"type": "Feature", "geometry": {"type": "LineString", "coordinates": [[72.85186174496644, 19.03415234899329], [72.85186174496644, 19.03388389261745]]}, "properties": {"edge_id": 1, "from_node": 2, "to_node": 3, "direction_provenance": "INFERRED (D8 steepest-descent on real Copernicus DEM GLO-30)", "flow_accumulation_cells": 10, "flow_accumulation_provenance": "INFERRED", "length_m": 29.85, "capacity_m3s": 0.125, "capacity_provenance": "ESTIMATED"}}, {"type": "Feature", "geometry": {"type": "LineString", "coordinates": [[72.85078791946309, 19.033346979865772], [72.85105637583892, 19.033346979865772]]}, "properties": {"edge_id": 2, "from_node": 4, "to_node": 5, "direction_provenance": "INFERRED (D8 steepest-descent on real Copernicus DEM GLO-30)", "flow_accumulation_cells": 10, "flow_accumulation_provenance": "INFERRED", "length_m": 28.22, "capacity_m3s": 0.125, "capacity_provenance": "ESTIMATED"}}, {"type": "Feature", "geometry": {"type": "LineString", "coordinates": [[72.85105637583892, 19.033346979865772], [72.85132483221476, 19.033346979865772]]}, "properties": {"edge_id": 3, "from_node": 5, "to_node": 6, "direction_provenance": "INFERRED (D8 steepest-descent on real Copernicus DEM GLO-30)", "flow_accumulation_cells": 14, "flow_accumulation_provenance": "INFERRED", "length_m": 28.22, "capacity_m3s": 0.175, "capacity_provenance": "ESTIMATED"}}, {"type": "Feature", "geometry": {"type": "LineString", "coordinates": [[72.84917718120805, 19.033078523489934], [72.84890872483221, 19.033078523489934]]}, "properties": {"edge_id": 4, "from_node": 7, "to_node": 8, "direction_provenance": "INFERRED (D8 steepest-descent on real Copernicus DEM GLO-30)", "flow_accumulation_cells": 10, "flow_accumulation_provenance": "INFERRED", "length_m": 28.22, "capacity_m3s": 0.125, "capacity_provenance": "ESTIMATED"}}, {"type": "Feature", "geometry": {"type": "LineString", "coordinates": [[72.84729798657717, 19.0314677852349], [72.84756644295302, 19.03119932885906]]}, "properties": {"edge_id": 5, "from_node": 9, "to_node": 10, "direction_provenance": "INFERRED (D8 steepest-descent on real Copernicus DEM GLO-30)", "flow_accumulation_cells": 10, "flow_accumulation_provenance": "INFERRED", "length_m": 41.08, "capacity_m3s": 0.125, "capacity_provenance": "ESTIMATED"}}, {"type": "Feature", "geometry": {"type": "LineString", "coordinates": [[72.8467610738255, 19.030393959731544], [72.84702953020134, 19.030393959731544]]}, "properties": {"edge_id": 6, "from_node": 11, "to_node": 12, "direction_provenance": "INFERRED (D8 steepest-descent on real Copernicus DEM GLO-30)", "flow_accumulation_cells": 12, "flow_accumulation_provenance": "INFERRED", "length_m": 28.22, "capacity_m3s": 0.15, "capacity_provenance": "ESTIMATED"}}, {"type": "Feature", "geometry": {"type": "LineString", "coordinates": [[72.84702953020134, 19.030393959731544], [72.84729798657717, 19.030393959731544]]}, "properties": {"edge_id": 7, "from_node": 12, "to_node": 13, "direction_provenance": "INFERRED (D8 steepest-descent on real Copernicus DEM GLO-30)", "flow_accumulation_cells": 15, "flow_accumulation_provenance": "INFERRED", "length_m": 28.22, "capacity_m3s": 0.1875, "capacity_provenance": "ESTIMATED"}}, {"type": "Feature", "geometry": {"type": "LineString", "coordinates": [[72.83629127516778, 19.027977852348993], [72.83602281879195, 19.027977852348993]]}, "properties": {"edge_id": 8, "from_node": 14, "to_node": 15, "direction_provenance": "INFERRED (D8 steepest-descent on real Copernicus DEM GLO-30)", "flow_accumulation_cells": 14, "flow_accumulation_provenance": "INFERRED", "length_m": 28.22, "capacity_m3s": 0.175, "capacity_provenance": "ESTIMATED"}}, {"type": "Feature", "geometry": {"type": "LineString", "coordinates": [[72.86072080536913, 19.027440939597316], [72.86098926174496, 19.027172483221477]]}, "properties": {"edge_id": 9, "from_node": 16, "to_node": 17, "direction_provenance": "INFERRED (D8 steepest-descent on real Copernicus DEM GLO-30)", "flow_accumulation_cells": 12, "flow_accumulation_provenance": "INFERRED", "length_m": 41.08, "capacity_m3s": 0.15, "capacity_provenance": "ESTIMATED"}}, {"type": "Feature", "geometry": {"type": "LineString", "coordinates": [[72.86098926174496, 19.027172483221477], [72.86125771812081, 19.027172483221477]]}, "properties": {"edge_id": 10, "from_node": 17, "to_node": 18, "direction_provenance": "INFERRED (D8 steepest-descent on real Copernicus DEM GLO-30)", "flow_accumulation_cells": 17, "flow_accumulation_provenance": "INFERRED", "length_m": 28.22, "capacity_m3s": 0.2125, "capacity_provenance": "ESTIMATED"}}, {"type": "Feature", "geometry": {"type": "LineString", "coordinates": [[72.84971409395973, 19.025830201342284], [72.8494456375839, 19.025830201342284]]}, "properties": {"edge_id": 11, "from_node": 19, "to_node": 20, "direction_provenance": "INFERRED (D8 steepest-descent on real Copernicus DEM GLO-30)", "flow_accumulation_cells": 13, "flow_accumulation_provenance": "INFERRED", "length_m": 28.22, "capacity_m3s": 0.1625, "capacity_provenance": "ESTIMATED"}}, {"type": "Feature", "geometry": {"type": "LineString", "coordinates": [[72.83387516778524, 19.025024832214765], [72.83360671140939, 19.025024832214765]]}, "properties": {"edge_id": 12, "from_node": 21, "to_node": 22, "direction_provenance": "INFERRED (D8 steepest-descent on real Copernicus DEM GLO-30)", "flow_accumulation_cells": 14, "flow_accumulation_provenance": "INFERRED", "length_m": 28.22, "capacity_m3s": 0.175, "capacity_provenance": "ESTIMATED"}}, {"type": "Feature", "geometry": {"type": "LineString", "coordinates": [[72.85374093959732, 19.025024832214765], [72.85347248322148, 19.025024832214765]]}, "properties": {"edge_id": 13, "from_node": 23, "to_node": 24, "direction_provenance": "INFERRED (D8 steepest-descent on real Copernicus DEM GLO-30)", "flow_accumulation_cells": 10, "flow_accumulation_provenance": "INFERRED", "length_m": 28.22, "capacity_m3s": 0.125, "capacity_provenance": "ESTIMATED"}}, {"type": "Feature", "geometry": {"type": "LineString", "coordinates": [[72.83414362416107, 19.024756375838926], [72.83387516778524, 19.025024832214765]]}, "properties": {"edge_id": 14, "from_node": 25, "to_node": 21, "direction_provenance": "INFERRED (D8 steepest-descent on real Copernicus DEM GLO-30)", "flow_accumulation_cells": 13, "flow_accumulation_provenance": "INFERRED", "length_m": 41.08, "capacity_m3s": 0.1625, "capacity_provenance": "ESTIMATED"}}, {"type": "Feature", "geometry": {"type": "LineString", "coordinates": [[72.85535167785235, 19.024487919463088], [72.85562013422819, 19.024487919463088]]}, "properties": {"edge_id": 15, "from_node": 26, "to_node": 27, "direction_provenance": "INFERRED (D8 steepest-descent on real Copernicus DEM GLO-30)", "flow_accumulation_cells": 11, "flow_accumulation_provenance": "INFERRED", "length_m": 28.22, "capacity_m3s": 0.1375, "capacity_provenance": "ESTIMATED"}}, {"type": "Feature", "geometry": {"type": "LineString", "coordinates": [[72.85562013422819, 19.024487919463088], [72.85562013422819, 19.024756375838926]]}, "properties": {"edge_id": 16, "from_node": 27, "to_node": 28, "direction_provenance": "INFERRED (D8 steepest-descent on real Copernicus DEM GLO-30)", "flow_accumulation_cells": 17, "flow_accumulation_provenance": "INFERRED", "length_m": 29.85, "capacity_m3s": 0.2125, "capacity_provenance": "ESTIMATED"}}, {"type": "Feature", "geometry": {"type": "LineString", "coordinates": [[72.85186174496644, 19.02421946308725], [72.85213020134228, 19.02395100671141]]}, "properties": {"edge_id": 17, "from_node": 29, "to_node": 30, "direction_provenance": "INFERRED (D8 steepest-descent on real Copernicus DEM GLO-30)", "flow_accumulation_cells": 15, "flow_accumulation_provenance": "INFERRED", "length_m": 41.08, "capacity_m3s": 0.1875, "capacity_provenance": "ESTIMATED"}}, {"type": "Feature", "geometry": {"type": "LineString", "coordinates": [[72.8550832214765, 19.02421946308725], [72.85535167785235, 19.024487919463088]]}, "properties": {"edge_id": 18, "from_node": 31, "to_node": 26, "direction_provenance": "INFERRED (D8 steepest-descent on real Copernicus DEM GLO-30)", "flow_accumulation_cells": 10, "flow_accumulation_provenance": "INFERRED", "length_m": 41.08, "capacity_m3s": 0.125, "capacity_provenance": "ESTIMATED"}}, {"type": "Feature", "geometry": {"type": "LineString", "coordinates": [[72.85857315436242, 19.02395100671141], [72.85884161073825, 19.02395100671141]]}, "properties": {"edge_id": 19, "from_node": 32, "to_node": 33, "direction_provenance": "INFERRED (D8 steepest-descent on real Copernicus DEM GLO-30)", "flow_accumulation_cells": 12, "flow_accumulation_provenance": "INFERRED", "length_m": 28.22, "capacity_m3s": 0.15, "capacity_provenance": "ESTIMATED"}}, {"type": "Feature", "geometry": {"type": "LineString", "coordinates": [[72.85320402684563, 19.02368255033557], [72.8529355704698, 19.02368255033557]]}, "properties": {"edge_id": 20, "from_node": 34, "to_node": 35, "direction_provenance": "INFERRED (D8 steepest-descent on real Copernicus DEM GLO-30)", "flow_accumulation_cells": 10, "flow_accumulation_provenance": "INFERRED", "length_m": 28.22, "capacity_m3s": 0.125, "capacity_provenance": "ESTIMATED"}}, {"type": "Feature", "geometry": {"type": "LineString", "coordinates": [[72.84864026845638, 19.023145637583895], [72.84864026845638, 19.023414093959733]]}, "properties": {"edge_id": 21, "from_node": 36, "to_node": 37, "direction_provenance": "INFERRED (D8 steepest-descent on real Copernicus DEM GLO-30)", "flow_accumulation_cells": 18, "flow_accumulation_provenance": "INFERRED", "length_m": 29.85, "capacity_m3s": 0.225, "capacity_provenance": "ESTIMATED"}}, {"type": "Feature", "geometry": {"type": "LineString", "coordinates": [[72.84864026845638, 19.022877181208056], [72.84864026845638, 19.023145637583895]]}, "properties": {"edge_id": 22, "from_node": 38, "to_node": 36, "direction_provenance": "INFERRED (D8 steepest-descent on real Copernicus DEM GLO-30)", "flow_accumulation_cells": 15, "flow_accumulation_provenance": "INFERRED", "length_m": 29.85, "capacity_m3s": 0.1875, "capacity_provenance": "ESTIMATED"}}, {"type": "Feature", "geometry": {"type": "LineString", "coordinates": [[72.84864026845638, 19.022608724832217], [72.84864026845638, 19.022877181208056]]}, "properties": {"edge_id": 23, "from_node": 39, "to_node": 38, "direction_provenance": "INFERRED (D8 steepest-descent on real Copernicus DEM GLO-30)", "flow_accumulation_cells": 11, "flow_accumulation_provenance": "INFERRED", "length_m": 29.85, "capacity_m3s": 0.1375, "capacity_provenance": "ESTIMATED"}}, {"type": "Feature", "geometry": {"type": "LineString", "coordinates": [[72.85320402684563, 19.022608724832217], [72.8529355704698, 19.022877181208056]]}, "properties": {"edge_id": 24, "from_node": 40, "to_node": 41, "direction_provenance": "INFERRED (D8 steepest-descent on real Copernicus DEM GLO-30)", "flow_accumulation_cells": 11, "flow_accumulation_provenance": "INFERRED", "length_m": 41.08, "capacity_m3s": 0.1375, "capacity_provenance": "ESTIMATED"}}, {"type": "Feature", "geometry": {"type": "LineString", "coordinates": [[72.85830469798658, 19.022071812080537], [72.85830469798658, 19.022340268456375]]}, "properties": {"edge_id": 25, "from_node": 42, "to_node": 43, "direction_provenance": "INFERRED (D8 steepest-descent on real Copernicus DEM GLO-30)", "flow_accumulation_cells": 12, "flow_accumulation_provenance": "INFERRED", "length_m": 29.85, "capacity_m3s": 0.15, "capacity_provenance": "ESTIMATED"}}, {"type": "Feature", "geometry": {"type": "LineString", "coordinates": [[72.85803624161073, 19.021803355704698], [72.85830469798658, 19.022071812080537]]}, "properties": {"edge_id": 26, "from_node": 44, "to_node": 42, "direction_provenance": "INFERRED (D8 steepest-descent on real Copernicus DEM GLO-30)", "flow_accumulation_cells": 10, "flow_accumulation_provenance": "INFERRED", "length_m": 41.08, "capacity_m3s": 0.125, "capacity_provenance": "ESTIMATED"}}, {"type": "Feature", "geometry": {"type": "LineString", "coordinates": [[72.8467610738255, 19.02126644295302], [72.84649261744966, 19.02126644295302]]}, "properties": {"edge_id": 27, "from_node": 45, "to_node": 46, "direction_provenance": "INFERRED (D8 steepest-descent on real Copernicus DEM GLO-30)", "flow_accumulation_cells": 19, "flow_accumulation_provenance": "INFERRED", "length_m": 28.22, "capacity_m3s": 0.2375, "capacity_provenance": "ESTIMATED"}}, {"type": "Feature", "geometry": {"type": "LineString", "coordinates": [[72.84702953020134, 19.020997986577182], [72.8467610738255, 19.02126644295302]]}, "properties": {"edge_id": 28, "from_node": 47, "to_node": 45, "direction_provenance": "INFERRED (D8 steepest-descent on real Copernicus DEM GLO-30)", "flow_accumulation_cells": 18, "flow_accumulation_provenance": "INFERRED", "length_m": 41.08, "capacity_m3s": 0.225, "capacity_provenance": "ESTIMATED"}}, {"type": "Feature", "geometry": {"type": "LineString", "coordinates": [[72.85427785234899, 19.020997986577182], [72.85400939597315, 19.020729530201343]]}, "properties": {"edge_id": 29, "from_node": 48, "to_node": 49, "direction_provenance": "INFERRED (D8 steepest-descent on real Copernicus DEM GLO-30)", "flow_accumulation_cells": 10, "flow_accumulation_provenance": "INFERRED", "length_m": 41.08, "capacity_m3s": 0.125, "capacity_provenance": "ESTIMATED"}}, {"type": "Feature", "geometry": {"type": "LineString", "coordinates": [[72.8357543624161, 19.020729530201343], [72.83602281879195, 19.020729530201343]]}, "properties": {"edge_id": 30, "from_node": 50, "to_node": 51, "direction_provenance": "INFERRED (D8 steepest-descent on real Copernicus DEM GLO-30)", "flow_accumulation_cells": 14, "flow_accumulation_provenance": "INFERRED", "length_m": 28.22, "capacity_m3s": 0.175, "capacity_provenance": "ESTIMATED"}}, {"type": "Feature", "geometry": {"type": "LineString", "coordinates": [[72.83602281879195, 19.020729530201343], [72.83629127516778, 19.020729530201343]]}, "properties": {"edge_id": 31, "from_node": 51, "to_node": 52, "direction_provenance": "INFERRED (D8 steepest-descent on real Copernicus DEM GLO-30)", "flow_accumulation_cells": 15, "flow_accumulation_provenance": "INFERRED", "length_m": 28.22, "capacity_m3s": 0.1875, "capacity_provenance": "ESTIMATED"}}, {"type": "Feature", "geometry": {"type": "LineString", "coordinates": [[72.84729798657717, 19.020729530201343], [72.84702953020134, 19.020997986577182]]}, "properties": {"edge_id": 32, "from_node": 53, "to_node": 47, "direction_provenance": "INFERRED (D8 steepest-descent on real Copernicus DEM GLO-30)", "flow_accumulation_cells": 14, "flow_accumulation_provenance": "INFERRED", "length_m": 41.08, "capacity_m3s": 0.175, "capacity_provenance": "ESTIMATED"}}, {"type": "Feature", "geometry": {"type": "LineString", "coordinates": [[72.84756644295302, 19.020729530201343], [72.84729798657717, 19.020729530201343]]}, "properties": {"edge_id": 33, "from_node": 54, "to_node": 53, "direction_provenance": "INFERRED (D8 steepest-descent on real Copernicus DEM GLO-30)", "flow_accumulation_cells": 10, "flow_accumulation_provenance": "INFERRED", "length_m": 28.22, "capacity_m3s": 0.125, "capacity_provenance": "ESTIMATED"}}, {"type": "Feature", "geometry": {"type": "LineString", "coordinates": [[72.85400939597315, 19.020729530201343], [72.85400939597315, 19.020461073825505]]}, "properties": {"edge_id": 34, "from_node": 49, "to_node": 55, "direction_provenance": "INFERRED (D8 steepest-descent on real Copernicus DEM GLO-30)", "flow_accumulation_cells": 12, "flow_accumulation_provenance": "INFERRED", "length_m": 29.85, "capacity_m3s": 0.15, "capacity_provenance": "ESTIMATED"}}, {"type": "Feature", "geometry": {"type": "LineString", "coordinates": [[72.85105637583892, 19.020461073825505], [72.85078791946309, 19.020729530201343]]}, "properties": {"edge_id": 35, "from_node": 56, "to_node": 57, "direction_provenance": "INFERRED (D8 steepest-descent on real Copernicus DEM GLO-30)", "flow_accumulation_cells": 11, "flow_accumulation_provenance": "INFERRED", "length_m": 41.08, "capacity_m3s": 0.1375, "capacity_provenance": "ESTIMATED"}}, {"type": "Feature", "geometry": {"type": "LineString", "coordinates": [[72.85803624161073, 19.020192617449666], [72.85830469798658, 19.020192617449666]]}, "properties": {"edge_id": 36, "from_node": 58, "to_node": 59, "direction_provenance": "INFERRED (D8 steepest-descent on real Copernicus DEM GLO-30)", "flow_accumulation_cells": 11, "flow_accumulation_provenance": "INFERRED", "length_m": 28.22, "capacity_m3s": 0.1375, "capacity_provenance": "ESTIMATED"}}, {"type": "Feature", "geometry": {"type": "LineString", "coordinates": [[72.85830469798658, 19.020192617449666], [72.85857315436242, 19.020192617449666]]}, "properties": {"edge_id": 37, "from_node": 59, "to_node": 60, "direction_provenance": "INFERRED (D8 steepest-descent on real Copernicus DEM GLO-30)", "flow_accumulation_cells": 14, "flow_accumulation_provenance": "INFERRED", "length_m": 28.22, "capacity_m3s": 0.175, "capacity_provenance": "ESTIMATED"}}, {"type": "Feature", "geometry": {"type": "LineString", "coordinates": [[72.85857315436242, 19.020192617449666], [72.85884161073825, 19.019924161073828]]}, "properties": {"edge_id": 38, "from_node": 60, "to_node": 61, "direction_provenance": "INFERRED (D8 steepest-descent on real Copernicus DEM GLO-30)", "flow_accumulation_cells": 22, "flow_accumulation_provenance": "INFERRED", "length_m": 41.08, "capacity_m3s": 0.275, "capacity_provenance": "ESTIMATED"}}, {"type": "Feature", "geometry": {"type": "LineString", "coordinates": [[72.84837181208053, 19.01965570469799], [72.84864026845638, 19.01965570469799]]}, "properties": {"edge_id": 39, "from_node": 62, "to_node": 63, "direction_provenance": "INFERRED (D8 steepest-descent on real Copernicus DEM GLO-30)", "flow_accumulation_cells": 11, "flow_accumulation_provenance": "INFERRED", "length_m": 28.22, "capacity_m3s": 0.1375, "capacity_provenance": "ESTIMATED"}}, {"type": "Feature", "geometry": {"type": "LineString", "coordinates": [[72.84864026845638, 19.01965570469799], [72.84890872483221, 19.01965570469799]]}, "properties": {"edge_id": 40, "from_node": 63, "to_node": 64, "direction_provenance": "INFERRED (D8 steepest-descent on real Copernicus DEM GLO-30)", "flow_accumulation_cells": 13, "flow_accumulation_provenance": "INFERRED", "length_m": 28.22, "capacity_m3s": 0.1625, "capacity_provenance": "ESTIMATED"}}, {"type": "Feature", "geometry": {"type": "LineString", "coordinates": [[72.86152617449665, 19.01965570469799], [72.86152617449665, 19.01938724832215]]}, "properties": {"edge_id": 41, "from_node": 65, "to_node": 66, "direction_provenance": "INFERRED (D8 steepest-descent on real Copernicus DEM GLO-30)", "flow_accumulation_cells": 12, "flow_accumulation_provenance": "INFERRED", "length_m": 29.85, "capacity_m3s": 0.15, "capacity_provenance": "ESTIMATED"}}, {"type": "Feature", "geometry": {"type": "LineString", "coordinates": [[72.86179463087248, 19.01965570469799], [72.86152617449665, 19.01965570469799]]}, "properties": {"edge_id": 42, "from_node": 67, "to_node": 65, "direction_provenance": "INFERRED (D8 steepest-descent on real Copernicus DEM GLO-30)", "flow_accumulation_cells": 11, "flow_accumulation_provenance": "INFERRED", "length_m": 28.22, "capacity_m3s": 0.1375, "capacity_provenance": "ESTIMATED"}}, {"type": "Feature", "geometry": {"type": "LineString", "coordinates": [[72.86206308724832, 19.01965570469799], [72.86179463087248, 19.01965570469799]]}, "properties": {"edge_id": 43, "from_node": 68, "to_node": 67, "direction_provenance": "INFERRED (D8 steepest-descent on real Copernicus DEM GLO-30)", "flow_accumulation_cells": 10, "flow_accumulation_provenance": "INFERRED", "length_m": 28.22, "capacity_m3s": 0.125, "capacity_provenance": "ESTIMATED"}}, {"type": "Feature", "geometry": {"type": "LineString", "coordinates": [[72.85723087248321, 19.01938724832215], [72.85749932885906, 19.01938724832215]]}, "properties": {"edge_id": 44, "from_node": 69, "to_node": 70, "direction_provenance": "INFERRED (D8 steepest-descent on real Copernicus DEM GLO-30)", "flow_accumulation_cells": 14, "flow_accumulation_provenance": "INFERRED", "length_m": 28.22, "capacity_m3s": 0.175, "capacity_provenance": "ESTIMATED"}}, {"type": "Feature", "geometry": {"type": "LineString", "coordinates": [[72.8494456375839, 19.01885033557047], [72.84917718120805, 19.01885033557047]]}, "properties": {"edge_id": 45, "from_node": 71, "to_node": 72, "direction_provenance": "INFERRED (D8 steepest-descent on real Copernicus DEM GLO-30)", "flow_accumulation_cells": 12, "flow_accumulation_provenance": "INFERRED", "length_m": 28.22, "capacity_m3s": 0.15, "capacity_provenance": "ESTIMATED"}}, {"type": "Feature", "geometry": {"type": "LineString", "coordinates": [[72.84971409395973, 19.01885033557047], [72.8494456375839, 19.01885033557047]]}, "properties": {"edge_id": 46, "from_node": 73, "to_node": 71, "direction_provenance": "INFERRED (D8 steepest-descent on real Copernicus DEM GLO-30)", "flow_accumulation_cells": 10, "flow_accumulation_provenance": "INFERRED", "length_m": 28.22, "capacity_m3s": 0.125, "capacity_provenance": "ESTIMATED"}}, {"type": "Feature", "geometry": {"type": "LineString", "coordinates": [[72.8529355704698, 19.017508053691277], [72.85320402684563, 19.017239597315438]]}, "properties": {"edge_id": 47, "from_node": 74, "to_node": 75, "direction_provenance": "INFERRED (D8 steepest-descent on real Copernicus DEM GLO-30)", "flow_accumulation_cells": 10, "flow_accumulation_provenance": "INFERRED", "length_m": 41.08, "capacity_m3s": 0.125, "capacity_provenance": "ESTIMATED"}}, {"type": "Feature", "geometry": {"type": "LineString", "coordinates": [[72.85320402684563, 19.017239597315438], [72.85320402684563, 19.0169711409396]]}, "properties": {"edge_id": 48, "from_node": 75, "to_node": 76, "direction_provenance": "INFERRED (D8 steepest-descent on real Copernicus DEM GLO-30)", "flow_accumulation_cells": 12, "flow_accumulation_provenance": "INFERRED", "length_m": 29.85, "capacity_m3s": 0.15, "capacity_provenance": "ESTIMATED"}}, {"type": "Feature", "geometry": {"type": "LineString", "coordinates": [[72.84622416107382, 19.01670268456376], [72.84649261744966, 19.016434228187922]]}, "properties": {"edge_id": 49, "from_node": 77, "to_node": 78, "direction_provenance": "INFERRED (D8 steepest-descent on real Copernicus DEM GLO-30)", "flow_accumulation_cells": 12, "flow_accumulation_provenance": "INFERRED", "length_m": 41.08, "capacity_m3s": 0.15, "capacity_provenance": "ESTIMATED"}}, {"type": "Feature", "geometry": {"type": "LineString", "coordinates": [[72.82313691275168, 19.012407382550336], [72.82286845637583, 19.012138926174497]]}, "properties": {"edge_id": 50, "from_node": 79, "to_node": 80, "direction_provenance": "INFERRED (D8 steepest-descent on real Copernicus DEM GLO-30)", "flow_accumulation_cells": 11, "flow_accumulation_provenance": "INFERRED", "length_m": 41.08, "capacity_m3s": 0.1375, "capacity_provenance": "ESTIMATED"}}, {"type": "Feature", "geometry": {"type": "LineString", "coordinates": [[72.82286845637583, 19.012138926174497], [72.82286845637583, 19.01187046979866]]}, "properties": {"edge_id": 51, "from_node": 80, "to_node": 81, "direction_provenance": "INFERRED (D8 steepest-descent on real Copernicus DEM GLO-30)", "flow_accumulation_cells": 16, "flow_accumulation_provenance": "INFERRED", "length_m": 29.85, "capacity_m3s": 0.2, "capacity_provenance": "ESTIMATED"}}, {"type": "Feature", "geometry": {"type": "LineString", "coordinates": [[72.82394228187918, 19.010528187919466], [72.82394228187918, 19.010259731543627]]}, "properties": {"edge_id": 52, "from_node": 82, "to_node": 83, "direction_provenance": "INFERRED (D8 steepest-descent on real Copernicus DEM GLO-30)", "flow_accumulation_cells": 10, "flow_accumulation_provenance": "INFERRED", "length_m": 29.85, "capacity_m3s": 0.125, "capacity_provenance": "ESTIMATED"}}, {"type": "Feature", "geometry": {"type": "LineString", "coordinates": [[72.8274322147651, 19.00891744966443], [72.82716375838926, 19.00891744966443]]}, "properties": {"edge_id": 53, "from_node": 84, "to_node": 85, "direction_provenance": "INFERRED (D8 steepest-descent on real Copernicus DEM GLO-30)", "flow_accumulation_cells": 10, "flow_accumulation_provenance": "INFERRED", "length_m": 28.22, "capacity_m3s": 0.125, "capacity_provenance": "ESTIMATED"}}, {"type": "Feature", "geometry": {"type": "LineString", "coordinates": [[72.8494456375839, 19.008380536912753], [72.84971409395973, 19.008380536912753]]}, "properties": {"edge_id": 54, "from_node": 86, "to_node": 87, "direction_provenance": "INFERRED (D8 steepest-descent on real Copernicus DEM GLO-30)", "flow_accumulation_cells": 11, "flow_accumulation_provenance": "INFERRED", "length_m": 28.22, "capacity_m3s": 0.1375, "capacity_provenance": "ESTIMATED"}}, {"type": "Feature", "geometry": {"type": "LineString", "coordinates": [[72.8467610738255, 19.008112080536915], [72.8467610738255, 19.008380536912753]]}, "properties": {"edge_id": 55, "from_node": 88, "to_node": 89, "direction_provenance": "INFERRED (D8 steepest-descent on real Copernicus DEM GLO-30)", "flow_accumulation_cells": 10, "flow_accumulation_provenance": "INFERRED", "length_m": 29.85, "capacity_m3s": 0.125, "capacity_provenance": "ESTIMATED"}}, {"type": "Feature", "geometry": {"type": "LineString", "coordinates": [[72.84917718120805, 19.0073067114094], [72.8494456375839, 19.0073067114094]]}, "properties": {"edge_id": 56, "from_node": 90, "to_node": 91, "direction_provenance": "INFERRED (D8 steepest-descent on real Copernicus DEM GLO-30)", "flow_accumulation_cells": 24, "flow_accumulation_provenance": "INFERRED", "length_m": 28.22, "capacity_m3s": 0.3, "capacity_provenance": "ESTIMATED"}}, {"type": "Feature", "geometry": {"type": "LineString", "coordinates": [[72.83629127516778, 19.007038255033557], [72.83602281879195, 19.007038255033557]]}, "properties": {"edge_id": 57, "from_node": 92, "to_node": 93, "direction_provenance": "INFERRED (D8 steepest-descent on real Copernicus DEM GLO-30)", "flow_accumulation_cells": 10, "flow_accumulation_provenance": "INFERRED", "length_m": 28.22, "capacity_m3s": 0.125, "capacity_provenance": "ESTIMATED"}}, {"type": "Feature", "geometry": {"type": "LineString", "coordinates": [[72.84890872483221, 19.007038255033557], [72.84917718120805, 19.0073067114094]]}, "properties": {"edge_id": 58, "from_node": 94, "to_node": 90, "direction_provenance": "INFERRED (D8 steepest-descent on real Copernicus DEM GLO-30)", "flow_accumulation_cells": 11, "flow_accumulation_provenance": "INFERRED", "length_m": 41.08, "capacity_m3s": 0.1375, "capacity_provenance": "ESTIMATED"}}, {"type": "Feature", "geometry": {"type": "LineString", "coordinates": [[72.8502510067114, 19.005695973154364], [72.85051946308725, 19.005964429530202]]}, "properties": {"edge_id": 59, "from_node": 95, "to_node": 96, "direction_provenance": "INFERRED (D8 steepest-descent on real Copernicus DEM GLO-30)", "flow_accumulation_cells": 10, "flow_accumulation_provenance": "INFERRED", "length_m": 41.08, "capacity_m3s": 0.125, "capacity_provenance": "ESTIMATED"}}, {"type": "Feature", "geometry": {"type": "LineString", "coordinates": [[72.85535167785235, 19.005427516778525], [72.85562013422819, 19.005159060402686]]}, "properties": {"edge_id": 60, "from_node": 97, "to_node": 98, "direction_provenance": "INFERRED (D8 steepest-descent on real Copernicus DEM GLO-30)", "flow_accumulation_cells": 10, "flow_accumulation_provenance": "INFERRED", "length_m": 41.08, "capacity_m3s": 0.125, "capacity_provenance": "ESTIMATED"}}, {"type": "Feature", "geometry": {"type": "LineString", "coordinates": [[72.82635838926174, 19.005159060402686], [72.82662684563758, 19.005159060402686]]}, "properties": {"edge_id": 61, "from_node": 99, "to_node": 100, "direction_provenance": "INFERRED (D8 steepest-descent on real Copernicus DEM GLO-30)", "flow_accumulation_cells": 13, "flow_accumulation_provenance": "INFERRED", "length_m": 28.22, "capacity_m3s": 0.1625, "capacity_provenance": "ESTIMATED"}}, {"type": "Feature", "geometry": {"type": "LineString", "coordinates": [[72.85266711409396, 19.00435369127517], [72.8529355704698, 19.00435369127517]]}, "properties": {"edge_id": 62, "from_node": 101, "to_node": 102, "direction_provenance": "INFERRED (D8 steepest-descent on real Copernicus DEM GLO-30)", "flow_accumulation_cells": 10, "flow_accumulation_provenance": "INFERRED", "length_m": 28.22, "capacity_m3s": 0.125, "capacity_provenance": "ESTIMATED"}}, {"type": "Feature", "geometry": {"type": "LineString", "coordinates": [[72.84890872483221, 19.004085234899332], [72.84864026845638, 19.00435369127517]]}, "properties": {"edge_id": 63, "from_node": 103, "to_node": 104, "direction_provenance": "INFERRED (D8 steepest-descent on real Copernicus DEM GLO-30)", "flow_accumulation_cells": 30, "flow_accumulation_provenance": "INFERRED", "length_m": 41.08, "capacity_m3s": 0.375, "capacity_provenance": "ESTIMATED"}}, {"type": "Feature", "geometry": {"type": "LineString", "coordinates": [[72.84917718120805, 19.00381677852349], [72.84890872483221, 19.004085234899332]]}, "properties": {"edge_id": 64, "from_node": 105, "to_node": 103, "direction_provenance": "INFERRED (D8 steepest-descent on real Copernicus DEM GLO-30)", "flow_accumulation_cells": 29, "flow_accumulation_provenance": "INFERRED", "length_m": 41.08, "capacity_m3s": 0.3625, "capacity_provenance": "ESTIMATED"}}, {"type": "Feature", "geometry": {"type": "LineString", "coordinates": [[72.8494456375839, 19.00381677852349], [72.84917718120805, 19.00381677852349]]}, "properties": {"edge_id": 65, "from_node": 106, "to_node": 105, "direction_provenance": "INFERRED (D8 steepest-descent on real Copernicus DEM GLO-30)", "flow_accumulation_cells": 25, "flow_accumulation_provenance": "INFERRED", "length_m": 28.22, "capacity_m3s": 0.3125, "capacity_provenance": "ESTIMATED"}}, {"type": "Feature", "geometry": {"type": "LineString", "coordinates": [[72.85132483221476, 19.00381677852349], [72.85132483221476, 19.004085234899332]]}, "properties": {"edge_id": 66, "from_node": 107, "to_node": 108, "direction_provenance": "INFERRED (D8 steepest-descent on real Copernicus DEM GLO-30)", "flow_accumulation_cells": 27, "flow_accumulation_provenance": "INFERRED", "length_m": 29.85, "capacity_m3s": 0.3375, "capacity_provenance": "ESTIMATED"}}, {"type": "Feature", "geometry": {"type": "LineString", "coordinates": [[72.84971409395973, 19.00354832214765], [72.8494456375839, 19.00381677852349]]}, "properties": {"edge_id": 67, "from_node": 109, "to_node": 106, "direction_provenance": "INFERRED (D8 steepest-descent on real Copernicus DEM GLO-30)", "flow_accumulation_cells": 24, "flow_accumulation_provenance": "INFERRED", "length_m": 41.08, "capacity_m3s": 0.3, "capacity_provenance": "ESTIMATED"}}, {"type": "Feature", "geometry": {"type": "LineString", "coordinates": [[72.85132483221476, 19.00354832214765], [72.85132483221476, 19.00381677852349]]}, "properties": {"edge_id": 68, "from_node": 110, "to_node": 107, "direction_provenance": "INFERRED (D8 steepest-descent on real Copernicus DEM GLO-30)", "flow_accumulation_cells": 24, "flow_accumulation_provenance": "INFERRED", "length_m": 29.85, "capacity_m3s": 0.3, "capacity_provenance": "ESTIMATED"}}, {"type": "Feature", "geometry": {"type": "LineString", "coordinates": [[72.84139194630872, 19.003279865771812], [72.84139194630872, 19.00354832214765]]}, "properties": {"edge_id": 69, "from_node": 111, "to_node": 112, "direction_provenance": "INFERRED (D8 steepest-descent on real Copernicus DEM GLO-30)", "flow_accumulation_cells": 14, "flow_accumulation_provenance": "INFERRED", "length_m": 29.85, "capacity_m3s": 0.175, "capacity_provenance": "ESTIMATED"}}, {"type": "Feature", "geometry": {"type": "LineString", "coordinates": [[72.84971409395973, 19.003279865771812], [72.84971409395973, 19.00354832214765]]}, "properties": {"edge_id": 70, "from_node": 113, "to_node": 109, "direction_provenance": "INFERRED (D8 steepest-descent on real Copernicus DEM GLO-30)", "flow_accumulation_cells": 16, "flow_accumulation_provenance": "INFERRED", "length_m": 29.85, "capacity_m3s": 0.2, "capacity_provenance": "ESTIMATED"}}, {"type": "Feature", "geometry": {"type": "LineString", "coordinates": [[72.85132483221476, 19.003279865771812], [72.85132483221476, 19.00354832214765]]}, "properties": {"edge_id": 71, "from_node": 114, "to_node": 110, "direction_provenance": "INFERRED (D8 steepest-descent on real Copernicus DEM GLO-30)", "flow_accumulation_cells": 23, "flow_accumulation_provenance": "INFERRED", "length_m": 29.85, "capacity_m3s": 0.2875, "capacity_provenance": "ESTIMATED"}}, {"type": "Feature", "geometry": {"type": "LineString", "coordinates": [[72.84166040268457, 19.003011409395974], [72.84139194630872, 19.003279865771812]]}, "properties": {"edge_id": 72, "from_node": 115, "to_node": 111, "direction_provenance": "INFERRED (D8 steepest-descent on real Copernicus DEM GLO-30)", "flow_accumulation_cells": 10, "flow_accumulation_provenance": "INFERRED", "length_m": 41.08, "capacity_m3s": 0.125, "capacity_provenance": "ESTIMATED"}}, {"type": "Feature", "geometry": {"type": "LineString", "coordinates": [[72.84971409395973, 19.003011409395974], [72.84971409395973, 19.003279865771812]]}, "properties": {"edge_id": 73, "from_node": 116, "to_node": 113, "direction_provenance": "INFERRED (D8 steepest-descent on real Copernicus DEM GLO-30)", "flow_accumulation_cells": 14, "flow_accumulation_provenance": "INFERRED", "length_m": 29.85, "capacity_m3s": 0.175, "capacity_provenance": "ESTIMATED"}}, {"type": "Feature", "geometry": {"type": "LineString", "coordinates": [[72.85132483221476, 19.003011409395974], [72.85132483221476, 19.003279865771812]]}, "properties": {"edge_id": 74, "from_node": 117, "to_node": 114, "direction_provenance": "INFERRED (D8 steepest-descent on real Copernicus DEM GLO-30)", "flow_accumulation_cells": 15, "flow_accumulation_provenance": "INFERRED", "length_m": 29.85, "capacity_m3s": 0.1875, "capacity_provenance": "ESTIMATED"}}, {"type": "Feature", "geometry": {"type": "LineString", "coordinates": [[72.84864026845638, 19.00166912751678], [72.84837181208053, 19.001400671140942]]}, "properties": {"edge_id": 75, "from_node": 118, "to_node": 119, "direction_provenance": "INFERRED (D8 steepest-descent on real Copernicus DEM GLO-30)", "flow_accumulation_cells": 14, "flow_accumulation_provenance": "INFERRED", "length_m": 41.08, "capacity_m3s": 0.175, "capacity_provenance": "ESTIMATED"}}, {"type": "Feature", "geometry": {"type": "LineString", "coordinates": [[72.84890872483221, 19.00166912751678], [72.84864026845638, 19.00166912751678]]}, "properties": {"edge_id": 76, "from_node": 120, "to_node": 118, "direction_provenance": "INFERRED (D8 steepest-descent on real Copernicus DEM GLO-30)", "flow_accumulation_cells": 10, "flow_accumulation_provenance": "INFERRED", "length_m": 28.22, "capacity_m3s": 0.125, "capacity_provenance": "ESTIMATED"}}, {"type": "Feature", "geometry": {"type": "LineString", "coordinates": [[72.84756644295302, 19.001400671140942], [72.84729798657717, 19.001400671140942]]}, "properties": {"edge_id": 77, "from_node": 121, "to_node": 122, "direction_provenance": "INFERRED (D8 steepest-descent on real Copernicus DEM GLO-30)", "flow_accumulation_cells": 44, "flow_accumulation_provenance": "INFERRED", "length_m": 28.22, "capacity_m3s": 0.55, "capacity_provenance": "ESTIMATED"}}, {"type": "Feature", "geometry": {"type": "LineString", "coordinates": [[72.8481033557047, 19.001400671140942], [72.84783489932886, 19.001132214765104]]}, "properties": {"edge_id": 78, "from_node": 123, "to_node": 124, "direction_provenance": "INFERRED (D8 steepest-descent on real Copernicus DEM GLO-30)", "flow_accumulation_cells": 21, "flow_accumulation_provenance": "INFERRED", "length_m": 41.08, "capacity_m3s": 0.2625, "capacity_provenance": "ESTIMATED"}}, {"type": "Feature", "geometry": {"type": "LineString", "coordinates": [[72.84837181208053, 19.001400671140942], [72.8481033557047, 19.001400671140942]]}, "properties": {"edge_id": 79, "from_node": 119, "to_node": 123, "direction_provenance": "INFERRED (D8 steepest-descent on real Copernicus DEM GLO-30)", "flow_accumulation_cells": 19, "flow_accumulation_provenance": "INFERRED", "length_m": 28.22, "capacity_m3s": 0.2375, "capacity_provenance": "ESTIMATED"}}, {"type": "Feature", "geometry": {"type": "LineString", "coordinates": [[72.84783489932886, 19.001132214765104], [72.84756644295302, 19.001400671140942]]}, "properties": {"edge_id": 80, "from_node": 124, "to_node": 121, "direction_provenance": "INFERRED (D8 steepest-descent on real Copernicus DEM GLO-30)", "flow_accumulation_cells": 37, "flow_accumulation_provenance": "INFERRED", "length_m": 41.08, "capacity_m3s": 0.4625, "capacity_provenance": "ESTIMATED"}}, {"type": "Feature", "geometry": {"type": "LineString", "coordinates": [[72.8481033557047, 19.001132214765104], [72.84783489932886, 19.001132214765104]]}, "properties": {"edge_id": 81, "from_node": 125, "to_node": 124, "direction_provenance": "INFERRED (D8 steepest-descent on real Copernicus DEM GLO-30)", "flow_accumulation_cells": 13, "flow_accumulation_provenance": "INFERRED", "length_m": 28.22, "capacity_m3s": 0.1625, "capacity_provenance": "ESTIMATED"}}, {"type": "Feature", "geometry": {"type": "LineString", "coordinates": [[72.85051946308725, 19.001132214765104], [72.85078791946309, 19.001132214765104]]}, "properties": {"edge_id": 82, "from_node": 126, "to_node": 127, "direction_provenance": "INFERRED (D8 steepest-descent on real Copernicus DEM GLO-30)", "flow_accumulation_cells": 11, "flow_accumulation_provenance": "INFERRED", "length_m": 28.22, "capacity_m3s": 0.1375, "capacity_provenance": "ESTIMATED"}}, {"type": "Feature", "geometry": {"type": "LineString", "coordinates": [[72.84488187919463, 19.000595302013423], [72.8446134228188, 19.000595302013423]]}, "properties": {"edge_id": 83, "from_node": 128, "to_node": 129, "direction_provenance": "INFERRED (D8 steepest-descent on real Copernicus DEM GLO-30)", "flow_accumulation_cells": 24, "flow_accumulation_provenance": "INFERRED", "length_m": 28.22, "capacity_m3s": 0.3, "capacity_provenance": "ESTIMATED"}}, {"type": "Feature", "geometry": {"type": "LineString", "coordinates": [[72.8502510067114, 19.000595302013423], [72.85051946308725, 19.000595302013423]]}, "properties": {"edge_id": 84, "from_node": 130, "to_node": 131, "direction_provenance": "INFERRED (D8 steepest-descent on real Copernicus DEM GLO-30)", "flow_accumulation_cells": 10, "flow_accumulation_provenance": "INFERRED", "length_m": 28.22, "capacity_m3s": 0.125, "capacity_provenance": "ESTIMATED"}}, {"type": "Feature", "geometry": {"type": "LineString", "coordinates": [[72.84515033557047, 19.000326845637584], [72.84488187919463, 19.000595302013423]]}, "properties": {"edge_id": 85, "from_node": 132, "to_node": 128, "direction_provenance": "INFERRED (D8 steepest-descent on real Copernicus DEM GLO-30)", "flow_accumulation_cells": 20, "flow_accumulation_provenance": "INFERRED", "length_m": 41.08, "capacity_m3s": 0.25, "capacity_provenance": "ESTIMATED"}}, {"type": "Feature", "geometry": {"type": "LineString", "coordinates": [[72.8467610738255, 19.000326845637584], [72.84649261744966, 19.000326845637584]]}, "properties": {"edge_id": 86, "from_node": 133, "to_node": 134, "direction_provenance": "INFERRED (D8 steepest-descent on real Copernicus DEM GLO-30)", "flow_accumulation_cells": 11, "flow_accumulation_provenance": "INFERRED", "length_m": 28.22, "capacity_m3s": 0.1375, "capacity_provenance": "ESTIMATED"}}, {"type": "Feature", "geometry": {"type": "LineString", "coordinates": [[72.8454187919463, 19.000058389261746], [72.84515033557047, 19.000326845637584]]}, "properties": {"edge_id": 87, "from_node": 135, "to_node": 132, "direction_provenance": "INFERRED (D8 steepest-descent on real Copernicus DEM GLO-30)", "flow_accumulation_cells": 18, "flow_accumulation_provenance": "INFERRED", "length_m": 41.08, "capacity_m3s": 0.225, "capacity_provenance": "ESTIMATED"}}, {"type": "Feature", "geometry": {"type": "LineString", "coordinates": [[72.8454187919463, 18.999789932885907], [72.8454187919463, 19.000058389261746]]}, "properties": {"edge_id": 88, "from_node": 136, "to_node": 135, "direction_provenance": "INFERRED (D8 steepest-descent on real Copernicus DEM GLO-30)", "flow_accumulation_cells": 17, "flow_accumulation_provenance": "INFERRED", "length_m": 29.85, "capacity_m3s": 0.2125, "capacity_provenance": "ESTIMATED"}}, {"type": "Feature", "geometry": {"type": "LineString", "coordinates": [[72.85642550335571, 18.99952147651007], [72.85642550335571, 18.99925302013423]]}, "properties": {"edge_id": 89, "from_node": 137, "to_node": 138, "direction_provenance": "INFERRED (D8 steepest-descent on real Copernicus DEM GLO-30)", "flow_accumulation_cells": 10, "flow_accumulation_provenance": "INFERRED", "length_m": 29.85, "capacity_m3s": 0.125, "capacity_provenance": "ESTIMATED"}}, {"type": "Feature", "geometry": {"type": "LineString", "coordinates": [[72.84407651006711, 18.99925302013423], [72.84380805369128, 18.99952147651007]]}, "properties": {"edge_id": 90, "from_node": 139, "to_node": 140, "direction_provenance": "INFERRED (D8 steepest-descent on real Copernicus DEM GLO-30)", "flow_accumulation_cells": 14, "flow_accumulation_provenance": "INFERRED", "length_m": 41.08, "capacity_m3s": 0.175, "capacity_provenance": "ESTIMATED"}}, {"type": "Feature", "geometry": {"type": "LineString", "coordinates": [[72.84327114093959, 18.99898456375839], [72.84300268456376, 18.99898456375839]]}, "properties": {"edge_id": 91, "from_node": 141, "to_node": 142, "direction_provenance": "INFERRED (D8 steepest-descent on real Copernicus DEM GLO-30)", "flow_accumulation_cells": 16, "flow_accumulation_provenance": "INFERRED", "length_m": 28.22, "capacity_m3s": 0.2, "capacity_provenance": "ESTIMATED"}}, {"type": "Feature", "geometry": {"type": "LineString", "coordinates": [[72.84353959731543, 18.99898456375839], [72.84327114093959, 18.99898456375839]]}, "properties": {"edge_id": 92, "from_node": 143, "to_node": 141, "direction_provenance": "INFERRED (D8 steepest-descent on real Copernicus DEM GLO-30)", "flow_accumulation_cells": 13, "flow_accumulation_provenance": "INFERRED", "length_m": 28.22, "capacity_m3s": 0.1625, "capacity_provenance": "ESTIMATED"}}, {"type": "Feature", "geometry": {"type": "LineString", "coordinates": [[72.84890872483221, 18.99898456375839], [72.84917718120805, 18.998716107382553]]}, "properties": {"edge_id": 93, "from_node": 144, "to_node": 145, "direction_provenance": "INFERRED (D8 steepest-descent on real Copernicus DEM GLO-30)", "flow_accumulation_cells": 10, "flow_accumulation_provenance": "INFERRED", "length_m": 41.08, "capacity_m3s": 0.125, "capacity_provenance": "ESTIMATED"}}, {"type": "Feature", "geometry": {"type": "LineString", "coordinates": [[72.85669395973154, 18.99898456375839], [72.85642550335571, 18.99925302013423]]}, "properties": {"edge_id": 94, "from_node": 146, "to_node": 138, "direction_provenance": "INFERRED (D8 steepest-descent on real Copernicus DEM GLO-30)", "flow_accumulation_cells": 10, "flow_accumulation_provenance": "INFERRED", "length_m": 41.08, "capacity_m3s": 0.125, "capacity_provenance": "ESTIMATED"}}, {"type": "Feature", "geometry": {"type": "LineString", "coordinates": [[72.8397812080537, 18.998716107382553], [72.83951275167784, 18.99898456375839]]}, "properties": {"edge_id": 95, "from_node": 147, "to_node": 148, "direction_provenance": "INFERRED (D8 steepest-descent on real Copernicus DEM GLO-30)", "flow_accumulation_cells": 14, "flow_accumulation_provenance": "INFERRED", "length_m": 41.08, "capacity_m3s": 0.175, "capacity_provenance": "ESTIMATED"}}, {"type": "Feature", "geometry": {"type": "LineString", "coordinates": [[72.84004966442953, 18.998716107382553], [72.8397812080537, 18.998716107382553]]}, "properties": {"edge_id": 96, "from_node": 149, "to_node": 147, "direction_provenance": "INFERRED (D8 steepest-descent on real Copernicus DEM GLO-30)", "flow_accumulation_cells": 11, "flow_accumulation_provenance": "INFERRED", "length_m": 28.22, "capacity_m3s": 0.1375, "capacity_provenance": "ESTIMATED"}}, {"type": "Feature", "geometry": {"type": "LineString", "coordinates": [[72.84031812080536, 18.998716107382553], [72.84004966442953, 18.998716107382553]]}, "properties": {"edge_id": 97, "from_node": 150, "to_node": 149, "direction_provenance": "INFERRED (D8 steepest-descent on real Copernicus DEM GLO-30)", "flow_accumulation_cells": 10, "flow_accumulation_provenance": "INFERRED", "length_m": 28.22, "capacity_m3s": 0.125, "capacity_provenance": "ESTIMATED"}}, {"type": "Feature", "geometry": {"type": "LineString", "coordinates": [[72.84380805369128, 18.998716107382553], [72.84353959731543, 18.99898456375839]]}, "properties": {"edge_id": 98, "from_node": 151, "to_node": 143, "direction_provenance": "INFERRED (D8 steepest-descent on real Copernicus DEM GLO-30)", "flow_accumulation_cells": 12, "flow_accumulation_provenance": "INFERRED", "length_m": 41.08, "capacity_m3s": 0.15, "capacity_provenance": "ESTIMATED"}}, {"type": "Feature", "geometry": {"type": "LineString", "coordinates": [[72.84649261744966, 18.998716107382553], [72.84649261744966, 18.998447651006714]]}, "properties": {"edge_id": 99, "from_node": 152, "to_node": 153, "direction_provenance": "INFERRED (D8 steepest-descent on real Copernicus DEM GLO-30)", "flow_accumulation_cells": 14, "flow_accumulation_provenance": "INFERRED", "length_m": 29.85, "capacity_m3s": 0.175, "capacity_provenance": "ESTIMATED"}}, {"type": "Feature", "geometry": {"type": "LineString", "coordinates": [[72.8467610738255, 18.998716107382553], [72.84649261744966, 18.998716107382553]]}, "properties": {"edge_id": 100, "from_node": 154, "to_node": 152, "direction_provenance": "INFERRED (D8 steepest-descent on real Copernicus DEM GLO-30)", "flow_accumulation_cells": 13, "flow_accumulation_provenance": "INFERRED", "length_m": 28.22, "capacity_m3s": 0.1625, "capacity_provenance": "ESTIMATED"}}, {"type": "Feature", "geometry": {"type": "LineString", "coordinates": [[72.84702953020134, 18.998716107382553], [72.8467610738255, 18.998716107382553]]}, "properties": {"edge_id": 101, "from_node": 155, "to_node": 154, "direction_provenance": "INFERRED (D8 steepest-descent on real Copernicus DEM GLO-30)", "flow_accumulation_cells": 12, "flow_accumulation_provenance": "INFERRED", "length_m": 28.22, "capacity_m3s": 0.15, "capacity_provenance": "ESTIMATED"}}, {"type": "Feature", "geometry": {"type": "LineString", "coordinates": [[72.84917718120805, 18.998716107382553], [72.84917718120805, 18.998447651006714]]}, "properties": {"edge_id": 102, "from_node": 145, "to_node": 156, "direction_provenance": "INFERRED (D8 steepest-descent on real Copernicus DEM GLO-30)", "flow_accumulation_cells": 21, "flow_accumulation_provenance": "INFERRED", "length_m": 29.85, "capacity_m3s": 0.2625, "capacity_provenance": "ESTIMATED"}}, {"type": "Feature", "geometry": {"type": "LineString", "coordinates": [[72.82394228187918, 18.998179194630875], [72.82367382550335, 18.997910738255037]]}, "properties": {"edge_id": 103, "from_node": 157, "to_node": 158, "direction_provenance": "INFERRED (D8 steepest-descent on real Copernicus DEM GLO-30)", "flow_accumulation_cells": 12, "flow_accumulation_provenance": "INFERRED", "length_m": 41.08, "capacity_m3s": 0.15, "capacity_provenance": "ESTIMATED"}}, {"type": "Feature", "geometry": {"type": "LineString", "coordinates": [[72.82367382550335, 18.997910738255037], [72.82340536912751, 18.997910738255037]]}, "properties": {"edge_id": 104, "from_node": 158, "to_node": 159, "direction_provenance": "INFERRED (D8 steepest-descent on real Copernicus DEM GLO-30)", "flow_accumulation_cells": 16, "flow_accumulation_provenance": "INFERRED", "length_m": 28.23, "capacity_m3s": 0.2, "capacity_provenance": "ESTIMATED"}}, {"type": "Feature", "geometry": {"type": "LineString", "coordinates": [[72.83199597315436, 18.997910738255037], [72.83199597315436, 18.998179194630875]]}, "properties": {"edge_id": 105, "from_node": 160, "to_node": 161, "direction_provenance": "INFERRED (D8 steepest-descent on real Copernicus DEM GLO-30)", "flow_accumulation_cells": 12, "flow_accumulation_provenance": "INFERRED", "length_m": 29.85, "capacity_m3s": 0.15, "capacity_provenance": "ESTIMATED"}}, {"type": "Feature", "geometry": {"type": "LineString", "coordinates": [[72.84890872483221, 18.997910738255037], [72.84917718120805, 18.998179194630875]]}, "properties": {"edge_id": 106, "from_node": 162, "to_node": 163, "direction_provenance": "INFERRED (D8 steepest-descent on real Copernicus DEM GLO-30)", "flow_accumulation_cells": 14, "flow_accumulation_provenance": "INFERRED", "length_m": 41.08, "capacity_m3s": 0.175, "capacity_provenance": "ESTIMATED"}}, {"type": "Feature", "geometry": {"type": "LineString", "coordinates": [[72.8454187919463, 18.997373825503356], [72.84515033557047, 18.997105369127517]]}, "properties": {"edge_id": 107, "from_node": 164, "to_node": 165, "direction_provenance": "INFERRED (D8 steepest-descent on real Copernicus DEM GLO-30)", "flow_accumulation_cells": 17, "flow_accumulation_provenance": "INFERRED", "length_m": 41.08, "capacity_m3s": 0.2125, "capacity_provenance": "ESTIMATED"}}, {"type": "Feature", "geometry": {"type": "LineString", "coordinates": [[72.82447919463087, 18.997105369127517], [72.82421073825503, 18.99683691275168]]}, "properties": {"edge_id": 108, "from_node": 166, "to_node": 167, "direction_provenance": "INFERRED (D8 steepest-descent on real Copernicus DEM GLO-30)", "flow_accumulation_cells": 10, "flow_accumulation_provenance": "INFERRED", "length_m": 41.08, "capacity_m3s": 0.125, "capacity_provenance": "ESTIMATED"}}, {"type": "Feature", "geometry": {"type": "LineString", "coordinates": [[72.84729798657717, 18.997105369127517], [72.84756644295302, 18.997105369127517]]}, "properties": {"edge_id": 109, "from_node": 168, "to_node": 169, "direction_provenance": "INFERRED (D8 steepest-descent on real Copernicus DEM GLO-30)", "flow_accumulation_cells": 13, "flow_accumulation_provenance": "INFERRED", "length_m": 28.23, "capacity_m3s": 0.1625, "capacity_provenance": "ESTIMATED"}}, {"type": "Feature", "geometry": {"type": "LineString", "coordinates": [[72.84756644295302, 18.997105369127517], [72.84783489932886, 18.997105369127517]]}, "properties": {"edge_id": 110, "from_node": 169, "to_node": 170, "direction_provenance": "INFERRED (D8 steepest-descent on real Copernicus DEM GLO-30)", "flow_accumulation_cells": 14, "flow_accumulation_provenance": "INFERRED", "length_m": 28.23, "capacity_m3s": 0.175, "capacity_provenance": "ESTIMATED"}}, {"type": "Feature", "geometry": {"type": "LineString", "coordinates": [[72.84783489932886, 18.997105369127517], [72.8481033557047, 18.99683691275168]]}, "properties": {"edge_id": 111, "from_node": 170, "to_node": 171, "direction_provenance": "INFERRED (D8 steepest-descent on real Copernicus DEM GLO-30)", "flow_accumulation_cells": 20, "flow_accumulation_provenance": "INFERRED", "length_m": 41.08, "capacity_m3s": 0.25, "capacity_provenance": "ESTIMATED"}}, {"type": "Feature", "geometry": {"type": "LineString", "coordinates": [[72.84864026845638, 18.997105369127517], [72.84890872483221, 18.997105369127517]]}, "properties": {"edge_id": 112, "from_node": 172, "to_node": 173, "direction_provenance": "INFERRED (D8 steepest-descent on real Copernicus DEM GLO-30)", "flow_accumulation_cells": 29, "flow_accumulation_provenance": "INFERRED", "length_m": 28.23, "capacity_m3s": 0.3625, "capacity_provenance": "ESTIMATED"}}, {"type": "Feature", "geometry": {"type": "LineString", "coordinates": [[72.84890872483221, 18.997105369127517], [72.84917718120805, 18.99683691275168]]}, "properties": {"edge_id": 113, "from_node": 173, "to_node": 174, "direction_provenance": "INFERRED (D8 steepest-descent on real Copernicus DEM GLO-30)", "flow_accumulation_cells": 30, "flow_accumulation_provenance": "INFERRED", "length_m": 41.08, "capacity_m3s": 0.375, "capacity_provenance": "ESTIMATED"}}, {"type": "Feature", "geometry": {"type": "LineString", "coordinates": [[72.8481033557047, 18.99683691275168], [72.84837181208053, 18.99683691275168]]}, "properties": {"edge_id": 114, "from_node": 171, "to_node": 175, "direction_provenance": "INFERRED (D8 steepest-descent on real Copernicus DEM GLO-30)", "flow_accumulation_cells": 26, "flow_accumulation_provenance": "INFERRED", "length_m": 28.23, "capacity_m3s": 0.325, "capacity_provenance": "ESTIMATED"}}, {"type": "Feature", "geometry": {"type": "LineString", "coordinates": [[72.84837181208053, 18.99683691275168], [72.84864026845638, 18.997105369127517]]}, "properties": {"edge_id": 115, "from_node": 175, "to_node": 172, "direction_provenance": "INFERRED (D8 steepest-descent on real Copernicus DEM GLO-30)", "flow_accumulation_cells": 27, "flow_accumulation_provenance": "INFERRED", "length_m": 41.08, "capacity_m3s": 0.3375, "capacity_provenance": "ESTIMATED"}}, {"type": "Feature", "geometry": {"type": "LineString", "coordinates": [[72.84917718120805, 18.99683691275168], [72.8494456375839, 18.99683691275168]]}, "properties": {"edge_id": 116, "from_node": 174, "to_node": 176, "direction_provenance": "INFERRED (D8 steepest-descent on real Copernicus DEM GLO-30)", "flow_accumulation_cells": 32, "flow_accumulation_provenance": "INFERRED", "length_m": 28.23, "capacity_m3s": 0.4, "capacity_provenance": "ESTIMATED"}}, {"type": "Feature", "geometry": {"type": "LineString", "coordinates": [[72.84595570469799, 18.9963], [72.84568724832215, 18.9963]]}, "properties": {"edge_id": 117, "from_node": 177, "to_node": 178, "direction_provenance": "INFERRED (D8 steepest-descent on real Copernicus DEM GLO-30)", "flow_accumulation_cells": 11, "flow_accumulation_provenance": "INFERRED", "length_m": 28.23, "capacity_m3s": 0.1375, "capacity_provenance": "ESTIMATED"}}]}